name,address,latitude,longitude,url
Ministop -  Trương Vĩnh Ký,"212 - 214 Trương Vĩnh Ký, Phường Tân Sơn Nhì, Thành phố Hồ Chí Minh.",10.7943579,106.6308498,"https://www.google.com/maps/place/MINISTOP%2BTr%C6%B0%C6%A1ng%2BV%C4%A9nh%2BK%C3%BD/@10.7943579,106.6308498,17z/data=!3m1!4b1!4m6!3m5!1s0x317529000c47913d:0xcea0eca8bf9ddacd!8m2!3d10.7943579!4d106.6308498!16s/g/11y0dy1gr9"
Ministop -  Lê Văn Sỹ 2,"407B Lê Văn Sỹ, Phường Nhiêu Lộc, Thành phố Hồ Chí Minh.",10.7887404,106.6759977,"https://www.google.com/maps/place/MINISTOP%2B-%2BS269%2B-%2BL%C3%AA%2BV%C4%83n%2BS%E1%BB%B9%2B2/@10.7887404,106.6759977,17z/data=!3m1!4b1!4m6!3m5!1s0x31752f0011390e65:0x92279e08846e38fe!8m2!3d10.7887404!4d106.6759977!16s/g/11yhs09b58"
Ministop -  Nơ Trang Long,"24 Nơ Trang Long, Phường Bình Thạnh, Thành phố Hồ Chí Minh.",10.8047368,106.6951393,"https://www.google.com/maps/place/S267%2BMinistop/@10.8047368,106.6951393,17z/data=!3m1!4b1!4m6!3m5!1s0x317529004adb0c1f:0xa9619d04899e2cb0!8m2!3d10.8047368!4d106.6951393!16s/g/11zhzcwjt6"
Ministop -  Trần Quốc Hoàn,"117 Trần Quốc Hoàn, Phường Tân Sơn Nhất, Thành phố Hồ Chí Minh.",10.8058828,106.6642476,"https://www.google.com/maps/place/MINISTOP%2B-%2BTR%E1%BA%A6N%2BQU%E1%BB%90C%2BHO%C3%80N/@10.8058828,106.6642476,17z/data=!3m1!4b1!4m6!3m5!1s0x317529002bc94a43:0x69381db8ded344c4!8m2!3d10.8058828!4d106.6642476!16s/g/11xncrd93n"
Ministop -  Võ Oanh,"92 - 94 Võ Oanh, Phường 25, Quận Bình Thạnh, Thành phố Hồ Chí Minh.",10.8043873,106.7160266,"https://www.google.com/maps/place/Ministop%2BVo%2BOanh/@10.8043873,106.7160266,17z/data=!3m1!4b1!4m6!3m5!1s0x317529acfbdb1863:0xa9a8653f253d6af6!8m2!3d10.8043873!4d106.7160266!16s/g/11t7dw7kc9"
Ministop -  Tô Vĩnh Diện,"3A Tô Vĩnh Diện, Khu phố 4, Phường Linh Chiểu, Thành phố Thủ Đức, Thành phố Hồ Chí Minh.",10.8523923,106.7667698,"https://www.google.com/maps/place/MINISTOP%2BS264%2B-%2BT%C3%94%2BV%C4%A8NH%2BDI%E1%BB%86N/@10.8523923,106.7667698,17z/data=!3m1!4b1!4m6!3m5!1s0x3175270067c951e1:0x7c0e13de2d04a91!8m2!3d10.8523923!4d106.7667698!16s/g/11xlpl0qd_"
Ministop -  Hoàng Việt 3,"22 Hoàng Việt, Phường 04, Quận Tân Bình, Thành phố Hồ Chí Minh.",10.7953043,106.6590358,"https://www.google.com/maps/place/Ministop%2B-%2BS263%2B-%2BHo%C3%A0ng%2BVi%E1%BB%87t/@10.7953043,106.6590358,17z/data=!3m1!4b1!4m6!3m5!1s0x317529007611b5d1:0x528700dbb7bb77e7!8m2!3d10.7953043!4d106.6590358!16s/g/11y7jz_j_q"
Ministop -  Đường số 20,"29 Đường số 20, Khu phố 4, Phường Hiệp Bình Chánh, Thành phố Thủ Đức, Thành phố Hồ Chí Minh.",10.8277355,106.7228442,"https://www.google.com/maps/place/CHTL%2B-%2BMINISTOP%2B-%2B261%2B-%2B%C4%90%C6%B0%E1%BB%9Dng%2Bs%E1%BB%91%2B20/@10.8277355,106.7228442,17z/data=!3m1!4b1!4m6!3m5!1s0x317529004175dbe3:0xe58865645e8ed5a0!8m2!3d10.8277355!4d106.7228442!16s/g/11wc4j87ry"
Ministop -  Đường số 1,"124 Đường số 01, Phường 10, Quận Tân Bình, Thành phố Hồ Chí Minh.",10.8458136,106.6613865,"https://www.google.com/maps/place/Ministop%2B%C4%91%C6%B0%E1%BB%9Dng%2Bs%E1%BB%91%2B1/@10.8458136,106.6613865,17z/data=!3m1!4b1!4m6!3m5!1s0x3175290025ddc723:0x838d0d38b6e3fb57!8m2!3d10.8458136!4d106.6613865!16s/g/11wq97szbh"
Ministop -  Lý Chính Thắng,"226/1A - 228 Lý Chính Thắng, Phường 9, Quận 3, Thành phố Hồ Chí Minh.",10.7789479,106.6818124,"https://www.google.com/maps/place/CHTL%2BMinistop%2B-%2BS260%2B-%2BL%C3%BD%2BCh%C3%ADnh%2BTh%E1%BA%AFng/@10.7789479,106.6818124,17z/data=!3m1!4b1!4m6!3m5!1s0x31752f006ffb8135:0xcd8bf4d969c7c31f!8m2!3d10.7789479!4d106.6818124!16s/g/11w4cb_56h"
Ministop -  Cư xá Phú Lâm,"D 48 Lô C, Đường nội bộ Cư xá Phú Lâm D, Phường 10, Quận 6, Thành phố Hồ Chí Minh.",10.7377209,106.6298096,"https://www.google.com/maps/place/CHTL%2B-%2BMINISTOP%2B-%2B259%2B-%2BC%C6%B0%2Bx%C3%A1%2BPh%C3%BA%2BL%C3%A2m%2BD/@10.7377209,106.6298096,17z/data=!3m1!4b1!4m6!3m5!1s0x31752f0067a8de63:0x712161c761860643!8m2!3d10.7377209!4d106.6298096!16s/g/11wc9lm7rc"
Ministop -  Lê Minh Xuân,"102 Lê Minh Xuân, Phường 07, Quận Tân Bình, Thành phố Hồ Chí Minh.",10.7870851,106.6540672,"https://www.google.com/maps/place/MINISTOP%2B-%2BL%C3%AA%2BMinh%2BXu%C3%A2n/@10.7870851,106.6540672,17z/data=!3m1!4b1!4m6!3m5!1s0x31752f0078501f95:0x83a3d5ad6fab7638!8m2!3d10.7870851!4d106.6540672!16s/g/11w3vbqzf9"
Ministop -  Đường số 29,"102 Đường số 29, Khu phố 2, Phường Bình Trị Đông B, Quận Bình Tân, Thành phố Hồ Chí Minh.",10.7568145,106.611728,"https://www.google.com/maps/place/CHTL%2B-%2BMINISTOP%2B-%2BS257%2B-%2B%C4%90%C6%B0%E1%BB%9Dng%2Bs%E1%BB%91%2B29/@10.7568145,106.611728,17z/data=!3m1!4b1!4m6!3m5!1s0x31752d0009d9f3f5:0x7d10875e351a63b3!8m2!3d10.7568145!4d106.611728!16s/g/11y6b46zks"
Ministop -  Đường 154,"223 Đường 154, Phường Tân Phú, Thành phố Thủ Đức, Thành phố Hồ Chí Minh.",10.8648481,106.8108131,"https://www.google.com/maps/place/Ministop%2BTopaz%2BHome%2B2/@10.8648481,106.8108131,17z/data=!3m1!4b1!4m6!3m5!1s0x3175270004299aa7:0x6027059844f6f3b1!8m2!3d10.8648481!4d106.8108131!16s/g/11w3bv9qcq"
Ministop -  Tô Hiến Thành,"161 Tô Hiến Thành, Phường 13, Quận 10, Thành phố Hồ Chí Minh.",10.7805285,106.6691317,"https://www.google.com/maps/place/Ministop/@10.7805285,106.6691317,17z/data=!3m1!4b1!4m6!3m5!1s0x31752f0058cc8acd:0xe2388717e1b34937!8m2!3d10.7805285!4d106.6691317!16s/g/11vzgg48fb"
Ministop -  Chương Dương 2,"24A Chương Dương, Khu phố 3, Phường Linh Chiểu, Thành phố Thủ Đức, Thành phố Hồ Chí Minh",10.8518964,106.7600827,"https://www.google.com/maps/place/CHTL%2B-%2BMINISTOP%2B-%2BS249%2B-%2BCh%C6%B0%C6%A1ng%2BD%C6%B0%C6%A1ng/@10.8518964,106.7600827,17z/data=!3m1!4b1!4m6!3m5!1s0x317527003eb8b265:0xb66c1c8a40cc9da4!8m2!3d10.8518964!4d106.7600827!16s/g/11w91xtj68"
Ministop -  Mạc Đĩnh Chi 2,"65 Bis Mạc Đĩnh Chi, Phường Đa Kao, Quận 1, Thành phố Hồ Chí Minh.",10.7879076,106.6958575,"https://www.google.com/maps/place/Ministop%2B-%2B65bis%2BM%E1%BA%A1c%2B%C4%90%C4%A9nh%2BChi/@10.7879076,106.6958575,17z/data=!3m1!4b1!4m6!3m5!1s0x31752f002457f085:0x951193ca4b0a3823!8m2!3d10.7879076!4d106.6958575!16s/g/11vwrlsk_d"
Ministop -  An Dương Vương,"822 - 824 An Dương Vương, Phường 13, Quận 6, Thành phố Hồ Chí Minh.",10.7532575,106.6244107,"https://www.google.com/maps/place/MINISTOP%2B-%2BS243%2B-%2BAn%2BD%C6%B0%C6%A1ng%2BV%C6%B0%C6%A1ng/@10.7532575,106.6244107,17z/data=!3m1!4b1!4m6!3m5!1s0x31752d0059628c91:0x4c7b780104f45cfe!8m2!3d10.7532575!4d106.6244107!16s/g/11vx25nyg4"
Ministop -  Hòa Bình,"53 Hòa Bình, Phường Tân Thới Hòa, Quận Tân Phú, Thành phố Hồ Chí Minh.",10.7697429,106.6332897,"https://www.google.com/maps/place/Ministop%2B53%2BHo%C3%A0%2BB%C3%ACnh/@10.7697429,106.6332897,17z/data=!3m1!4b1!4m6!3m5!1s0x31752f001f57fd0d:0x87ac552f6c314a52!8m2!3d10.7697429!4d106.6332897!16s/g/11wfj7_h7k"
Ministop -  Đại Lộ 3,"163 Đại Lộ 3, Phường Phước Bình, Thành phố Thủ Đức, Thành phố Hồ Chí Minh.",10.8126285,106.7719921,"https://www.google.com/maps/place/Ministop%2B-%2BC%C4%90KT%2B%C4%90%E1%BB%91i%2BNgo%E1%BA%A1i/@10.8126285,106.7719921,17z/data=!3m1!4b1!4m6!3m5!1s0x317526f674a4dd07:0xa861f71f0ce7c3a!8m2!3d10.8126285!4d106.7719921!16s/g/11xdz_1_2"
Ministop -  Đường số 12,"13A Đường số 12, Khu phố 4, Phường An Khánh, Thành phố Thủ Đức, Thành phố Hồ Chí Minh.",10.7925193,106.7319065,"https://www.google.com/maps/place/MINISTOP%2B-%2BS239%2B-%2B%C4%90%C6%B0%E1%BB%9Dng%2Bs%E1%BB%91%2B12/@10.7925193,106.7319065,17z/data=!3m1!4b1!4m6!3m5!1s0x317527002a111fc5:0x437c1c5d03656612!8m2!3d10.7925193!4d106.7319065!16s/g/11vz94j1vy"
Ministop -  Kha Vạn Cân,"819 Kha Vạn Cân, Khu phố 2, Phường Linh Tây, Thành phố Thủ Đức, Thành phố Hồ Chí Minh.",10.8570387,106.7568879,"https://www.google.com/maps/place/CHTL%2B-%2BMINISTOP%2B-%2BS240%2B-%2BKha%2BV%E1%BA%A1n%2BC%C3%A2n/@10.8570387,106.7568879,17z/data=!3m1!4b1!4m6!3m5!1s0x3175270036bdf1e1:0x155c0075c207cf60!8m2!3d10.8570387!4d106.7568879!16s/g/11vy3c27h3"
Ministop -  Dương Đức Hiền,"33 - 35 Dương Đức Hiền, Phường Tây Thạnh, Quận Tân Phú, Thành phố Hồ Chí Minh.",10.8090025,106.6269935,"https://www.google.com/maps/place/Ministop%2BT%C3%A2y%2BTh%E1%BA%A1nh/@10.8090025,106.6269935,17z/data=!3m1!4b1!4m6!3m5!1s0x31752b0053c1a157:0x9332ea0246d89baf!8m2!3d10.8090025!4d106.6269935!16s/g/11vps981by"
Ministop -  Hoàng Việt 2,"59 Hoàng Việt, Phường 04, Quận Tân Bình, Thành phố Hồ Chí Minh.",10.7930995,106.6581786,"https://www.google.com/maps/place/MINISTOP%2B-%2BS237%2B-%2BHo%C3%A0ng%2BVi%E1%BB%87t%2B2/@10.7930995,106.6581786,17z/data=!3m1!4b1!4m6!3m5!1s0x31752900183b03fd:0xd3ba4a7af71aec64!8m2!3d10.7930995!4d106.6581786!16s/g/11vs7_b1rn"
Ministop -  Âu Dương Lân,"352A Âu Dương Lân, Phường Rạch Ông, Quận 8, Thành phố Hồ Chí Minh.",10.741317,106.685382,"https://www.google.com/maps/place/MINISTOP%2B-%2BS234%2B-%2B%C3%82u%2BD%C6%B0%C6%A1ng%2BL%C3%A2n/@10.741317,106.685382,17z/data=!3m1!4b1!4m6!3m5!1s0x31752f000a2fc391:0xbc9ac2e0adb04b4d!8m2!3d10.741317!4d106.685382!16s/g/11vs7_5srg"
Ministop -  Nguyễn Chí Thanh,"157 - 157A Nguyễn Chí Thanh, Phường 12, Quận 05, Thành phố Hồ Chí Minh.",10.7589765,106.6651685,"https://www.google.com/maps/place/Ministop%2B-%2BNguy%E1%BB%85n%2BCh%C3%AD%2BThanh/@10.7589765,106.6651685,17z/data=!3m1!4b1!4m6!3m5!1s0x31752f00726e7cf3:0xe89049e4163b538!8m2!3d10.7589765!4d106.6651685!16s/g/11vk9g9hfq"
Ministop -  Bùi Văn Ba,"208 Bùi Văn Ba, Khu phố 2, Phường Tân Thuận Đông, Quận 7, Thành phố Hồ Chí Minh.",10.7505766,106.7351001,"https://www.google.com/maps/place/Ministop%2BB%C3%B9i%2BV%C4%83n%2BBa/@10.7505766,106.7351001,17z/data=!3m1!4b1!4m6!3m5!1s0x317525005c8c9b25:0x4b0db4747142f9e!8m2!3d10.7505766!4d106.7351001!16s/g/11vyj5ms1v"
Ministop -  Lạc Long Quân 3,"353 Lạc Long Quân, Phường 05, Quận 11, Thành phố Hồ Chí Minh.",10.7709861,106.6451441,"https://www.google.com/maps/place/Ministop%2BL%E1%BA%A1c%2BLong%2BQu%C3%A2n/@10.7709861,106.6451441,17z/data=!3m1!4b1!4m6!3m5!1s0x31752f0021a4c275:0xe0b827355610deaa!8m2!3d10.7709861!4d106.6451441!16s/g/11vm9ntpzn"
Ministop -  Đất Mới,"367 Đất Mới, Khu phố 5, Phường Bình Trị Đông A, Quận Bình Tân, Thành phố Hồ Chí Minh.",10.7726109,106.609078,"https://www.google.com/maps/place/MINISTOP%2B-%2BS227%2B-%2B%C4%90%E1%BA%A5t%2BM%E1%BB%9Bi/@10.7726109,106.609078,17z/data=!3m1!4b1!4m6!3m5!1s0x31752d003fbf1593:0x28173fc666ce9a84!8m2!3d10.7726109!4d106.609078!16s/g/11ld86x5_s"
Ministop -  Phạm Văn Bạch,"997 Phạm Văn Bạch, Phường 12, Quận Gò Vấp, Thành phố Hồ Chí Minh.",10.8358509,106.6443396,"https://www.google.com/maps/place/Ministop%2BPh%E1%BA%A1m%2BV%C4%83n%2BB%E1%BA%A1ch/@10.8358509,106.6443396,17z/data=!3m1!4b1!4m6!3m5!1s0x317529ee3567db43:0x9ff2b44d0824817!8m2!3d10.8358509!4d106.6443396!16s/g/11vkrk5n3r"
Ministop -  Phan Văn Đạt,"13 Phan Văn Đạt, Phường Bến Nghé, Quận 01, Thành phố Hồ Chí Minh.",10.7752135,106.7050892,"https://www.google.com/maps/place/Mini%2BStop/@10.7752135,106.7050892,17z/data=!3m1!4b1!4m6!3m5!1s0x31752fc70da97fa1:0xd2289a13ec3f93eb!8m2!3d10.7752135!4d106.7050892!16s/g/11vdjhvrqr"
Ministop -  Lý Tự Trọng 3,"126 Lý Tự Trọng, Phường Bến Thành, Quận 01, Thành phố Hồ Chí Minh.",10.773993,106.6967236,"https://www.google.com/maps/place/Ministop%2B-%2BL%C3%BD%2BT%E1%BB%B1%2BTr%E1%BB%8Dng%2B3/@10.773993,106.6967236,17z/data=!3m1!4b1!4m6!3m5!1s0x31752f8dbc2e05d7:0x600a77e7b74b25b7!8m2!3d10.773993!4d106.6967236!16s/g/11y1htdjpk"
Ministop -  Lạc Long Quân 2,"109 Lạc Long Quân, Phường 01, Quận 11, Thành phố Hồ Chí Minh.",10.7709861,106.6451441,"https://www.google.com/maps/place/Ministop%2BL%E1%BA%A1c%2BLong%2BQu%C3%A2n/@10.7709861,106.6451441,17z/data=!3m1!4b1!4m6!3m5!1s0x31752f0021a4c275:0xe0b827355610deaa!8m2!3d10.7709861!4d106.6451441!16s/g/11vm9ntpzn"
Ministop -  Thành Thái 3,"5 Thành Thái, Phường 14, Quận 10, Thành phố Hồ Chí Minh.",10.7693551,106.6661588,"https://www.google.com/maps/place/MINISTOP%2BViet%2BNam/@10.7693551,106.6661588,17z/data=!3m1!4b1!4m6!3m5!1s0x31752f4a191cb8df:0xf20c5ed312e9ed1a!8m2!3d10.7693551!4d106.6661588!16s/g/11v3q6mrcy"
Ministop -  Lê Văn Thọ,"314 Lê Văn Thọ, Phường 11, Quận Gò Vấp, Thành phố Hồ Chí Minh.",10.8454085,106.6571299,"https://www.google.com/maps/place/MiniStop%2Bl%C3%AA%2Bv%C4%83n%2Bth%E1%BB%8D/@10.8454085,106.6571299,17z/data=!3m1!4b1!4m6!3m5!1s0x317529004fb9e7a9:0x6e9b0c45a3460be7!8m2!3d10.8454085!4d106.6571299!16s/g/11y43t68sr"
Ministop -  Bệnh Viện Quân Y 175,"786 Nguyễn Kiệm, Phường 03, Quận Gò Vấp, Thành phố Hồ Chí Minh.",10.8164443,106.6802522,"https://www.google.com/maps/place/Ministop%2BB%E1%BB%87nh%2Bvi%E1%BB%87n%2Bqu%C3%A2n%2By/@10.8164443,106.6802522,17z/data=!3m1!4b1!4m6!3m5!1s0x31752996cb1c03a9:0x5bf536fd3cd97bb!8m2!3d10.8164443!4d106.6802522!16s/g/11vj6xbj37"
Ministop -  Tân Kỳ Tân Quý 2,"446 Tân Kỳ Tân Quý, Phường Sơn Kỳ, Quận Tân Phú, Thành phố Hồ Chí Minh.",10.7985708,106.6165472,"https://www.google.com/maps/place/Ministop%2BS210%2B-%2B446%2BT%C3%A2n%2BK%E1%BB%B3%2BT%C3%A2n%2BQu%C3%BD/@10.7985708,106.6165472,17z/data=!3m1!4b1!4m6!3m5!1s0x31752b2d5ecd5969:0x2616307ab6825485!8m2!3d10.7985708!4d106.6165472!16s/g/11kqrg8sk2"
Ministop -  Đường số 01,"107 Đường số 01, Phường 11, Quận Gò Vấp, Thành phố Hồ Chí Minh.",10.8458136,106.6613865,"https://www.google.com/maps/place/Ministop%2B%C4%91%C6%B0%E1%BB%9Dng%2Bs%E1%BB%91%2B1/@10.8458136,106.6613865,17z/data=!3m1!4b1!4m6!3m5!1s0x3175290025ddc723:0x838d0d38b6e3fb57!8m2!3d10.8458136!4d106.6613865!16s/g/11wq97szbh"
Ministop -  Âu Cơ 3,"5/7A Âu Cơ, Phường 09, Quận Tân Bình, Thành phố Hồ Chí Minh.",10.7755593,106.6506395,"https://www.google.com/maps/place/MINISTOP/@10.7755593,106.6506395,17z/data=!3m1!4b1!4m6!3m5!1s0x31752f152cddb775:0x12da2d3da54b7a75!8m2!3d10.7755593!4d106.6506395!16s/g/11kk4jxrwl"
Ministop -  Vườn Lài 3,"221/40 Vườn Lài, Phường Phú Thọ Hòa, Quận Tân Phú, Thành phố Hồ Chí Minh.",10.7878404,106.6335554,"https://www.google.com/maps/place/MINISTOP%2B-%2BV%C6%B0%E1%BB%9Dn%2BL%C3%A0i/@10.7878404,106.6335554,17z/data=!3m1!4b1!4m6!3m5!1s0x31752eabe7858d9b:0xff6810d747e66634!8m2!3d10.7878404!4d106.6335554!16s/g/11crzwdzw6"
Ministop -  Lý Tự Trọng 2,"101A Lý Tự Trọng, Phường Bến Thành, Quận 01, Thành phố Hồ Chí Minh.",10.7742391,106.6976364,"https://www.google.com/maps/place/Ministop%2B-%2BL%C3%BD%2BT%E1%BB%B1%2BTr%E1%BB%8Dng%2B2/@10.7742391,106.6976364,17z/data=!3m1!4b1!4m6!3m5!1s0x31752f5ee2a6f757:0x231cc6dfc458fd6!8m2!3d10.7742391!4d106.6976364!16s/g/11svfntrzy"
Ministop -  Thạch Thị Thanh,"55 Thạch Thị Thanh, Phường Tân Định, Quận 01, Thành phố Hồ Chí Minh",10.7904497,106.6921152,"https://www.google.com/maps/place/MINISTOP%2BTH%E1%BA%A0CH%2BTH%E1%BB%8A%2BTHANH/@10.7904497,106.6921152,17z/data=!3m1!4b1!4m6!3m5!1s0x31752977661ab321:0xe94825b4124fd61!8m2!3d10.7904497!4d106.6921152!16s/g/11ks077jsc"
Ministop -  Nguyễn Văn Khối,"220/82 Nguyễn Văn Khối, Phường 8, Quận Gò Vấp, Thành phố Hồ Chí Minh",10.8451435,106.6541435,"https://www.google.com/maps/place/Ministop/@10.8451435,106.6541435,17z/data=!3m1!4b1!4m6!3m5!1s0x317529f2a90c65dd:0x1e4becc9eae70918!8m2!3d10.8451435!4d106.6541435!16s/g/11stbfx6yg"
Ministop -  Đường số 28,"143 Đường số 28, Phường 6, Quận Gò Vấp, Thành phố Hồ Chí Minh",10.8437874,106.6810944,"https://www.google.com/maps/place/C%E1%BB%ADa%2Bh%C3%A0ng%2Bti%E1%BB%87n%2Bl%E1%BB%A3i%2Bministop/@10.8437874,106.6810944,17z/data=!3m1!4b1!4m6!3m5!1s0x317529001bc1daaf:0xb594d98674f820e0!8m2!3d10.8437874!4d106.6810944!16s/g/11stdssk6c"
Ministop -  Huỳnh Văn Nghệ,"96 Huỳnh Văn Nghệ, Phường 15 Quận Tân Bình, Thành phố Hồ Chí Minh.",10.8297136,106.6386629,"https://www.google.com/maps/place/Ministop%2BHu%E1%BB%B3nh%2BV%C4%83n%2BNgh%E1%BB%87/@10.8297136,106.6386629,17z/data=!3m1!4b1!4m6!3m5!1s0x3175291691bb0c3b:0x3184fba11b21278a!8m2!3d10.8297136!4d106.6386629!16s/g/11kqrggtpc"
Ministop -  Trịnh Đình Trọng 2,"270A - 272 Trịnh Đình Trọng, Phường Phú Trung, Quận Tân Phú, Thành phố Hồ Chí Minh.",10.7756152,106.6394052,"https://www.google.com/maps/place/MINISTOP/@10.7756152,106.6394052,17z/data=!3m1!4b1!4m6!3m5!1s0x31752f4fe6ee2313:0x6c3cda2241cdcb63!8m2!3d10.7756152!4d106.6394052!16s/g/11tjzm689g"
Ministop -  Bàu Cát,"307A – 307B – 307C Bàu Cát, Phường 12, Quận Tân Bình, Thành phố Hồ Chí Minh.",10.7906665,106.6463613,"https://www.google.com/maps/place/MINISTOP/@10.7906665,106.6463613,17z/data=!3m1!4b1!4m6!3m5!1s0x31752fd8f8f5d77b:0x6be2f87b8e291eb6!8m2!3d10.7906665!4d106.6463613!16s/g/11js_wyd24"
Ministop -  Tân Kỳ Tân Quý,"293B – 293C Tân Kỳ Tân Quý, Phường Tân Sơn Nhì, Quận Tân Phú, Thành phố Hồ Chí Minh",10.8021666,106.6265805,"https://www.google.com/maps/place/MINISTOP%2B-%2BT%C3%82N%2BK%E1%BB%B2%2BT%C3%82N%2BQU%C3%9D/@10.8021666,106.6265805,17z/data=!3m1!4b1!4m6!3m5!1s0x31752b4ff1f46ee3:0x5e8717e2631358fa!8m2!3d10.8021666!4d106.6265805!16s/g/11pf681q26"
Ministop -  Phạm Văn Chí,"220 Phạm Văn Chí, Phường 1, Quận 06, Thành phố Hồ Chí Minh.",10.7448523,106.6466297,"https://www.google.com/maps/place/Ministop%2BPh%E1%BA%A1m%2BV%C4%83n%2BCh%C3%AD/@10.7448523,106.6466297,17z/data=!3m1!4b1!4m6!3m5!1s0x31752f000d743a7d:0x471364d359f60ab4!8m2!3d10.7448523!4d106.6466297!16s/g/11y5gyjm3w"
Ministop -  Thạch Lam,"113 Thạch Lam, Phường Hiệp Tân, Quận Tân Phú, Thành phố Hồ Chí Minh.",10.7769422,106.6300744,"https://www.google.com/maps/place/MINISTOP/@10.7769422,106.6300744,17z/data=!3m1!4b1!4m6!3m5!1s0x31752fae15a8f369:0x47cdd9483520eeaf!8m2!3d10.7769422!4d106.6300744!16s/g/11tk27690x"
Ministop -  Vũ Tùng 2,"135 - 137 Vũ Tùng, Phường 2, Quận Bình Thạnh, TPHCM",10.8021706,106.7012237,"https://www.google.com/maps/place/Ministop%2BV%C5%A9%2BT%C3%B9ng/@10.8021706,106.7012237,17z/data=!3m1!4b1!4m6!3m5!1s0x317528b8ff423c3b:0x38504e3ea5d3c730!8m2!3d10.8021706!4d106.7012237!16s/g/11vkz8pdn6"
Ministop -  Thống Nhất,"141 Thống Nhất, Phường Tân Thành, Quận Tân Phú, TPHCM",10.7907559,106.633678,"https://www.google.com/maps/place/MINISTOP/@10.7907559,106.633678,17z/data=!3m1!4b1!4m6!3m5!1s0x31752f92998d25af:0xf5b0d3d5c081e93a!8m2!3d10.7907559!4d106.633678!16s/g/11s39m5s_v"
Ministop -  Võ Thành Trang,"120 - 122 Võ Thành Trang, Phường 11, Quận Tân Bình, Thành phố Hồ Chí Minh.",10.7913259,106.6499456,"https://www.google.com/maps/place/Ministop%2BVo%2BThanh%2BTrang/@10.7913259,106.6499456,17z/data=!3m1!4b1!4m6!3m5!1s0x31752fea95c9df95:0x67ec8c44e6bb4ce8!8m2!3d10.7913259!4d106.6499456!16s/g/11t6lbcklc"
Ministop -  Tôn Thất Hiệp,"282 - 284 Tôn Thất Hiệp, Phường 8, Quận 11, Thành phố Hồ Chí Minh.",10.7611809,106.6522799,"https://www.google.com/maps/place/MINISTOP%2BT%C3%B4n%2BTh%E1%BA%A5t%2BHi%E1%BB%87p/@10.7611809,106.6522799,17z/data=!3m1!4b1!4m6!3m5!1s0x31752f791f966257:0x883f46f888ceff28!8m2!3d10.7611809!4d106.6522799!16s/g/11t6y4n2vz"
Ministop -  Trần Hưng Đạo,"945 - 947 Trần Hưng Đạo, Phường 01, Quận 5, TP. HCM",10.7540705,106.6772072,"https://www.google.com/maps/place/MINISTOP/@10.7540705,106.6772072,17z/data=!3m1!4b1!4m6!3m5!1s0x31752f026ee37c6d:0x90cec6d253b5e012!8m2!3d10.7540705!4d106.6772072!16s/g/11ljc_fcl8"
Ministop -  Nguyễn Trãi,"927 Nguyễn Trãi, Phường 14, Quận 5, Tp.HCM",10.7527876,106.6553383,"https://www.google.com/maps/place/MINISTOP/@10.7527876,106.6553383,17z/data=!3m1!4b1!4m6!3m5!1s0x31752faee0d81739:0x2c8c6fd591cf5121!8m2!3d10.7527876!4d106.6553383!16s/g/11fnw0sqgz"
Ministop -  Palm Residence,"SH-7C, 12A Đường A5 Khu dân cư Palm Residence, Khu phố 3, Phường An Phú, Tp. Thủ Đức, Tp.HCM",10.7921532,106.7612333,"https://www.google.com/maps/place/Ministop%2BPalm%2BResidence/@10.7921532,106.7612333,17z/data=!3m1!4b1!4m6!3m5!1s0x31752732ab42095b:0x2a6d15e6c1322530!8m2!3d10.7921532!4d106.7612333!16s/g/11h58cynm1"
Ministop -  Mai Thị Lựu,"21 Mai Thị Lựu, Phường Đa Kao, Quận 1, TP.HCM",10.7906677,106.6996129,"https://www.google.com/maps/place/MiniStop/@10.7906677,106.6996129,17z/data=!3m1!4b1!4m6!3m5!1s0x317529f326c87e9b:0x211096385b921809!8m2!3d10.7906677!4d106.6996129!16s/g/11h_610dt_"
Ministop -  Masteri An Phú,"TMDV30, Dự án Masteri An Phú, 179 Võ Nguyên Giáp, Phường Thảo Điền, Thành phố Thủ Đức, Thành phố Hồ Chí Minh.",10.8035896,106.7477414,"https://www.google.com/maps/place/MASTERI%2BAN%2BPH%C3%9A/@10.8035896,106.7477414,17z/data=!3m1!4b1!4m6!3m5!1s0x317527ce496f91f1:0x99a4aabc4bac329f!8m2!3d10.8035896!4d106.7477414!16s/g/11hz2dyt4l"
Ministop -  The Sun Avenue,"SAV.5-00.06 The Sun Avenue, 28 Mai Chí Thọ, Phường An Phú, TP. Thủ Đức, TP. HCM",10.7851449,106.7484762,"https://www.google.com/maps/place/Ministop%2BSun%2BAvenue/@10.7851449,106.7484762,17z/data=!3m1!4b1!4m6!3m5!1s0x3175256209df66f1:0x41fbe7f663720c6e!8m2!3d10.7851449!4d106.7484762!16s/g/11fr0cn4dx"
Ministop -  Lê Thánh Tôn,"11 Lê Thánh Tôn, Phường Bến Nghé, Quận 1",10.7815277,106.7056722,"https://www.google.com/maps/place/Ministop%2BL%C3%AA%2BTh%C3%A1nh%2BT%C3%B4n/@10.7815277,106.7056722,17z/data=!3m1!4b1!4m6!3m5!1s0x31752f18c38f26ef:0x450658968a441c1!8m2!3d10.7815277!4d106.7056722!16s/g/11gy572bdc"
Ministop -  Hoàng Văn Thụ,"519 - 521 Hoàng Văn Thụ, Phường 4, Quận Tân Bình, Thành phố Hồ Chí Minh.",10.7959324,106.6565079,"https://www.google.com/maps/place/MINISTOP/@10.7959324,106.6565079,17z/data=!3m1!4b1!4m6!3m5!1s0x317529e6211c83ff:0x62e20f4c6646bab7!8m2!3d10.7959324!4d106.6565079!16s/g/11fkl8wrnn"
Ministop -  Nguyễn Thái Bình 2,"163 Nguyễn Thái Bình, Phường Nguyễn Thái Bình, Quận 1",10.7680338,106.6985382,"https://www.google.com/maps/place/Ministop%2BNguy%E1%BB%85n%2BTh%C3%A1i%2BB%C3%ACnh/@10.7680338,106.6985382,17z/data=!3m1!4b1!4m6!3m5!1s0x31752f035ebdb86b:0xcef0a3993cc93af4!8m2!3d10.7680338!4d106.6985382!16s/g/11f5k2bwhz"
Ministop -  Nguyễn Văn Nguyễn,"216C Nguyễn Văn Nguyễn, Phường Tân Định, Quận 1",10.7917188,106.6878628,"https://www.google.com/maps/place/Ministop%2BNguyen%2BVan%2BNguyen/@10.7917188,106.6878628,17z/data=!3m1!4b1!4m6!3m5!1s0x317528d29cdf7119:0x4c9f27ff8825d038!8m2!3d10.7917188!4d106.6878628!16s/g/11ggmgt8qj"
Ministop -  Nguyễn Cảnh Chân,"TK 17/1 Nguyễn Cảnh Chân, Phường Cầu Kho, Quận 1",10.7581011,106.6885685,"https://www.google.com/maps/place/MINISTOP%2BNguy%E1%BB%85n%2BC%E1%BA%A3nh%2BCh%C3%A2n/@10.7581011,106.6885685,17z/data=!3m1!4b1!4m6!3m5!1s0x31752fa0d63f4303:0x6468aec8016a5d50!8m2!3d10.7581011!4d106.6885685!16s/g/11gh4mb3t0"
Ministop -  Trần Trọng Cung,"69 Trần Trọng Cung, Phường Tân Thuận Đông, Quận 7",10.7437729,106.7319172,"https://www.google.com/maps/place/MINISTOP/@10.7437729,106.7319172,17z/data=!3m1!4b1!4m6!3m5!1s0x3175257883c17f19:0x8424a570432a7313!8m2!3d10.7437729!4d106.7319172!16s/g/11f3n9_wvg"
Ministop -  Nguyễn Cửu Vân,"79 Nguyễn Cửu Vân, Phường 17, Quận Bình Thạnh",10.7956207,106.7072979,"https://www.google.com/maps/place/MINISTOP/@10.7956207,106.7072979,17z/data=!3m1!4b1!4m6!3m5!1s0x317528b13efc091d:0x10632743d9c26a64!8m2!3d10.7956207!4d106.7072979!16s/g/11f2rwc162"
Ministop -  Vạn Kiếp 2,"87 Vạn Kiếp, Phường 1, Quận Bình Thạnh, Thành phố Hồ Chí Minh.",10.7992906,106.6936645,"https://www.google.com/maps/place/MINISTOP/@10.7992906,106.6936645,17z/data=!3m1!4b1!4m6!3m5!1s0x317529fbd5603f75:0xcb7a3e635ec6f2ba!8m2!3d10.7992906!4d106.6936645!16s/g/11f5k4pxjc"
Ministop -  Phú Thọ,"75 Phú Thọ, Phường 1, Quận 11",10.7584143,106.6415694,"https://www.google.com/maps/place/Ministop/@10.7584143,106.6415694,17z/data=!3m1!4b1!4m6!3m5!1s0x31752e8fed95449f:0x96e5798e137267a1!8m2!3d10.7584143!4d106.6415694!16s/g/11f15hw5lw"
Ministop -  Bình Giã,"62 Bình Giã, Phường 13, Quận Tân Bình",10.8005222,106.6447201,"https://www.google.com/maps/place/Ministop%2B-%2BB%C3%ACnh%2BGi%C3%A3/@10.8005222,106.6447201,17z/data=!3m1!4b1!4m6!3m5!1s0x3175294f1d1bff07:0xf02e34a4e07349ca!8m2!3d10.8005222!4d106.6447201!16s/g/11f5bxhsth"
Ministop -  Cao Thắng 2,"262 - 264 Cao Thắng, Phường 12, Quận 10",10.7748906,106.6756687,"https://www.google.com/maps/place/MINISTOP/@10.7748906,106.6756687,17z/data=!3m1!4b1!4m6!3m5!1s0x31752f355073ae65:0xdbc436666ee9034f!8m2!3d10.7748906!4d106.6756687!16s/g/11gh7rygh2"
Ministop -  Nguyễn Trọng Tuyển 2,"41 Nguyễn Trọng Tuyển, Phường 15, Quận Phú Nhuận",10.7971661,106.6799951,"https://www.google.com/maps/place/MINISTOP/@10.7971661,106.6799951,17z/data=!3m1!4b1!4m6!3m5!1s0x317528d6ed138855:0x7830bf62c32124c2!8m2!3d10.7971661!4d106.6799951!16s/g/11f03ssw88"
Ministop -  Thích Quảng Đức,"113-115 Thích Quảng Đức, Phường 4, Quận Phú Nhuận",10.8056129,106.681758,"https://www.google.com/maps/place/Ministop/@10.8056129,106.681758,17z/data=!3m1!4b1!4m6!3m5!1s0x317528d95bcf658d:0x1827e2d1cb9e6cc4!8m2!3d10.8056129!4d106.681758!16s/g/11h9zgpv4_"
Ministop -  Ung Văn Khiêm,"31/53 Ung Văn Khiêm, Phường 25, Quận Bình Thạnh",10.8099405,106.714914,"https://www.google.com/maps/place/MINISTOP/@10.8099405,106.714914,17z/data=!3m1!4b1!4m6!3m5!1s0x31752965c338adcb:0xf4a95584f7e67a9d!8m2!3d10.8099405!4d106.714914!16s/g/11ghfpq22z"
Ministop -  Bệnh Viện Nhi Đồng 1 Khu Ngoại Trú,"341 Sư Vạn Hạnh, Phường 10, Quận 10",10.7684127,106.6707633,"https://www.google.com/maps/place/Ministop/@10.7684127,106.6707633,17z/data=!3m1!4b1!4m6!3m5!1s0x31752f7347ec6593:0xc1c262b432a06d02!8m2!3d10.7684127!4d106.6707633!16s/g/11gh95npyf"
Ministop -  Bành Văn Trân,"108A Bành Văn Trân, Phường 7, Quận Tân Bình",10.7885728,106.656536,"https://www.google.com/maps/place/MINISTOP/@10.7885728,106.656536,17z/data=!3m1!4b1!4m6!3m5!1s0x31752ecba5e127d5:0x80ef701978196e72!8m2!3d10.7885728!4d106.656536!16s/g/11f0866pgn"
Ministop -  Nguyễn Lâm,"46 Nguyễn Lâm, Phường 6, Quận 10",10.7636764,106.6634433,"https://www.google.com/maps/place/MINISTOP/@10.7636764,106.6634433,17z/data=!3m1!4b1!4m6!3m5!1s0x31752eef4c418ebb:0xaed6636c33062029!8m2!3d10.7636764!4d106.6634433!16s/g/11f_p2x8f0"
Ministop -  Thành Thái,"136 Thành Thái, Phường 12, Quận 10",10.7749558,106.6643185,"https://www.google.com/maps/place/Ministop%2BCN%2BTh%C3%A0nh%2BTh%C3%A1i./@10.7749558,106.6643185,17z/data=!3m1!4b1!4m6!3m5!1s0x31752fdb6089e127:0x4aeec3df51b47bb2!8m2!3d10.7749558!4d106.6643185!16s/g/11f5psjp1d"
Ministop -  Lý Nam Đế,"119 Lý Nam Đế, Phường 7, Quận 11, Thành phố Hồ Chí Minh",10.7609007,106.6595134,"https://www.google.com/maps/place/Ministop%2BL%C3%BD%2BNam%2B%C4%90%E1%BA%BF/@10.7609007,106.6595134,17z/data=!3m1!4b1!4m6!3m5!1s0x31752eee6509f737:0xdec9428921968aca!8m2!3d10.7609007!4d106.6595134!16s/g/11f57whf9y"
Ministop -  Nguyễn Thiện Thuật 2,"138 Nguyễn Thiện Thuật, Phường 3, Quận 3",10.7681728,106.6798332,"https://www.google.com/maps/place/MINISTOP/@10.7681728,106.6798332,17z/data=!3m1!4b1!4m6!3m5!1s0x31752f1f7b7d42cb:0x59a8f834ba1d94f7!8m2!3d10.7681728!4d106.6798332!16s/g/11fxd_vj4s"
Ministop -  Trần Nhân Tôn,"177 - 179 Trần Nhân Tôn, Phường 2, Quận 10",10.763131,106.674549,"https://www.google.com/maps/place/MINISTOP/@10.763131,106.674549,17z/data=!3m1!4b1!4m6!3m5!1s0x31752ee22132f107:0xc637321cb7646f4d!8m2!3d10.763131!4d106.674549!16s/g/11gdggtmjm"
Ministop -  Bùi Đình Túy,"247C Bùi Đình Túy, Phường 14, Quận Bình Thạnh, Thành phố Hồ Chí Minh.",10.8075409,106.701661,"https://www.google.com/maps/place/Ministop/@10.8075409,106.701661,17z/data=!3m1!4b1!4m6!3m5!1s0x317528bf0dc25777:0x265855396e6251a5!8m2!3d10.8075409!4d106.701661!16s/g/11fyls00d5"
Ministop -  Đinh Bộ Lĩnh,"157 Đinh Bộ Lĩnh, Phường 26, Quận Bình Thạnh",10.8092953,106.7090864,"https://www.google.com/maps/place/MINISTOP/@10.8092953,106.7090864,17z/data=!3m1!4b1!4m6!3m5!1s0x31752897cc352d4b:0xe60b318d7c4da837!8m2!3d10.8092953!4d106.7090864!16s/g/11c60063kk"
Ministop -  Bình Thới,"120 Bình Thới, Phường 14, Quận 11",10.7675984,106.6496975,"https://www.google.com/maps/place/MINISTOP/@10.7675984,106.6496975,17z/data=!3m1!4b1!4m6!3m5!1s0x31752e95aa6ffffd:0x726dda7e0fb9ee13!8m2!3d10.7675984!4d106.6496975!16s/g/11c6lbp7p_"
Ministop -  Trần Quý Cáp,"43 Trần Quý Cáp, Phường 12, Quận Bình Thạnh",10.8155772,106.6953528,"https://www.google.com/maps/place/Ministop/@10.8155772,106.6953528,17z/data=!3m1!4b1!4m6!3m5!1s0x317528ebeb79e5b3:0x6db724724cf5df80!8m2!3d10.8155772!4d106.6953528!16s/g/11g027y9_z"
Ministop -  Sư Vạn Hạnh,"435 Sư Vạn Hạnh, Phường 12, Quận 10",10.7727332,106.6689561,"https://www.google.com/maps/place/MINISTOP/@10.7727332,106.6689561,17z/data=!3m1!4b1!4m6!3m5!1s0x31752edc38f507a9:0x37fcd8802da0542a!8m2!3d10.7727332!4d106.6689561!16s/g/11c2k_sz7b"
Ministop -  Trần Quốc Toản,"47 Trần Quốc Toản, Phường Võ Thị Sáu, Quận 3",10.78809,106.688799,"https://www.google.com/maps/place/MINISTOP/@10.78809,106.688799,17z/data=!3m1!4b1!4m6!3m5!1s0x31752f3299feb5b3:0xe084d7b4ee205d1a!8m2!3d10.78809!4d106.688799!16s/g/11cs2h8csp"
Ministop -  Khu cư xá Bình Thới,"60 Đường số 5, Khu cư xá Bình Thới, Phường 8, Quận 11",10.7617535,106.6483527,"https://www.google.com/maps/place/MINISTOP/@10.7617535,106.6483527,17z/data=!3m1!4b1!4m6!3m5!1s0x31752e924a10bc49:0x969ce52c43ac1aa!8m2!3d10.7617535!4d106.6483527!16s/g/11g0209c1y"
Ministop -  Nguyễn Du,"15 Nguyễn Du, Phường 1, Quận Gò Vấp, Thành phố Hồ Chí Minh.",10.8257653,106.6858293,"https://www.google.com/maps/place/MINISTOP/@10.8257653,106.6858293,17z/data=!3m1!4b1!4m6!3m5!1s0x317528fa5a0e254f:0xc6c52c15dd7f6a69!8m2!3d10.8257653!4d106.6858293!16s/g/11c533_126"
Ministop -  Xóm Chiếu,"181/13 Xóm Chiếu, Phường 16, Quận 4",10.755345,106.709634,"https://www.google.com/maps/place/MINISTOP%2B-%2BX%C3%B3m%2BChi%E1%BA%BFu/@10.755345,106.709634,17z/data=!3m1!4b1!4m6!3m5!1s0x31752f4a56d68ae7:0xd3851d5f9536972c!8m2!3d10.755345!4d106.709634!16s/g/11y21kkkpt"
Ministop -  Lê Quang Định,"484 Lê Quang Định, Phường 11, Quận Bình Thạnh",10.8142932,106.6897471,"https://www.google.com/maps/place/MINISTOP/@10.8142932,106.6897471,17z/data=!3m1!4b1!4m6!3m5!1s0x317528e85f757187:0xb16fd146e3121940!8m2!3d10.8142932!4d106.6897471!16s/g/11cs16zn7w"
Ministop -  Trần Đình Xu,"114 Trần Đình Xu, Phường Nguyễn Cư Trinh, Quận 1",10.762161,106.689194,"https://www.google.com/maps/place/MINISTOP%2B-%2BTr%E1%BA%A7n%2B%C4%90%C3%ACnh%2BXu/@10.762161,106.689194,17z/data=!3m1!4b1!4m6!3m5!1s0x31752f10b726059d:0x28f131b567e63f1c!8m2!3d10.762161!4d106.689194!16s/g/11c2lk7cq_"
Ministop -  Hoa Sứ,"61 Hoa Sứ, Phường 7, Quận Phú Nhuận",10.7999295,106.688888,"https://www.google.com/maps/place/MINISTOP/@10.7999295,106.688888,17z/data=!3m1!4b1!4m6!3m5!1s0x317528cfefc2fd41:0x85ab313e0fe688a8!8m2!3d10.7999295!4d106.688888!16s/g/11c1tz0dlx"
Ministop -  Nam Kỳ Khởi Nghĩa,"75 (Tầng 1) Nam Kỳ Khởi Nghĩa, Phường Bến Thành, Quận 1",10.7723735,106.7004262,"https://www.google.com/maps/place/Ministop%2BNam%2BK%E1%BB%B3%2BKh%E1%BB%9Fi%2BNgh%C4%A9a/@10.7723735,106.7004262,17z/data=!3m1!4b1!4m6!3m5!1s0x31752f40ae8ab241:0xc19751f218efa750!8m2!3d10.7723735!4d106.7004262!16s/g/11c1ncvy9q"
Ministop -  Vũ Huy Tấn,"15K Vũ Huy Tấn, Phường 1, Quận Bình Thạnh, Thành phố Hồ Chí Minh.",10.795789,106.6942671,"https://www.google.com/maps/place/Ministop/@10.795789,106.6942671,17z/data=!3m1!4b1!4m6!3m5!1s0x317528c94e59e51b:0x8c16578afdbd48be!8m2!3d10.795789!4d106.6942671!16s/g/11cm0x2bds"
Ministop -  Đào Duy Từ,"17 Đào Duy Từ, Phường 8, Quận 10, Thành phố Hồ Chí Minh.",10.7606079,106.6680807,"https://www.google.com/maps/place/MINISTOP%2B-%2B%C4%90%C3%A0o%2BDuy%2BT%E1%BB%AB/@10.7606079,106.6680807,17z/data=!3m1!4b1!4m6!3m5!1s0x31752ee4fa3d3fa7:0x3cf2e9daee10a139!8m2!3d10.7606079!4d106.6680807!16s/g/11c55j96w0"
Ministop -  Vườn Lài,"56 Vườn Lài, Phường Tân Thành, Quận Tân Phú",10.7878404,106.6335554,"https://www.google.com/maps/place/MINISTOP%2B-%2BV%C6%B0%E1%BB%9Dn%2BL%C3%A0i/@10.7878404,106.6335554,17z/data=!3m1!4b1!4m6!3m5!1s0x31752eabe7858d9b:0xff6810d747e66634!8m2!3d10.7878404!4d106.6335554!16s/g/11crzwdzw6"
Ministop -  Thăng Long,"33 Thăng Long, Phường 4, Quận Tân Bình",10.8022968,106.6604245,"https://www.google.com/maps/place/MINISTOP%2B-%2BTh%C4%83ng%2BLong/@10.8022968,106.6604245,17z/data=!3m1!4b1!4m6!3m5!1s0x3175293a75c2e4af:0xc3d10960b1db2d8f!8m2!3d10.8022968!4d106.6604245!16s/g/11c1r7gcxt"
Ministop -  Nguyễn Gia Trí,"106 Nguyễn Gia Trí, Phường 25, Quận Bình Thạnh",10.8043873,106.7160266,"https://www.google.com/maps/place/Ministop%2BVo%2BOanh/@10.8043873,106.7160266,17z/data=!3m1!4b1!4m6!3m5!1s0x317529acfbdb1863:0xa9a8653f253d6af6!8m2!3d10.8043873!4d106.7160266!16s/g/11t7dw7kc9"
Ministop -  Trần Khắc Chân,"79 Trần Khắc Chân, Phường Tân Định, Quận 1",10.7944479,106.6908865,"https://www.google.com/maps/place/MINISTOP%2B-%2BTr%E1%BA%A7n%2BKh%E1%BA%AFc%2BCh%C3%A2n/@10.7944479,106.6908865,17z/data=!3m1!4b1!4m6!3m5!1s0x317528cdcd673b07:0xa74bdd01cc537b69!8m2!3d10.7944479!4d106.6908865!16s/g/11c187w8sh"
Ministop -  Phạm Văn Hai,"204 Phạm Văn Hai, Phường 5, Quận Tân Bình",10.7912538,106.6618123,"https://www.google.com/maps/place/MINISTOP/@10.7912538,106.6618123,17z/data=!3m1!4b1!4m6!3m5!1s0x31752932d4caaa59:0x25aea94eb7fc902f!8m2!3d10.7912538!4d106.6618123!16s/g/11c135dmy_"
Ministop -  Nguyễn Biểu,"207 Nguyễn Biểu, Phường 2, Quận 5",10.7572431,106.6831284,"https://www.google.com/maps/place/MINISTOP%2B-%2BNguy%E1%BB%85n%2BBi%E1%BB%83u/@10.7572431,106.6831284,17z/data=!3m1!4b1!4m6!3m5!1s0x31752f8ecdbd49f9:0x63fb6ab00ed6c2a1!8m2!3d10.7572431!4d106.6831284!16s/g/11sjp81cf0"
Ministop -  Ngô Tất Tố,"69 Ngô Tất Tố, Phường 19, Quận Bình Thạnh, Thành phố Hồ Chí Minh. Số điện thoại:",10.7929791,106.7111172,"https://www.google.com/maps/place/Ministop%2BNgo%2BTat%2BTo/@10.7929791,106.7111172,17z/data=!3m1!4b1!4m6!3m5!1s0x317528adf5a45f43:0xb56a1b4ac744cdb6!8m2!3d10.7929791!4d106.7111172!16s/g/11c55tnm_f"
Ministop -  Phạm Viết Chánh 2,"37-39 Phạm Viết Chánh, Phường 19, Quận Bình Thạnh Số điện thoại:",10.7903691,106.7095082,"https://www.google.com/maps/place/MINISTOP/@10.7903691,106.7095082,17z/data=!3m1!4b1!4m6!3m5!1s0x317528b2e8bc9441:0x2c40b6357726853b!8m2!3d10.7903691!4d106.7095082!16s/g/11g6lzff40"
Ministop -  Hutech (Điện Biên Phủ),"475A Điện Biên Phủ, Phường 25, Quận Bình Thạnh Số điện thoại:",10.8025372,106.7146403,"https://www.google.com/maps/place/MINISTOP%2BHUTECH/@10.8025372,106.7146403,17z/data=!3m1!4b1!4m6!3m5!1s0x317528a450d7cb9f:0xf65d8cc95cd2683f!8m2!3d10.8025372!4d106.7146403!16s/g/11c4nwfd12"
Ministop -  Hoàng Hoa Thám,"10A Hoàng Hoa Thám, Phường 7, Quận Bình Thạnh Số điện thoại:",10.8047072,106.6918625,"https://www.google.com/maps/place/MINISTOP/@10.8047072,106.6918625,17z/data=!3m1!4b1!4m6!3m5!1s0x317528c467f81b55:0xa0c0e32a7fb95e48!8m2!3d10.8047072!4d106.6918625!16s/g/11btrs3q_0"
Ministop -  Hòa Hưng,"101 Hòa Hưng, Phường 12, Quận 10 Số điện thoại:",10.7789394,106.6740024,"https://www.google.com/maps/place/MINISTOP/@10.7789394,106.6740024,17z/data=!3m1!4b1!4m6!3m5!1s0x31752ed831ca4493:0xce862cc97fa883ee!8m2!3d10.7789394!4d106.6740024!16s/g/1pwfbcylk"
Ministop -  Cư Xá Đô Thành,"129 - 131 Đường số 3, Cư Xá Đô Thành, Phường 4, Quận 3 Số điện thoại:",10.7721499,106.6810253,"https://www.google.com/maps/place/MINISTOP%2B-%2BC%C6%B0%2Bx%C3%A1%2B%C4%90%C3%B4%2BTh%C3%A0nh/@10.7721499,106.6810253,17z/data=!3m1!4b1!4m6!3m5!1s0x31752f216c08e221:0xf8f5818f6e0c5d2d!8m2!3d10.7721499!4d106.6810253!16s/g/11b6x9_srz"
Ministop -  Nguyễn Thượng Hiền,"245 Nguyễn Thượng Hiền, Phường 5, Quận Bình Thạnh, Thành phố Hồ Chí Minh. Số điện thoại:",10.8058501,106.6858995,"https://www.google.com/maps/place/MINISTOP/@10.8058501,106.6858995,17z/data=!3m1!4b1!4m6!3m5!1s0x317528db7ad95891:0xc488a7759540df44!8m2!3d10.8058501!4d106.6858995!16s/g/11btrs8q7d"
MINISTOP -  Bạch Đằng,"165 Bạch Đằng, Phường 2, Quận Tân Bình",10.8156808,106.6750274,"https://www.google.com/maps/place/Ministop%2BB%E1%BA%A1ch%2B%C4%90%E1%BA%B1ng/@10.8156808,106.6750274,17z/data=!3m1!4b1!4m6!3m5!1s0x3175291e371024f3:0x69a71bf965aa85ca!8m2!3d10.8156808!4d106.6750274!16s/g/11crztn8nw"
MINISTOP -  Trần Thiện Chánh,"77 Trần Thiện Chánh, Phường 12, Quận 10",10.7715268,106.6705993,"https://www.google.com/maps/place/Ministop/@10.7715268,106.6705993,17z/data=!3m1!4b1!4m6!3m5!1s0x31752ede7e57aebd:0x7db7b8720bd9fc5f!8m2!3d10.7715268!4d106.6705993!16s/g/11c56btzlz"
MINISTOP -  Lam Sơn,"25A Lam Sơn, Phường 2, Quận Tân Bình",10.8099786,106.6667227,"https://www.google.com/maps/place/Ministop%2B-%2BLam%2BS%C6%A1n/@10.8099786,106.6667227,17z/data=!3m1!4b1!4m6!3m5!1s0x31752922fa50e7c1:0x8eaf0ee7bf9ff645!8m2!3d10.8099786!4d106.6667227!16s/g/11xh733fq"
Ministop -  Nguyễn Trãi 2,"318 Nguyễn Trãi, Phường An Đông, Thành phố Hồ Chí Minh.",10.7560026,106.674836,"https://www.google.com/maps/place/Ministop%2B-%2B318%2BNguy%E1%BB%85n%2BTr%C3%A3i/@10.7560026,106.674836,17z/data=!3m1!4b1!4m6!3m5!1s0x31752f0067d157b3:0xe0577ff0296c36cc!8m2!3d10.7560026!4d106.674836!16s/g/11xvtqltwj"
Ministop -  Scenic Valley 2,"A0.03, trệt + lầu 1 (Tầng 1+2), Dự án khu dân cư Scenic Valley 2 (Lô MD4-4) – Phú Mỹ Hưng, Phường Tân Mỹ, Thành phố Hồ Chí Minh.",10.7313368,106.7172979,"https://www.google.com/maps/place/MINISTOP%2BS268%2B-%2BSCENIC%2BVALLEY%2B2/@10.7313368,106.7172979,17z/data=!3m1!4b1!4m6!3m5!1s0x31752f0051cd8381:0x85abd69c5c6fa519!8m2!3d10.7313368!4d106.7172979!16s/g/11xz0js1mz"
Ministop -  Tân Sơn Nhì 3,"200A - 200B Tân Sơn Nhì, Phường Tân Sơn Nhì, Quận Tân Phú, Thành phố Hồ Chí Minh.",10.7990691,106.6318827,"https://www.google.com/maps/place/CHTL%2BMinistop%2B-%2BS256%2B-%2BT%C3%A2n%2BS%C6%A1n%2BNh%C3%AC/@10.7990691,106.6318827,17z/data=!3m1!4b1!4m6!3m5!1s0x3175290077e3f453:0x59a2d476e31264d7!8m2!3d10.7990691!4d106.6318827!16s/g/11vxygdcwx"
Ministop -  Tân Kỳ Tân Quý 3,"164A Tân Kỳ Tân Quý, Phường Sơn Kỳ, Quận Tân Phú, Thành phố Hồ Chí Minh.",10.803264,106.6309026,"https://www.google.com/maps/place/MINISTOP%2B-%2BTan%2BKy%2BTan%2BQuy/@10.803264,106.6309026,17z/data=!3m1!4b1!4m6!3m5!1s0x317529000bfa0347:0x3c73f3c990def354!8m2!3d10.803264!4d106.6309026!16s/g/11v_4pv2c9"
Ministop -  Alnata Plus – Celadon City,"S2.0.02, Tầng Trệt và Tầng 1, Khối đế P2, Khu A6 (Alnata Plus – Celadon City), Số 2, Đường N1, Phường Sơn Kỳ, Quận Tân Phú, Thành phố Hồ Chí Minh.",10.8039193,106.6167408,"https://www.google.com/maps/place/CHTL%2B-%2BMINISTOP%2B-%2BS254%2B-%2BCeladon%2BCity/@10.8039193,106.6167408,17z/data=!3m1!4b1!4m6!3m5!1s0x31752b005445caf1:0xb75d59c613fde84!8m2!3d10.8039193!4d106.6167408!16s/g/11w3lspy4c"
Ministop -  Westgate,"0.04 Lầu Trệt (Thông tầng) Tháp A1, Dự án Westgate, Lô F Trung tâm hành chính huyện Bình Chánh, Đường Tân Túc, Khu phố 4, Thị trấn Tân Túc, Huyện Bình Chánh, Thành phố Hồ Chí Minh.",10.6902398,106.5862555,"https://www.google.com/maps/place/Ministop%2B-%2BWestgate/@10.6902398,106.5862555,17z/data=!3m1!4b1!4m6!3m5!1s0x317533000fa7efe7:0x6c66ad9c7427587c!8m2!3d10.6902398!4d106.5862555!16s/g/11y43xgh7w"
Ministop -  UOA Tower,"UOA Tower, 6 Tân Trào, Phường Tân Phú, Quận 7, Thành phố Hồ Chí Minh.",10.7301206,106.7246932,"https://www.google.com/maps/place/Ministop%2B-%2BUOA%2BTower/@10.7301206,106.7246932,17z/data=!3m1!4b1!4m6!3m5!1s0x31752500042a5461:0xebe8bf52a1f4bea1!8m2!3d10.7301206!4d106.7246932!16s/g/11y3vq_2r4"
Ministop -  Điện Biên Phủ 2,"153 Điện Biên Phủ, Phường 2, Quận Bình Thạnh, Thành phố Hồ Chí Minh.",10.7974295,106.7037547,"https://www.google.com/maps/place/CHTL%2B-%2BMINISTOP%2B-%2B246%2B-%2B%C4%90i%E1%BB%87n%2BBi%C3%AAn%2BPh%E1%BB%A7/@10.7974295,106.7037547,17z/data=!3m1!4b1!4m6!3m5!1s0x317529003a924565:0x20fa51ea59cde12d!8m2!3d10.7974295!4d106.7037547!16s/g/11lnwmwb71"
Ministop -  Lê Quang Định 2,"97 Lê Quang Định, Phường 14, Quận Bình Thạnh, Thành phố Hồ Chí Minh.",10.8063378,106.6968545,"https://www.google.com/maps/place/Ministop/@10.8063378,106.6968545,17z/data=!3m1!4b1!4m6!3m5!1s0x31752900179abc1b:0xcca34a06295501ee!8m2!3d10.8063378!4d106.6968545!16s/g/11vwnh8zv7"
Ministop -  Đại học Văn Lang,"233A Phan Văn Trị, Phường 11, Quận Bình Thạnh, Thành phố Hồ Chí Minh.",10.812495,106.6942517,"https://www.google.com/maps/place/Ministop%2BV%C4%83n%2BLang%2B-%2BC%C6%A1%2BS%E1%BB%9F%2B2/@10.812495,106.6942517,17z/data=!3m1!4b1!4m6!3m5!1s0x3175290025a7cfe9:0xf9a88d897c7f1f17!8m2!3d10.812495!4d106.6942517!16s/g/11y37b8zld"
Ministop -  Hoàng Hoa Thám 4,"153A Hoàng Hoa Thám, Phường 13, Quận Tân Bình, Thành phố Hồ Chí Minh.",10.8047562,106.6474463,"https://www.google.com/maps/place/MINISTOP%2B-%2BS235%2B-%2BHo%C3%A0ng%2BHoa%2BTh%C3%A1m/@10.8047562,106.6474463,17z/data=!3m1!4b1!4m6!3m5!1s0x317529001bb91ded:0xebd9359dae21fe29!8m2!3d10.8047562!4d106.6474463!16s/g/11y45kc44q"
Ministop -  Nguyễn Văn Lượng,"368/16 Nguyễn Văn Lượng, Phường 16, Quận Gò Vấp, Thành phố Hồ Chí Minh.",10.8398546,106.6670188,"https://www.google.com/maps/place/MINISTOP-S233/@10.8398546,106.6670188,17z/data=!3m1!4b1!4m6!3m5!1s0x317529fe448fa325:0xf201aa42b5fd24fd!8m2!3d10.8398546!4d106.6670188!16s/g/11w3p1wg60"
Ministop -  Cityland Park Hills 2,"Lô thương mại TMDV03 tại tầng 1, địa chỉ số 0.08 Chung cư CH3, Đường số 8, Khu dân cư Cityland, Phường 10, Quận Gò Vấp, Thành phố Hồ Chí Minh.",10.8355893,106.6667895,"https://www.google.com/maps/place/Ministop/@10.8355893,106.6667895,17z/data=!3m1!4b1!4m6!3m5!1s0x317529006995cb15:0x92026f344c60d9d0!8m2!3d10.8355893!4d106.6667895!16s/g/11wfx04pgc"
Ministop -  Khu dân cư Vĩnh Lộc,"01 Đường số 8, Khu dân cư Vĩnh Lộc, Khu phố 4, Phường Bình Hưng Hòa B, Quận Bình Tân, Thành phố Hồ Chí Minh.",10.8043218,106.593699,"https://www.google.com/maps/place/Ministop%2B-%2BS228%2BKhu%2BD%C3%A2n%2BC%C6%B0%2BV%C4%A9nh%2BL%E1%BB%99c%2B-%2B%C4%90%C6%B0%E1%BB%9Dng%2BS%E1%BB%91%2B8/@10.8043218,106.593699,17z/data=!3m1!4b1!4m6!3m5!1s0x31752bd600f0d39d:0x18722e932b402d1d!8m2!3d10.8043218!4d106.593699!16s/g/11vl501_f7"
Ministop -  Cao ốc Re,"Tầng 1&2 – TMDV 03 – Cao ốc RES11, 205 Lạc Long Quân, Phường 03, Quận 11, Thành phố Hồ Chí Minh.",10.763596,106.6418318,"https://www.google.com/maps/place/MINISTOP%2B-%2BS225%2B-%2BCao%2B%E1%BB%91c%2BRes11/@10.763596,106.6418318,17z/data=!3m1!4b1!4m6!3m5!1s0x31752f001e56f52f:0xc470499605e6a34d!8m2!3d10.763596!4d106.6418318!16s/g/11vs7pg277"
Ministop -  Tân Quý 2,"192 - 194 Tân Quý, Phường Tân Quý, Quận Tân Phú, Thành phố Hồ Chí Minh.",10.8021666,106.6265805,"https://www.google.com/maps/place/MINISTOP%2B-%2BT%C3%82N%2BK%E1%BB%B2%2BT%C3%82N%2BQU%C3%9D/@10.8021666,106.6265805,17z/data=!3m1!4b1!4m6!3m5!1s0x31752b4ff1f46ee3:0x5e8717e2631358fa!8m2!3d10.8021666!4d106.6265805!16s/g/11pf681q26"
Ministop -  Trần Bình Trọng,"52G Trần Bình Trọng, Phường 05, Quận Bình Thạnh, Thành phố Hồ Chí Minh.",10.8127055,106.6879861,"https://www.google.com/maps/place/MINISTOP/@10.8127055,106.6879861,17z/data=!3m1!4b1!4m6!3m5!1s0x3175295cffff2989:0x3d988226a14d5c63!8m2!3d10.8127055!4d106.6879861!16s/g/11krtx7b82"
Ministop -  Mã Lò,"168 Mã Lò, Khu phố 2, Phường Bình Trị Đông A, Quận Bình Tân, Thành phố Hồ Chí Minh.",10.7648115,106.6040554,"https://www.google.com/maps/place/MNS%2BM%C3%A3%2BL%C3%B2/@10.7648115,106.6040554,17z/data=!3m1!4b1!4m6!3m5!1s0x31752c477365dacf:0x521265656c22a6c3!8m2!3d10.7648115!4d106.6040554!16s/g/11hblpwb_8"
Ministop -  Lê Đức Thọ 2,"1177 Lê Đức Thọ, Phường 15, Quận Gò Vấp, Thành phố Hồ Chí Minh.",10.8541806,106.6571134,"https://www.google.com/maps/place/Ministop/@10.8541806,106.6571134,17z/data=!3m1!4b1!4m6!3m5!1s0x3175297c7530748f:0xa0e494ffd4ec42c6!8m2!3d10.8541806!4d106.6571134!16s/g/11v4jglpwz"
Ministop -  Cư Xá Lữ Gia,"77B Đường số 2 Cư Xá Lữ Gia, Phường 15, Quận 11, Thành phố Hồ Chí Minh.",10.7718043,106.6546874,"https://www.google.com/maps/place/Mini%2BStop/@10.7718043,106.6546874,17z/data=!3m1!4b1!4m6!3m5!1s0x31752ec044e8b2a9:0xfd67c0b8a52d1744!8m2!3d10.7718043!4d106.6546874!16s/g/11t40gjcm9"
Ministop -  One Verandah,"Cửa hàng thương mại số SH11 và SH12, Dự án One Verandah, số 02 đường Bát Nàn, Khu phố 01, Phường Thạnh Mỹ Lợi, Thành phố Thủ Đức, Thành phố Hồ Chí Minh.",10.7768961,106.7515739,"https://www.google.com/maps/place/Ministop%2BOne%2BVerandah/@10.7768961,106.7515739,17z/data=!3m1!4b1!4m6!3m5!1s0x317525000c1ced8d:0xdd9e4e798fcefed7!8m2!3d10.7768961!4d106.7515739!16s/g/11vpdlvtwk"
Ministop -  Lý Thánh Tông,"46 Lý Thánh Tông, Phường Hiệp Tân, Quận Tân Phú, Thành phố Hồ Chí Minh.",10.7670654,106.6300416,"https://www.google.com/maps/place/Ministop%2BL%C3%BD%2BTh%C3%A1nh%2BT%C3%B4ng%2B-%2BS200/@10.7670654,106.6300416,17z/data=!3m1!4b1!4m6!3m5!1s0x31752f08c027c90b:0x54828d333b192a3!8m2!3d10.7670654!4d106.6300416!16s/g/11st68zc7k"
Ministop -  Đường số 59,"83 Đường số 59, Phường 14, Quận Gò Vấp, Thành phố Hồ Chí Minh",10.8546417,106.6511678,"https://www.google.com/maps/place/Ministops/@10.8546417,106.6511678,17z/data=!3m1!4b1!4m6!3m5!1s0x317529007927a555:0x18b1ab7f4b421f2a!8m2!3d10.8546417!4d106.6511678!16s/g/11xgrc78d_"
Ministop -  Thạch Lam 2,"280 Thạch Lam, Phường Phú Thạnh, Quận Tân Phú, Thành phố Hồ Chí Minh.",10.7790501,106.6248131,"https://www.google.com/maps/place/MINISTOP/@10.7790501,106.6248131,17z/data=!3m1!4b1!4m6!3m5!1s0x31752d376d9e8e07:0xf01cfa3edc78d52c!8m2!3d10.7790501!4d106.6248131!16s/g/11txfbgz5_"
Ministop -  Bùi Quang Là,"92 – 94 Bùi Quang Là, Phường 12, Quận Gò Vấp, Thành phố Hồ Chí Minh.",10.8350598,106.6395588,"https://www.google.com/maps/place/MINISTOP/@10.8350598,106.6395588,17z/data=!3m1!4b1!4m6!3m5!1s0x317529fd3f45ac89:0x446f7a34c821a828!8m2!3d10.8350598!4d106.6395588!16s/g/11jt4g1qq0"
Ministop -  Topaz City,"Lô thương mại dịch vụ B1 tầng 1, Chung cư Topaz City - 39 Cao Lỗ, Phường 04, Quận 08, Thành phố Hồ Chí Minh.",10.7379039,106.6794827,"https://www.google.com/maps/place/Ministop/@10.7379039,106.6794827,17z/data=!3m1!4b1!4m6!3m5!1s0x31752f25e4c62179:0x8dfb9a685bbfdf8e!8m2!3d10.7379039!4d106.6794827!16s/g/11tspyl5t4"
Ministop -  Đường số 10,"86 – 88 Đường số 10, Phường 13, Quận 06, Thành phố Hồ Chí Minh.",10.7532715,106.6274072,"https://www.google.com/maps/place/Ministop/@10.7532715,106.6274072,17z/data=!3m1!4b1!4m6!3m5!1s0x31752d37bd48e7f5:0x8a79f93f7ef4be34!8m2!3d10.7532715!4d106.6274072!16s/g/11s86f18rh"
Ministop -  Water Point,"Tầng trệt gian hàng số 02, Trạm xe buýt và khu thương mại dịch vụ thuộc Lô MC5 thuộc khu đô thị mới Vàm Cỏ Đông, Xã An Thạnh, Huyện Bến Lức, Tỉnh Long An.",10.657796,106.4596771,"https://www.google.com/maps/place/Ministop/@10.657796,106.4596771,17z/data=!3m1!4b1!4m6!3m5!1s0x310acd0357c09003:0x350b48a2bcbd7abb!8m2!3d10.657796!4d106.4596771!16s/g/11tbz0ptw6"
Ministop -  Akari City,"AK5-00.01 Akari City, 77 Võ Văn Kiệt P.An Lạc, Q.Bình Tân, TP.HCM",10.7173998,106.6073924,"https://www.google.com/maps/place/Aeon%2BMinistop%2BAkari%2BCity%2BAK5/@10.7173998,106.6073924,17z/data=!3m1!4b1!4m6!3m5!1s0x31752d11b5c44b9f:0x7c85383277859d81!8m2!3d10.7173998!4d106.6073924!16s/g/11t4cc6r10"
Ministop -  Đường số 6,"165 Đường số 6, Phường Bình Trị Đông B, Quận Bình Tân, TP. HCM",10.7535445,106.618983,"https://www.google.com/maps/place/Ministop/@10.7535445,106.618983,17z/data=!3m1!4b1!4m6!3m5!1s0x31752d005d5d485b:0x1f2aafef8ccb1c65!8m2!3d10.7535445!4d106.618983!16s/g/11wwhsq81q"
Ministop -  Lê Đức Thọ,527 Lê Đức Thọ P.16 Q.Gò Vấp,10.8463217,106.6704441,"https://www.google.com/maps/place/MINISTOP%2B-%2BL%C3%AA%2B%C4%90%E1%BB%A9c%2BTh%E1%BB%8D/@10.8463217,106.6704441,17z/data=!3m1!4b1!4m6!3m5!1s0x31752976c24363db:0xbec98fd9626dabe5!8m2!3d10.8463217!4d106.6704441!16s/g/11syj81266"
Ministop -  Tô Hiệu,"57K Tô Hiệu, P.Hiệp Tân, Q.Tân Phú",10.7699177,106.6268392,"https://www.google.com/maps/place/Ministop%2BT%C3%B4%2BHi%E1%BB%87u/@10.7699177,106.6268392,17z/data=!3m1!4b1!4m6!3m5!1s0x31752d0960436181:0x3d00848b49f7f57a!8m2!3d10.7699177!4d106.6268392!16s/g/11rzs45rsb"
Ministop -  Sunwah Pearl,"Căn hộ thương mại số S-16 gồm 01 Tầng Thuộc Dự Án Sunwah Pearl, số 90 Nguyễn Hữu Cảnh, phường 22, quận Bình Thạnh, TP. HCM",10.7886989,106.7183382,"https://www.google.com/maps/place/MINISTOP/@10.7886989,106.7183382,17z/data=!3m1!4b1!4m6!3m5!1s0x317529bc0e30cb97:0x2ed053856213a833!8m2!3d10.7886989!4d106.7183382!16s/g/11q26250s8"
Ministop -  Safira D,"Căn D2.01.04-TM tại tầng 01 và tầng 02 của tháp D2 thuộc Khu nhà ở cao tầng Công ty Saphire tại số 454 đường Võ Chí Công, Khu phố 2, phường Phú Hữu, Tp. Thủ Đức, TP.HCM.",10.801393,106.7938978,"https://www.google.com/maps/place/Ministop%2BSafira/@10.801393,106.7938978,17z/data=!3m1!4b1!4m6!3m5!1s0x3175270047803f49:0x420d5f80cd7f5213!8m2!3d10.801393!4d106.7938978!16s/g/11w1jy8c8l"
Ministop -  HaDo Centrosa Garden,"I-1.TM.05, Khu vực thương mại khối Iris(I), Khu Phức Hợp HaDo Centrosa, số 200, đường 3/2, Phường 12, Quận 10, TP. HCM.",10.7753088,106.6779535,"https://www.google.com/maps/place/Mini%2Bstop/@10.7753088,106.6779535,17z/data=!3m1!4b1!4m6!3m5!1s0x31752fcdeccf645b:0xf1937807031f5fdf!8m2!3d10.7753088!4d106.6779535!16s/g/11nnsbhg2s"
Ministop -  Sài Gòn South,"Căn D0.02 Khu nhà ở xã Phước Kiển, huyện Nhà Bè – Khu nhà ở Nam Sài Gòn Residences, ấp 5, xã Phước Kiển, huyện Nhà Bè, TP.Hồ Chí Minh",10.7204206,106.7042296,"https://www.google.com/maps/place/MINISTOP%2BSAIGON%2BSOUTH/@10.7204206,106.7042296,17z/data=!3m1!4b1!4m6!3m5!1s0x31752f812b64f4cf:0x62e617975563ed87!8m2!3d10.7204206!4d106.7042296!16s/g/11n103g8qb"
Ministop -  Saigon Royal,"A.1.02 tại Tầng 01, tháp A thuộc Trung tâm Thương mại – Dịch vụ, Officetel và Căn hộ ở tại số 34 – 35 Bến Vân Đồn, Phường 13, Quận 4, TPHCM",10.7669506,106.7039699,"https://www.google.com/maps/place/Ministop%2BSaigon%2BRoyal/@10.7669506,106.7039699,17z/data=!3m1!4b1!4m6!3m5!1s0x31752f6a75f3d199:0x82676162b98eaf9b!8m2!3d10.7669506!4d106.7039699!16s/g/11rb61366v"
Ministop -  The CBD,"A1-1-5, Tầng số 1 Tháp A Tòa Nhà The CBD tại số 125 Đường Đồng Văn Cống, Phường Thạnh Mỹ Lợi, Tp. Thủ Đức, TP.HCM.",10.7745241,106.7621116,"https://www.google.com/maps/place/Ministop%2BCBD%2B%C4%90%E1%BB%93ng%2BV%C4%83n%2BC%E1%BB%91ng/@10.7745241,106.7621116,17z/data=!3m1!4b1!4m6!3m5!1s0x317525a968055a4f:0x8475e87e6bdabc67!8m2!3d10.7745241!4d106.7621116!16s/g/11j99c6pk9"
Ministop -  Điện Biên Phủ,"563 Điện Biên Phủ, Phường 1, Quận 3, TP.HCM.",10.7702968,106.6765775,"https://www.google.com/maps/place/Ministop%2B563%2B%C4%90i%E1%BB%87n%2BBi%C3%AAn%2BPh%E1%BB%A7/@10.7702968,106.6765775,17z/data=!3m1!4b1!4m6!3m5!1s0x31752f35fee20605:0xb087a3467cdb3288!8m2!3d10.7702968!4d106.6765775!16s/g/11sts4sk99"
Ministop -  Bùi Đình Túy 2,"114 Bùi Đình Túy, Phường 12, Quận Bình Thạnh, Tp.HCM",10.8080689,106.7053902,"https://www.google.com/maps/place/MINISTOP/@10.8080689,106.7053902,17z/data=!3m1!4b1!4m6!3m5!1s0x317529996d3191e9:0x696ea167b67544d2!8m2!3d10.8080689!4d106.7053902!16s/g/11jp105w7v"
Ministop -  Đại học Ngân Hàng,"56 Hoàng Diệu 2, Phường Linh Chiểu, Tp. Thủ Đức, Tp.HCM",10.8578065,106.7633672,"https://www.google.com/maps/place/MINI%2BSTOP/@10.8578065,106.7633672,17z/data=!3m1!4b1!4m6!3m5!1s0x317527a3aab4bbb7:0x6c6be78465fa5bad!8m2!3d10.8578065!4d106.7633672!16s/g/11j48glwqk"
Ministop -  Homyland Riverside,"Lô thương mại SH1 thuộc chung cư cao cấp Homyland Riverside, 14 Đường số 1-THM, Phường Bình Trưng Đông, Thành phố Thủ Đức, Thành phố Hồ Chí Minh.",10.7894095,106.7686563,"https://www.google.com/maps/place/Ministop%2BHomyland%2BRiverside/@10.7894095,106.7686563,17z/data=!3m1!4b1!4m6!3m5!1s0x317527abe6891fff:0x43b240654865d4ed!8m2!3d10.7894095!4d106.7686563!16s/g/11fr0cjpj4"
Ministop -  Cityland,"Park Hills P5-00.10, Tầng 1, Tòa nhà chung cư CH1, số 18 Phan Văn Trị, Phường 10, Quận Gò Vấp, Thành phố Hồ Chí Minh.",10.836833,106.6675504,"https://www.google.com/maps/place/Ministop/@10.836833,106.6675504,17z/data=!3m1!4b1!4m6!3m5!1s0x3175292161caf477:0x479077db8b93dede!8m2!3d10.836833!4d106.6675504!16s/g/11ftwg106f"
Ministop -  Ni Sư Huỳnh Liên,"73 Ni Sư Huỳnh Liên, Phường 10, Quận Tân Bình, TP.HCM",10.7834972,106.6487679,"https://www.google.com/maps/place/MINISTOP/@10.7834972,106.6487679,17z/data=!3m1!4b1!4m6!3m5!1s0x31752fcb666b12af:0xba70b8e0c20999fa!8m2!3d10.7834972!4d106.6487679!16s/g/11fr3fyzd4"
Ministop -  Hồ Văn Huê,"43F Hồ Văn Huê, Phường 9, Quận Phú Nhuận",10.8027246,106.6764172,"https://www.google.com/maps/place/43F%2BH%E1%BB%93%2BV%C4%83n%2BHu%C3%AA%2C%2BPh%C6%B0%E1%BB%9Dng%2B9%2C%2BPh%C3%BA%2BNhu%E1%BA%ADn%2C%2BTh%C3%A0nh%2Bph%E1%BB%91%2BH%E1%BB%93%2BCh%C3%AD%2BMinh%2C%2BVietnam/@10.8027246,106.6764172,17z/data=!3m1!4b1!4m6!3m5!1s0x317528d87533a97f:0xdedcff9c829df8a!8m2!3d10.8027246!4d106.6764172!16s/g/11rg5x5jc6"
Ministop -  Đảo Kim Cương,"Căn B2.2G, Tầng B2, Tháp Hawaii, Đảo Kim Cương, Số 1 Đường 104 - BTT, KP. 3, P. Bình Trưng Tây, TP. Thủ Đức, TP. HCM",10.7796021,106.746944,"https://www.google.com/maps/place/MINISTOP/@10.7796021,106.746944,17z/data=!3m1!4b1!4m6!3m5!1s0x31752511b4cfc54d:0x2593883397efdd9a!8m2!3d10.7796021!4d106.746944!16s/g/11h0yg8xq0"
Ministop -  Vinhomes Golden River (Bason),"Căn A2SH09 tầng trệt và tầng 01 tòa A2 Vinhomes Golden River, 02 Tôn Đức Thắng, Phường Bến Nghé, Quận 1",10.7867421,106.710601,"https://www.google.com/maps/place/MINISTOP%2B-%2BVinhomes%2BGolden%2BRiver/@10.7867421,106.710601,17z/data=!3m1!4b1!4m6!3m5!1s0x31752f8b320ad723:0xffcfda53d640e5af!8m2!3d10.7867421!4d106.710601!16s/g/11h0mj3mzd"
Ministop -  Đường 3/2,"666/64 Đường 3/2, Phường 14, Quận 10",10.7677709,106.6606281,"https://www.google.com/maps/place/Ministop/@10.7677709,106.6606281,17z/data=!3m1!4b1!4m6!3m5!1s0x31752f788c47d899:0x7294615f4d12e3a0!8m2!3d10.7677709!4d106.6606281!16s/g/11gmcxkpfn"
Ministop -  Phùng Văn Cung,"94D2 Phùng Văn Cung, Phường 7, Quận Phú Nhuận",10.8020394,106.6846612,"https://www.google.com/maps/place/MINISTOP-S123/@10.8020394,106.6846612,17z/data=!3m1!4b1!4m6!3m5!1s0x3175299e7efd92ad:0x88d612b73553d988!8m2!3d10.8020394!4d106.6846612!16s/g/11kd9mtbvl"
Ministop -  Phổ Quang 2,"DH.7 thuộc Khu cao ốc văn phòng và Căn hộ chung cư số 5B đường Phổ Quang, Phường 2, Quận Tân Bình, Thành phố Hồ Chí Minh.",10.8063547,106.6663717,"https://www.google.com/maps/place/Ministop/@10.8063547,106.6663717,17z/data=!3m1!4b1!4m6!3m5!1s0x3175290041797fc3:0xd230798bd98e70de!8m2!3d10.8063547!4d106.6663717!16s/g/11x6r5yt3f"
Ministop -  New City Thủ Thiêm,"Gian hàng số BB-S01, Tầng trệt, KDC New City, Số 17 Mai Chí Thọ, KP.3, Phường An Khánh, TP. Thủ Đức, TP. HCM",10.7822175,106.7360938,"https://www.google.com/maps/place/Ministop%2BNew%2BCity/@10.7822175,106.7360938,17z/data=!3m1!4b1!4m6!3m5!1s0x317525e34fedf0ef:0xecee2d2cbabb516c!8m2!3d10.7822175!4d106.7360938!16s/g/11gf5s4130"
Ministop -  Suối Tiên,"120 Xa Lộ Hà Nội, Phường Tân Phú, TP. Thủ Đức, TP. HCM",10.8660597,106.8024359,"https://www.google.com/maps/place/MINISTOP/@10.8660597,106.8024359,17z/data=!3m1!4b1!4m6!3m5!1s0x3175275971ad014d:0x39d693bae6626097!8m2!3d10.8660597!4d106.8024359!16s/g/11h9rwsfv9"
Ministop -  Thành Thái 2,"7A/7 Thành Thái, Phường 14, Quận 10",10.7703318,106.6625664,"https://www.google.com/maps/place/MINISTOP/@10.7703318,106.6625664,17z/data=!3m1!4b1!4m6!3m5!1s0x31752ec291336d79:0xc82f238fe3679cde!8m2!3d10.7703318!4d106.6625664!16s/g/11h9w1py2z"
Ministop -  Hutech 2,"15A Phân khu E1, Khu Công Nghệ Cao, Xa Lộ Hà Nội, Phường Hiệp Phú, TP. Thủ Đức, TP. HCM",10.8554246,106.785659,"https://www.google.com/maps/place/MINISTOP-HUTECH%2BKHU%2BE/@10.8554246,106.785659,17z/data=!3m1!4b1!4m6!3m5!1s0x31752709bc5097b7:0x43d68e139b456316!8m2!3d10.8554246!4d106.785659!16s/g/11f5ms4_1z"
Ministop -  Đại Học Hồng Bàng,"215 Điện Biên Phủ, Phường 2, Quận Bình Thạnh, Thành phố Hồ Chí Minh.",10.8004298,106.7067983,"https://www.google.com/maps/place/Ministop%2BVietnam%2Bcompany%2Blimited/@10.8004298,106.7067983,17z/data=!3m1!4b1!4m6!3m5!1s0x31752f373ef3a5b1:0x569a2a75929fd426!8m2!3d10.8004298!4d106.7067983!16s/g/11f2b70817"
Ministop -  Hoàng Diệu,"192A Hoàng Diệu, Phường 9, Quận 4",10.762689,106.7026494,"https://www.google.com/maps/place/Ministop%2BHo%C3%A0ng%2BDi%E1%BB%87u/@10.762689,106.7026494,17z/data=!3m1!4b1!4m6!3m5!1s0x31752f6b763101b7:0x9f26ecc76c41f8ee!8m2!3d10.762689!4d106.7026494!16s/g/11f040skkz"
Ministop -  Masteri Thảo Điền,"T5-B01.03+04, tại tầng 1 thuộc dự án Khu nhà ở chung cư cao cấp Masteri Thảo Điền, số 159 Võ Nguyên Giáp, Phường Thảo Điền, Thành phố Thủ Đức, Thành phố Hồ Chí Minh.",10.8028279,106.7419312,"https://www.google.com/maps/place/Ministop/@10.8028279,106.7419312,17z/data=!3m1!4b1!4m6!3m5!1s0x3175270034743f85:0x5e713213f91f5ce4!8m2!3d10.8028279!4d106.7419312!16s/g/11x7pptdj9"
Ministop -  Vũ Tông Phan,"8 Vũ Tông Phan, Phường An Phú, TP. Thủ Đức, TP. HCM",10.7978134,106.7428493,"https://www.google.com/maps/place/Ministop%2BVu%2BTong%2BPhan/@10.7978134,106.7428493,17z/data=!3m1!4b1!4m6!3m5!1s0x3175261275f934bd:0xf84c37ce15bb39d!8m2!3d10.7978134!4d106.7428493!16s/g/11csr6xmsg"
Ministop -  Hoàng Hoa Thám 2,"18 Hoàng Hoa Thám, Phường 12, Quận Tân Bình",10.7972824,106.6471526,"https://www.google.com/maps/place/Ministop%2B-%2BHo%C3%A0ng%2BHoa%2BTh%C3%A1m/@10.7972824,106.6471526,17z/data=!3m1!4b1!4m6!3m5!1s0x3175294bfdb49e61:0x1f5b6477bf41144b!8m2!3d10.7972824!4d106.6471526!16s/g/11ggzlysn2"
Ministop -   KTX Đại Học Quốc Gia (Khu A),"Nhà A19 - Ký túc xá Khu A Đại học Quốc Gia, Khu phố Tân Lập, Phường Đông Hòa, Thành phố Dĩ An, Tỉnh Bình Dương",10.8782463,106.8062905,"https://www.google.com/maps/place/HCMC%2BNational%2BUniversity%2BDormitory%2BZone%2BA/@10.8782463,106.8062905,17z/data=!3m1!4b1!4m6!3m5!1s0x3174d8a5f4e477e9:0x29d5aeb365cee20b!8m2!3d10.8782463!4d106.8062905!16s/g/1tncqcyc"
Ministop -  Nguyễn Trọng Tuyển,"351A Nguyễn Trọng Tuyển, Phường 1, Quận Tân Bình",10.7982727,106.6675063,"https://www.google.com/maps/place/Ministop%2B-%2BNguy%E1%BB%85n%2BTr%E1%BB%8Dng%2BTuy%E1%BB%83n/@10.7982727,106.6675063,17z/data=!3m1!4b1!4m6!3m5!1s0x3175292ef7b27bf5:0xd45450a361979a51!8m2!3d10.7982727!4d106.6675063!16s/g/11c5_lgxkt"
Ministop -  Trương Công Định,"88-88A-90-92 Trương Công Định, Phường 14, Quận Tân Bình Số điện thoại:",10.7964744,106.6409175,"https://www.google.com/maps/place/MINISTOP%2B-%2BTruong%2BCong%2BDinh/@10.7964744,106.6409175,17z/data=!3m1!4b1!4m6!3m5!1s0x3175294d8aaa746f:0xf19309f6fbe8ecf1!8m2!3d10.7964744!4d106.6409175!16s/g/11c1r6w2x8"
Ministop -  Bạch Đằng 2,"B22 Bạch Đằng, Phường 2, Quận Tân Bình Số điện thoại:",10.8150325,106.6680035,"https://www.google.com/maps/place/Ministop%2BB22%2BB%E1%BA%A1ch%2B%C4%90%E1%BA%B1ng/@10.8150325,106.6680035,17z/data=!3m1!4b1!4m6!3m5!1s0x31752918f9dc4129:0x541a8fb2d2ee720c!8m2!3d10.8150325!4d106.6680035!16s/g/11cls_wfvc"
Ministop -  Hậu Giang,"45 Hậu Giang, Phường 4, Quận Tân Bình Số điện thoại:",10.8078959,106.6624332,"https://www.google.com/maps/place/Ministop%2B-%2BH%E1%BA%ADu%2BGiang/@10.8078959,106.6624332,17z/data=!3m1!4b1!4m6!3m5!1s0x3175293c9c881bfd:0x93b83ccb85e4f199!8m2!3d10.8078959!4d106.6624332!16s/g/11c4wxbf93"
Ministop -  Trần Doãn Khanh,"02 Trần Doãn Khanh, Phường Đa Kao, Quận 1 Số điện thoại:",10.7886669,106.69775,"https://www.google.com/maps/place/MINISTOP/@10.7886669,106.69775,17z/data=!3m1!4b1!4m6!3m5!1s0x31752f3530228871:0x9ed43bba8815786!8m2!3d10.7886669!4d106.69775!16s/g/11c5ssqzxz"
MINISTOP -  Nguyễn Hồng Đào,"191 - 193 Nguyễn Hồng Đào, Phường 14, Quận Tân Bình",10.7930031,106.6421615,"https://www.google.com/maps/place/Ministop/@10.7930031,106.6421615,17z/data=!3m1!4b1!4m6!3m5!1s0x3175294d4edea821:0xca237e6c06bb6378!8m2!3d10.7930031!4d106.6421615!16s/g/11b67njyft"
