,name,extracted_address,latitude,longitude,url,url_type,address
0,Ministop -  Trương Vĩnh Ký,"212 Trương Vĩnh Ký, Tân Sơn Nhì, Tân Phú, Thành phố Hồ Chí Minh, Vietnam",10.7943632,106.6282749,"https://www.google.com/maps/place/MINISTOP+Tr%C6%B0%C6%A1ng+V%C4%A9nh+K%C3%BD/@10.7943632,106.6282749,17z/data=!3m1!4b1!4m6!3m5!1s0x317529000c47913d:0xcea0eca8bf9ddacd!8m2!3d10.7943579!4d106.6308498!16s%2Fg%2F11y0dy1gr9?entry=ttu&g_ep=EgoyMDI1MTEwNC4xIKXMDSoASAFQAw%3D%3D",search+selected_place,"212 - 214 Trương Vĩnh Ký, Phường Tân Sơn Nhì, Thành phố Hồ Chí Minh."
1,Ministop -  Nguyễn Trãi 2,"927 Nguyễn Trãi, Phường 14, Quận 5, Thành phố Hồ Chí Minh, Vietnam",10.7527876,106.6192894,"https://www.google.com/maps/place/MINISTOP/@10.7527876,106.6192894,14z/data=!4m10!1m2!2m1!1sMinistop+-++Nguy%E1%BB%85n+Tr%C3%A3i+2!3m6!1s0x31752faee0d81739:0x2c8c6fd591cf5121!8m2!3d10.7527876!4d106.6553383!15sChxNaW5pc3RvcCAtICBOZ3V54buFbiBUcsOjaSAyIgOIAQFaGyIZbWluaXN0b3Agbmd1eeG7hW4gdHLDo2kgMpIBEWNvbnZlbmllbmNlX3N0b3JlqgFqCg0vZy8xMWJicmhqMF9kCgkvbS8wNjF0cTUQASoMIghtaW5pc3RvcChCMh8QASIbpUOmy7HSyF0JLVz9-M4wYETgZUNsAO4TpW-aMh0QAiIZbWluaXN0b3Agbmd1eeG7hW4gdHLDo2kgMuABAA!16s%2Fg%2F11fnw0sqgz?entry=ttu&g_ep=EgoyMDI1MTEwNC4xIKXMDSoASAFQAw%3D%3D",search,"318 Nguyễn Trãi, Phường An Đông, Thành phố Hồ Chí Minh."
2,Ministop -  Lê Văn Sỹ 2,"407B Đ. Lê Văn Sỹ, Phường 12, Quận 3, Thành phố Hồ Chí Minh, Vietnam",10.7887457,106.6734228,"https://www.google.com/maps/place/MINISTOP+-+S269+-+L%C3%AA+V%C4%83n+S%E1%BB%B9+2/@10.7887457,106.6734228,17z/data=!3m1!4b1!4m6!3m5!1s0x31752f0011390e65:0x92279e08846e38fe!8m2!3d10.7887404!4d106.6759977!16s%2Fg%2F11yhs09b58?entry=ttu&g_ep=EgoyMDI1MTEwNC4xIKXMDSoASAFQAw%3D%3D",search+selected_place,"407B Lê Văn Sỹ, Phường Nhiêu Lộc, Thành phố Hồ Chí Minh."
3,Ministop -  Scenic Valley 2,"2 Đ. Quán Âm Bồ Tát, Tân Phú, Quận 7, Thành phố Hồ Chí Minh, Vietnam",10.7313421,106.714723,"https://www.google.com/maps/place/MINISTOP+S268+-+SCENIC+VALLEY+2/@10.7313421,106.714723,17z/data=!3m1!4b1!4m6!3m5!1s0x31752f0051cd8381:0x85abd69c5c6fa519!8m2!3d10.7313368!4d106.7172979!16s%2Fg%2F11xz0js1mz?entry=ttu&g_ep=EgoyMDI1MTEwNC4xIKXMDSoASAFQAw%3D%3D",search+selected_place,"A0.03, trệt + lầu 1 (Tầng 1+2), Dự án khu dân cư Scenic Valley 2 (Lô MD4-4) – Phú Mỹ Hưng, Phường Tân Mỹ, Thành phố Hồ Chí Minh."
4,Ministop -  Nơ Trang Long,"24 Nơ Trang Long, Phường 14, Bình Thạnh, Thành phố Hồ Chí Minh, Vietnam",10.8047421,106.6925644,"https://www.google.com/maps/place/S267+Ministop/@10.8047421,106.6925644,17z/data=!3m1!4b1!4m6!3m5!1s0x317529004adb0c1f:0xa9619d04899e2cb0!8m2!3d10.8047368!4d106.6951393!16s%2Fg%2F11zhzcwjt6?entry=ttu&g_ep=EgoyMDI1MTEwNC4xIKXMDSoASAFQAw%3D%3D",search+selected_place,"24 Nơ Trang Long, Phường Bình Thạnh, Thành phố Hồ Chí Minh."
5,Ministop -  Trần Quốc Hoàn,"117 Đ. Trần Quốc Hoàn, Phường 4, Tân Bình, Thành phố Hồ Chí Minh, Vietnam",10.8058881,106.6616727,"https://www.google.com/maps/place/MINISTOP+-+TR%E1%BA%A6N+QU%E1%BB%90C+HO%C3%80N/@10.8058881,106.6616727,17z/data=!3m1!4b1!4m6!3m5!1s0x317529002bc94a43:0x69381db8ded344c4!8m2!3d10.8058828!4d106.6642476!16s%2Fg%2F11xncrd93n?entry=ttu&g_ep=EgoyMDI1MTEwNC4xIKXMDSoASAFQAw%3D%3D",search+selected_place,"117 Trần Quốc Hoàn, Phường Tân Sơn Nhất, Thành phố Hồ Chí Minh."
6,Ministop -  Võ Oanh,"106 Nguyễn Gia Trí, Phường 25, Bình Thạnh, Thành phố Hồ Chí Minh, Vietnam",10.8043926,106.7134517,"https://www.google.com/maps/place/Ministop+Vo+Oanh/@10.8043926,106.7134517,17z/data=!3m1!4b1!4m6!3m5!1s0x317529acfbdb1863:0xa9a8653f253d6af6!8m2!3d10.8043873!4d106.7160266!16s%2Fg%2F11t7dw7kc9?entry=ttu&g_ep=EgoyMDI1MTEwNC4xIKXMDSoASAFQAw%3D%3D",search+selected_place,"92 - 94 Võ Oanh, Phường 25, Quận Bình Thạnh, Thành phố Hồ Chí Minh."
7,Ministop -  Tô Vĩnh Diện,"3A Tô Vĩnh Diện, Linh Chiểu, Thủ Đức, Thành phố Hồ Chí Minh, Vietnam",10.8523976,106.7641949,"https://www.google.com/maps/place/MINISTOP+S264+-+T%C3%94+V%C4%A8NH+DI%E1%BB%86N/@10.8523976,106.7641949,17z/data=!3m1!4b1!4m6!3m5!1s0x3175270067c951e1:0x7c0e13de2d04a91!8m2!3d10.8523923!4d106.7667698!16s%2Fg%2F11xlpl0qd_?entry=ttu&g_ep=EgoyMDI1MTEwNC4xIKXMDSoASAFQAw%3D%3D",search+selected_place,"3A Tô Vĩnh Diện, Khu phố 4, Phường Linh Chiểu, Thành phố Thủ Đức, Thành phố Hồ Chí Minh."
8,Ministop -  Hoàng Việt 3,"22 Hoàng Việt, Phường 4, Tân Bình, Thành phố Hồ Chí Minh, Vietnam",10.7942072,106.6560323,"https://www.google.com/maps/place/Ministop+-+S263+-+Ho%C3%A0ng+Vi%E1%BB%87t/@10.7942072,106.6560323,17z/data=!4m10!1m2!2m1!1zTWluaXN0b3AgLSAgSG_DoG5nIFZp4buHdCAz!3m6!1s0x317529007611b5d1:0x528700dbb7bb77e7!8m2!3d10.7953043!4d106.6590358!15sChtNaW5pc3RvcCAtICBIb8OgbmcgVmnhu4d0IDMiA4gBAZIBDG91dGxldF9zdG9yZaoBTxABKgwiCG1pbmlzdG9wKEIyHxABIhtqD5ofubClzn9odcu0r1CHbRggiano09vBmxAyHBACIhhtaW5pc3RvcCBob8Ogbmcgdmnhu4d0IDPgAQA!16s%2Fg%2F11y7jz_j_q?entry=ttu&g_ep=EgoyMDI1MTEwNC4xIKXMDSoASAFQAw%3D%3D",search,"22 Hoàng Việt, Phường 04, Quận Tân Bình, Thành phố Hồ Chí Minh."
9,Ministop -  Đường số 20,"29 Đ. Số 20, Hiệp Bình Chánh, Thủ Đức, Thành phố Hồ Chí Minh, Vietnam",10.8277355,106.4344531,"https://www.google.com/maps/place/CHTL+-+MINISTOP+-+261+-+%C4%90%C6%B0%E1%BB%9Dng+s%E1%BB%91+20/@10.8277355,106.4344531,11z/data=!4m10!1m2!2m1!1zTWluaXN0b3AgLSAgxJDGsOG7nW5nIHPhu5EgMjA!3m6!1s0x317529004175dbe3:0xe58865645e8ed5a0!8m2!3d10.8277355!4d106.7228442!15sCh1NaW5pc3RvcCAtICDEkMaw4budbmcgc-G7kSAyMCIDiAEBkgEMb3V0bGV0X3N0b3JlqgFsCg0vZy8xMWJicmhqMF9kCgkvbS8wNjF0cTUQASoMIghtaW5pc3RvcChCMiAQASIcpMR_gpZEmGZfU6BW8gxJWNj9bZRvQRndgSBapTIeEAIiGm1pbmlzdG9wIMSRxrDhu51uZyBz4buRIDIw4AEA!16s%2Fg%2F11wc4j87ry?entry=ttu&g_ep=EgoyMDI1MTEwNC4xIKXMDSoASAFQAw%3D%3D",search,"29 Đường số 20, Khu phố 4, Phường Hiệp Bình Chánh, Thành phố Thủ Đức, Thành phố Hồ Chí Minh."
10,Ministop -  Đường số 1,"107 Đ. Số 1, Phường Thông Tây Hội, Gò Vấp, Thành phố Hồ Chí Minh, Vietnam",10.8458189,106.6588116,"https://www.google.com/maps/place/Ministop+%C4%91%C6%B0%E1%BB%9Dng+s%E1%BB%91+1/@10.8458189,106.6588116,17z/data=!3m1!4b1!4m6!3m5!1s0x3175290025ddc723:0x838d0d38b6e3fb57!8m2!3d10.8458136!4d106.6613865!16s%2Fg%2F11wq97szbh?entry=ttu&g_ep=EgoyMDI1MTEwNC4xIKXMDSoASAFQAw%3D%3D",search+selected_place,"124 Đường số 01, Phường 10, Quận Tân Bình, Thành phố Hồ Chí Minh."
11,Ministop -  Lý Chính Thắng,"228 Lý Chính Thắng, Phường 9, Quận 3, Thành phố Hồ Chí Minh, Vietnam",10.7789532,106.6792375,"https://www.google.com/maps/place/CHTL+Ministop+-+S260+-+L%C3%BD+Ch%C3%ADnh+Th%E1%BA%AFng/@10.7789532,106.6792375,17z/data=!3m1!4b1!4m6!3m5!1s0x31752f006ffb8135:0xcd8bf4d969c7c31f!8m2!3d10.7789479!4d106.6818124!16s%2Fg%2F11w4cb_56h?entry=ttu&g_ep=EgoyMDI1MTEwNC4xIKXMDSoASAFQAw%3D%3D",search+selected_place,"226/1A - 228 Lý Chính Thắng, Phường 9, Quận 3, Thành phố Hồ Chí Minh."
12,Ministop -  Cư xá Phú Lâm,"48 Lô C Lý Chiêu Hoàng, Phường 10, Quận 6, Thành phố Hồ Chí Minh, Vietnam",10.7377262,106.6272347,"https://www.google.com/maps/place/CHTL+-+MINISTOP+-+259+-+C%C6%B0+x%C3%A1+Ph%C3%BA+L%C3%A2m+D/@10.7377262,106.6272347,17z/data=!3m1!4b1!4m6!3m5!1s0x31752f0067a8de63:0x712161c761860643!8m2!3d10.7377209!4d106.6298096!16s%2Fg%2F11wc9lm7rc?entry=ttu&g_ep=EgoyMDI1MTEwNC4xIKXMDSoASAFQAw%3D%3D",search+selected_place,"D 48 Lô C, Đường nội bộ Cư xá Phú Lâm D, Phường 10, Quận 6, Thành phố Hồ Chí Minh."
13,Ministop -  Lê Minh Xuân,"102 Lê Minh Xuân, Phường 7, Tân Bình, Thành phố Hồ Chí Minh, Vietnam",10.7870904,106.6514923,"https://www.google.com/maps/place/MINISTOP+-+L%C3%AA+Minh+Xu%C3%A2n/@10.7870904,106.6514923,17z/data=!3m1!4b1!4m6!3m5!1s0x31752f0078501f95:0x83a3d5ad6fab7638!8m2!3d10.7870851!4d106.6540672!16s%2Fg%2F11w3vbqzf9?entry=ttu&g_ep=EgoyMDI1MTEwNC4xIKXMDSoASAFQAw%3D%3D",search+selected_place,"102 Lê Minh Xuân, Phường 07, Quận Tân Bình, Thành phố Hồ Chí Minh."
14,Ministop -  Đường số 29,"102 Đường Số 29, Bình Trị Đông B, Bình Tân, Thành phố Hồ Chí Minh, Vietnam",10.7568198,106.6091531,"https://www.google.com/maps/place/CHTL+-+MINISTOP+-+S257+-+%C4%90%C6%B0%E1%BB%9Dng+s%E1%BB%91+29/@10.7568198,106.6091531,17z/data=!3m1!4b1!4m6!3m5!1s0x31752d0009d9f3f5:0x7d10875e351a63b3!8m2!3d10.7568145!4d106.611728!16s%2Fg%2F11y6b46zks?entry=ttu&g_ep=EgoyMDI1MTEwNC4xIKXMDSoASAFQAw%3D%3D",search+selected_place,"102 Đường số 29, Khu phố 2, Phường Bình Trị Đông B, Quận Bình Tân, Thành phố Hồ Chí Minh."
15,Ministop -  Tân Sơn Nhì 3,"293 Đ. Tân Kỳ Tân Quý, Tân Sơn Nhì, Tân Phú, Thành phố Hồ Chí Minh, Vietnam",10.8021666,106.3381894,"https://www.google.com/maps/place/MINISTOP+-+T%C3%82N+K%E1%BB%B2+T%C3%82N+QU%C3%9D/@10.8021666,106.3381894,11z/data=!4m10!1m2!2m1!1zTWluaXN0b3AgLSAgVMOibiBTxqFuIE5ow6wgMw!3m6!1s0x31752b4ff1f46ee3:0x5e8717e2631358fa!8m2!3d10.8021666!4d106.6265805!15sChxNaW5pc3RvcCAtICBUw6JuIFPGoW4gTmjDrCAzIgOIAQFaGyIZbWluaXN0b3AgdMOibiBzxqFuIG5ow6wgM5IBEWNvbnZlbmllbmNlX3N0b3JlqgFrCg0vZy8xMWJicmhqMF9kCgkvbS8wNjF0cTUQASoMIghtaW5pc3RvcChCMiAQASIcam_WoVxDWhoF4zDJLXuQeqF2PgdUQwQU4DhTMzIdEAIiGW1pbmlzdG9wIHTDom4gc8ahbiBuaMOsIDPgAQA!16s%2Fg%2F11pf681q26?entry=ttu&g_ep=EgoyMDI1MTEwNC4xIKXMDSoASAFQAw%3D%3D",search,"200A - 200B Tân Sơn Nhì, Phường Tân Sơn Nhì, Quận Tân Phú, Thành phố Hồ Chí Minh."
16,Ministop -  Tân Kỳ Tân Quý 3,"293 Đ. Tân Kỳ Tân Quý, Tân Sơn Nhì, Tân Phú, Thành phố Hồ Chí Minh, Vietnam",10.7974518,106.6134251,"https://www.google.com/maps/place/MINISTOP+-+T%C3%82N+K%E1%BB%B2+T%C3%82N+QU%C3%9D/@10.7974518,106.6134251,15z/data=!4m10!1m2!2m1!1zTWluaXN0b3AgLSAgVMOibiBL4buzIFTDom4gUXXDvSAz!3m6!1s0x31752b4ff1f46ee3:0x5e8717e2631358fa!8m2!3d10.8021666!4d106.6265805!15sCiFNaW5pc3RvcCAtICBUw6JuIEvhu7MgVMOibiBRdcO9IDMiA4gBAVogIh5taW5pc3RvcCB0w6JuIGvhu7MgdMOibiBxdcO9IDOSARFjb252ZW5pZW5jZV9zdG9yZaoBbwoNL2cvMTFiYnJoajBfZAoJL20vMDYxdHE1EAEqDCIIbWluaXN0b3AoQjIfEAEiG6VDqsm6Oy8nFI8ZsnWmnixcJjfvH3_p7HkVbDIiEAIiHm1pbmlzdG9wIHTDom4ga-G7syB0w6JuIHF1w70gM-ABAA!16s%2Fg%2F11pf681q26?entry=ttu&g_ep=EgoyMDI1MTEwNC4xIKXMDSoASAFQAw%3D%3D",search,"164A Tân Kỳ Tân Quý, Phường Sơn Kỳ, Quận Tân Phú, Thành phố Hồ Chí Minh."
17,Ministop -  Alnata Plus – Celadon City,"S2.0.02 Đ. Tân Thạnh, Sơn Kỳ, Tân Phú, Thành phố Hồ Chí Minh 70000, Vietnam",10.8039193,106.6122347,"https://www.google.com/maps/place/CHTL+-+MINISTOP+-+S254+-+Celadon+City/@10.8039193,106.6122347,17z/data=!4m10!1m2!2m1!1sMinistop+-++Alnata+Plus+%E2%80%93+Celadon+City!3m6!1s0x31752b005445caf1:0xb75d59c613fde84!8m2!3d10.8039193!4d106.6167408!15sCihNaW5pc3RvcCAtICBBbG5hdGEgUGx1cyDigJMgQ2VsYWRvbiBDaXR5IgOIAQGSAQxvdXRsZXRfc3RvcmWqAX4KDS9nLzExYmJyaGowX2QKCS9tLzA2MXRxNRABKhgiFG1pbmlzdG9wIGFsbmF0YSBwbHVzKAAyHxABIhttV1_UOlTzhs5oaqcXzaBgA6PO3RupNPVBx-YyJRACIiFtaW5pc3RvcCBhbG5hdGEgcGx1cyBjZWxhZG9uIGNpdHngAQA!16s%2Fg%2F11w3lspy4c?entry=ttu&g_ep=EgoyMDI1MTEwNC4xIKXMDSoASAFQAw%3D%3D",search,"S2.0.02, Tầng Trệt và Tầng 1, Khối đế P2, Khu A6 (Alnata Plus – Celadon City), Số 2, Đường N1, Phường Sơn Kỳ, Quận Tân Phú, Thành phố Hồ Chí Minh."
18,Ministop -  Đường 154,"223 Đ. 154, Khu Phố 3, Thủ Đức, Thành phố Hồ Chí Minh, Vietnam",10.8648534,106.8082382,"https://www.google.com/maps/place/Ministop+Topaz+Home+2/@10.8648534,106.8082382,17z/data=!3m1!4b1!4m6!3m5!1s0x3175270004299aa7:0x6027059844f6f3b1!8m2!3d10.8648481!4d106.8108131!16s%2Fg%2F11w3bv9qcq?entry=ttu&g_ep=EgoyMDI1MTEwNC4xIKXMDSoASAFQAw%3D%3D",search+selected_place,"223 Đường 154, Phường Tân Phú, Thành phố Thủ Đức, Thành phố Hồ Chí Minh."
19,Ministop -  Tô Hiến Thành,"163 Đ. Tô Hiến Thành, Phường 13, Quận 10, Thành phố Hồ Chí Minh, Vietnam",10.7805338,106.6665568,"https://www.google.com/maps/place/Ministop/@10.7805338,106.6665568,17z/data=!3m1!4b1!4m6!3m5!1s0x31752f0058cc8acd:0xe2388717e1b34937!8m2!3d10.7805285!4d106.6691317!16s%2Fg%2F11vzgg48fb?entry=ttu&g_ep=EgoyMDI1MTEwNC4xIKXMDSoASAFQAw%3D%3D",search+selected_place,"161 Tô Hiến Thành, Phường 13, Quận 10, Thành phố Hồ Chí Minh."
20,Ministop -  Westgate,"MHRP+3G Chung cư Westgate, TT. Tân Túc, Bình Chánh, Thành phố Hồ Chí Minh, Vietnam",10.6873755,106.5745475,"https://www.google.com/maps/place/Ministop+-+Westgate/@10.6873755,106.5745475,16z/data=!4m10!1m2!2m1!1sMinistop+-++Westgate!3m6!1s0x317533000fa7efe7:0x6c66ad9c7427587c!8m2!3d10.6902398!4d106.5862555!15sChRNaW5pc3RvcCAtICBXZXN0Z2F0ZSIDiAEBWhMiEW1pbmlzdG9wIHdlc3RnYXRlkgERY29udmVuaWVuY2Vfc3RvcmWqAVQKDS9nLzExYmJyaGowX2QKCS9tLzA2MXRxNRABMh8QASIbaYOBwmCFwWilw92WMvyVqMBkeygpa9AiSuwXMhUQAiIRbWluaXN0b3Agd2VzdGdhdGXgAQA!16s%2Fg%2F11y43xgh7w?entry=ttu&g_ep=EgoyMDI1MTEwNC4xIKXMDSoASAFQAw%3D%3D",search,"0.04 Lầu Trệt (Thông tầng) Tháp A1, Dự án Westgate, Lô F Trung tâm hành chính huyện Bình Chánh, Đường Tân Túc, Khu phố 4, Thị trấn Tân Túc, Huyện Bình Chánh, Thành phố Hồ Chí Minh."
21,Ministop -  Chương Dương 2,"24A Chương Dương, Linh Chiểu, Thủ Đức, Thành phố Hồ Chí Minh, Vietnam",10.8518964,106.7240338,"https://www.google.com/maps/place/CHTL+-+MINISTOP+-+S249+-+Ch%C6%B0%C6%A1ng+D%C6%B0%C6%A1ng/@10.8518964,106.7240338,14z/data=!4m10!1m2!2m1!1zTWluaXN0b3AgLSAgQ2jGsMahbmcgRMawxqFuZyAy!3m6!1s0x317527003eb8b265:0xb66c1c8a40cc9da4!8m2!3d10.8518964!4d106.7600827!15sCh5NaW5pc3RvcCAtICBDaMawxqFuZyBExrDGoW5nIDIiA4gBAZIBDG91dGxldF9zdG9yZaoBUhABKgwiCG1pbmlzdG9wKEIyHxABIhulCcqWMZyFTLo7pGC4DHLEUQLnkns9vAneCG8yHxACIhttaW5pc3RvcCBjaMawxqFuZyBkxrDGoW5nIDLgAQA!16s%2Fg%2F11w91xtj68?entry=ttu&g_ep=EgoyMDI1MTEwNC4xIKXMDSoASAFQAw%3D%3D",search,"24A Chương Dương, Khu phố 3, Phường Linh Chiểu, Thành phố Thủ Đức, Thành phố Hồ Chí Minh"
22,Ministop -  UOA Tower,"6 Tân Trào, Tân Phú, Quận 7, Thành phố Hồ Chí Minh, Vietnam",10.7301259,106.7221183,"https://www.google.com/maps/place/Ministop+-+UOA+Tower/@10.7301259,106.7221183,17z/data=!3m1!4b1!4m6!3m5!1s0x31752500042a5461:0xebe8bf52a1f4bea1!8m2!3d10.7301206!4d106.7246932!16s%2Fg%2F11y3vq_2r4?entry=ttu&g_ep=EgoyMDI1MTEwNC4xIKXMDSoASAFQAw%3D%3D",search+selected_place,"UOA Tower, 6 Tân Trào, Phường Tân Phú, Quận 7, Thành phố Hồ Chí Minh."
23,Ministop -  Mạc Đĩnh Chi 2,"65BIS Mạc Đĩnh Chi, Đa Kao, Quận 1, Thành phố Hồ Chí Minh, Vietnam",10.7946773,106.6714154,"https://www.google.com/maps/place/Ministop+-+65bis+M%E1%BA%A1c+%C4%90%C4%A9nh+Chi/@10.7946773,106.6714154,14z/data=!4m10!1m2!2m1!1zTWluaXN0b3AgLSAgTeG6oWMgxJDEqW5oIENoaSAy!3m6!1s0x31752f002457f085:0x951193ca4b0a3823!8m2!3d10.7879076!4d106.6958575!15sCh5NaW5pc3RvcCAtICBN4bqhYyDEkMSpbmggQ2hpIDIiA4gBAVodIhttaW5pc3RvcCBt4bqhYyDEkcSpbmggY2hpIDKSARFjb252ZW5pZW5jZV9zdG9yZZoBI0NoWkRTVWhOTUc5blMwVkpRMEZuU1VSbWFUUlFjbHBSRUFFqgFlCg0vZy8xMWJicmhqMF9kCgkvbS8wNjF0cTUQASoFIgEyKEIyHxABIhtqb8oh19hnCFHptSeasPnL8lTFjN4PmrjAy_MyHxACIhttaW5pc3RvcCBt4bqhYyDEkcSpbmggY2hpIDLgAQD6AQUIjAEQFg!16s%2Fg%2F11vwrlsk_d?entry=ttu&g_ep=EgoyMDI1MTEwNC4xIKXMDSoASAFQAw%3D%3D",search,"65 Bis Mạc Đĩnh Chi, Phường Đa Kao, Quận 1, Thành phố Hồ Chí Minh."
24,Ministop -  Điện Biên Phủ 2,"215 Điện Biên Phủ, Phường 2, Bình Thạnh, Thành phố Hồ Chí Minh, Vietnam",10.7873835,106.6757024,"https://www.google.com/maps/place/Ministop+Vietnam+company+limited/@10.7873835,106.6757024,14z/data=!4m10!1m2!2m1!1zTWluaXN0b3AgLSAgxJBp4buHbiBCacOqbiBQaOG7pyAy!3m6!1s0x31752f373ef3a5b1:0x569a2a75929fd426!8m2!3d10.8004298!4d106.7067983!15sCiFNaW5pc3RvcCAtICDEkGnhu4duIEJpw6puIFBo4bunIDIiA4gBAZIBEWNvbnZlbmllbmNlX3N0b3JlqgFvCg0vZy8xMWJicmhqMF9kCgkvbS8wNjF0cTUQASoMIghtaW5pc3RvcChCMh8QASIbag-bnxWqFpH7CPD2ZZR5i2il01WwYFEaczAIMiIQAiIebWluaXN0b3AgxJFp4buHbiBiacOqbiBwaOG7pyAy4AEA!16s%2Fg%2F11f2b70817?entry=ttu&g_ep=EgoyMDI1MTEwNC4xIKXMDSoASAFQAw%3D%3D",search,"153 Điện Biên Phủ, Phường 2, Quận Bình Thạnh, Thành phố Hồ Chí Minh."
25,Ministop -  Lê Quang Định 2,"484 Lê Quang Định, Phường 11, Bình Thạnh, Thành phố Hồ Chí Minh, Vietnam",10.8142932,106.6807349,"https://www.google.com/maps/place/MINISTOP/@10.8142932,106.6807349,16z/data=!4m10!1m2!2m1!1zTWluaXN0b3AgLSAgTMOqIFF1YW5nIMSQ4buLbmggMg!3m6!1s0x317528e85f757187:0xb16fd146e3121940!8m2!3d10.8142932!4d106.6897471!15sCh9NaW5pc3RvcCAtICBMw6ogUXVhbmcgxJDhu4tuaCAyIgOIAQGSARFjb252ZW5pZW5jZV9zdG9yZaoBbgoNL2cvMTFiYnJoajBfZAoJL20vMDYxdHE1EAEqDCIIbWluaXN0b3AoQjIgEAEiHKVDcKk2nG-iexOHY_cz5bA8Jo5_nMPRPKPth4cyIBACIhxtaW5pc3RvcCBsw6ogcXVhbmcgxJHhu4tuaCAy4AEA!16s%2Fg%2F11cs16zn7w?entry=ttu&g_ep=EgoyMDI1MTEwNC4xIKXMDSoASAFQAw%3D%3D",search,"97 Lê Quang Định, Phường 14, Quận Bình Thạnh, Thành phố Hồ Chí Minh."
26,Ministop -  An Dương Vương,"822-824 An Dương Vương, Phường 13, Quận 6, Thành phố Hồ Chí Minh, Vietnam",10.7532628,106.6218358,"https://www.google.com/maps/place/MINISTOP+-+S243+-+An+D%C6%B0%C6%A1ng+V%C6%B0%C6%A1ng/@10.7532628,106.6218358,17z/data=!3m1!4b1!4m6!3m5!1s0x31752d0059628c91:0x4c7b780104f45cfe!8m2!3d10.7532575!4d106.6244107!16s%2Fg%2F11vx25nyg4?entry=ttu&g_ep=EgoyMDI1MTEwNC4xIKXMDSoASAFQAw%3D%3D",search+selected_place,"822 - 824 An Dương Vương, Phường 13, Quận 6, Thành phố Hồ Chí Minh."
27,Ministop -  Hòa Bình,"53 Đ. Hòa Bình, Tân Thới Hoà, Tân Phú, Thành phố Hồ Chí Minh, Vietnam",10.769648,106.3449078,"https://www.google.com/maps/place/MINISTOP+-+S242+-+H%C3%B2a+B%C3%ACnh/@10.769648,106.3449078,11z/data=!4m10!1m2!2m1!1sMinistop+-++H%C3%B2a+B%C3%ACnh!3m6!1s0x31752f0035fb3deb:0xa7d4a050a5791453!8m2!3d10.769648!4d106.6332989!15sChZNaW5pc3RvcCAtICBIw7JhIELDrG5oIgOIAQFaFSITbWluaXN0b3AgaMOyYSBiw6xuaJIBEWNvbnZlbmllbmNlX3N0b3JlmgFEQ2k5RFFVbFJRVU52WkVOb2RIbGpSamx2VDJwS1FtSnRSbnBOUm10MFZtMDBNbFV4U2pKVFJWSm9XakJzTTA5V1JSQUKqAVYKDS9nLzExYmJyaGowX2QKCS9tLzA2MXRxNRABMh8QASIbpYQIeTfxrNtqPyKZUGflLpV97kIsG-omVi8PMhcQAiITbWluaXN0b3AgaMOyYSBiw6xuaOABAPoBBAgAEEE!16s%2Fg%2F11y45k6p0t?entry=ttu&g_ep=EgoyMDI1MTEwNC4xIKXMDSoASAFQAw%3D%3D",search,"53 Hòa Bình, Phường Tân Thới Hòa, Quận Tân Phú, Thành phố Hồ Chí Minh."
28,Ministop -  Đại Lộ 3,"163 Đại Lộ 3, Phước Bình, Quận 9, Thành phố Hồ Chí Minh, Vietnam",10.8126338,106.7694172,"https://www.google.com/maps/place/Ministop+-+C%C4%90KT+%C4%90%E1%BB%91i+Ngo%E1%BA%A1i/@10.8126338,106.7694172,17z/data=!3m1!4b1!4m6!3m5!1s0x317526f674a4dd07:0xa861f71f0ce7c3a!8m2!3d10.8126285!4d106.7719921!16s%2Fg%2F11xdz_1_2?entry=ttu&g_ep=EgoyMDI1MTEwNC4xIKXMDSoASAFQAw%3D%3D",search+selected_place,"163 Đại Lộ 3, Phường Phước Bình, Thành phố Thủ Đức, Thành phố Hồ Chí Minh."
29,Ministop -  Đường số 12,"13 Đ.Số 12, Khu đô thị An Phú An Khánh, Thủ Đức, Thành phố Hồ Chí Minh 71109, Vietnam",10.7925193,106.4435154,"https://www.google.com/maps/place/MINISTOP+-+S239+-+%C4%90%C6%B0%E1%BB%9Dng+s%E1%BB%91+12/@10.7925193,106.4435154,11z/data=!4m10!1m2!2m1!1zTWluaXN0b3AgLSAgxJDGsOG7nW5nIHPhu5EgMTI!3m6!1s0x317527002a111fc5:0x437c1c5d03656612!8m2!3d10.7925193!4d106.7319065!15sCh1NaW5pc3RvcCAtICDEkMaw4budbmcgc-G7kSAxMiIDiAEBkgERY29udmVuaWVuY2Vfc3RvcmWqAWsKDS9nLzExYmJyaGowX2QKCS9tLzA2MXRxNRABKgwiCG1pbmlzdG9wKEIyHxABIhvSSCfQV-tWkZa5fKcOEvg9DaAPqu-fvKqOvnMyHhACIhptaW5pc3RvcCDEkcaw4budbmcgc-G7kSAxMuABAA!16s%2Fg%2F11vz94j1vy?entry=ttu&g_ep=EgoyMDI1MTEwNC4xIKXMDSoASAFQAw%3D%3D",search,"13A Đường số 12, Khu phố 4, Phường An Khánh, Thành phố Thủ Đức, Thành phố Hồ Chí Minh."
30,Ministop -  Kha Vạn Cân,"819 Đ. Kha Vạn Cân, Linh Chiểu, Thủ Đức, Thành phố Hồ Chí Minh, Vietnam",10.857044,106.754313,"https://www.google.com/maps/place/CHTL+-+MINISTOP+-+S240+-+Kha+V%E1%BA%A1n+C%C3%A2n/@10.857044,106.754313,17z/data=!3m1!4b1!4m6!3m5!1s0x3175270036bdf1e1:0x155c0075c207cf60!8m2!3d10.8570387!4d106.7568879!16s%2Fg%2F11vy3c27h3?entry=ttu&g_ep=EgoyMDI1MTEwNC4xIKXMDSoASAFQAw%3D%3D",search+selected_place,"819 Kha Vạn Cân, Khu phố 2, Phường Linh Tây, Thành phố Thủ Đức, Thành phố Hồ Chí Minh."
31,Ministop -  Đại học Văn Lang,"TK17/1 Nguyễn Cảnh Chân, Cầu Kho, Quận 1, Thành phố Hồ Chí Minh, Vietnam",10.7581011,106.6525196,"https://www.google.com/maps/place/MINISTOP+Nguy%E1%BB%85n+C%E1%BA%A3nh+Ch%C3%A2n/@10.7581011,106.6525196,14z/data=!4m10!1m2!2m1!1zTWluaXN0b3AgLSAgxJDhuqFpIGjhu41jIFbEg24gTGFuZw!3m6!1s0x31752fa0d63f4303:0x6468aec8016a5d50!8m2!3d10.7581011!4d106.6885685!15sCiJNaW5pc3RvcCAtICDEkOG6oWkgaOG7jWMgVsSDbiBMYW5nIgOIAQGSARFjb252ZW5pZW5jZV9zdG9yZaoBcAoNL2cvMTFiYnJoajBfZAoJL20vMDYxdHE1EAEqDCIIbWluaXN0b3AoQjIfEAEiG3LkJ4C6tsX9aLDpRrao7q5M4j_AG5dRtGxIsjIjEAIiH21pbmlzdG9wIMSR4bqhaSBo4buNYyB2xINuIGxhbmfgAQA!16s%2Fg%2F11gh4mb3t0?entry=ttu&g_ep=EgoyMDI1MTEwNC4xIKXMDSoASAFQAw%3D%3D",search,"233A Phan Văn Trị, Phường 11, Quận Bình Thạnh, Thành phố Hồ Chí Minh."
32,Ministop -  Dương Đức Hiền,"33-35 Dương Đức Hiền, Tây Thạnh, Tân Phú, Thành phố Hồ Chí Minh, Vietnam",10.8090078,106.6244186,"https://www.google.com/maps/place/Ministop+T%C3%A2y+Th%E1%BA%A1nh/@10.8090078,106.6244186,17z/data=!3m1!4b1!4m6!3m5!1s0x31752b0053c1a157:0x9332ea0246d89baf!8m2!3d10.8090025!4d106.6269935!16s%2Fg%2F11vps981by?entry=ttu&g_ep=EgoyMDI1MTEwNC4xIKXMDSoASAFQAw%3D%3D",search+selected_place,"33 - 35 Dương Đức Hiền, Phường Tây Thạnh, Quận Tân Phú, Thành phố Hồ Chí Minh."
33,Ministop -  Hoàng Việt 2,"59 Hoàng Việt, Phường 4, Tân Bình, Thành phố Hồ Chí Minh, Vietnam",10.7930995,106.6536725,"https://www.google.com/maps/place/MINISTOP+-+S237+-+Ho%C3%A0ng+Vi%E1%BB%87t+2/@10.7930995,106.6536725,17z/data=!4m10!1m2!2m1!1zTWluaXN0b3AgLSAgSG_DoG5nIFZp4buHdCAy!3m6!1s0x31752900183b03fd:0xd3ba4a7af71aec64!8m2!3d10.7930995!4d106.6581786!15sChtNaW5pc3RvcCAtICBIb8OgbmcgVmnhu4d0IDIiA4gBAVoaIhhtaW5pc3RvcCBob8Ogbmcgdmnhu4d0IDKSARFjb252ZW5pZW5jZV9zdG9yZaoBUBABKgwiCG1pbmlzdG9wKEIyIBABIhxqD5ofubClzn9ofH01Sv_dT9Olens0xHZzXFlWMhwQAiIYbWluaXN0b3AgaG_DoG5nIHZp4buHdCAy4AEA!16s%2Fg%2F11vs7_b1rn?entry=ttu&g_ep=EgoyMDI1MTEwNC4xIKXMDSoASAFQAw%3D%3D",search,"59 Hoàng Việt, Phường 04, Quận Tân Bình, Thành phố Hồ Chí Minh."
34,Ministop -  Âu Dương Lân,"352a Âu Dương Lân, Phường Rạch Ông, Quận 8, Thành phố Hồ Chí Minh, Vietnam",10.7413223,106.6828071,"https://www.google.com/maps/place/MINISTOP+-+S234+-+%C3%82u+D%C6%B0%C6%A1ng+L%C3%A2n/@10.7413223,106.6828071,17z/data=!3m1!4b1!4m6!3m5!1s0x31752f000a2fc391:0xbc9ac2e0adb04b4d!8m2!3d10.741317!4d106.685382!16s%2Fg%2F11vs7_5srg?entry=ttu&g_ep=EgoyMDI1MTEwNC4xIKXMDSoASAFQAw%3D%3D",search+selected_place,"352A Âu Dương Lân, Phường Rạch Ông, Quận 8, Thành phố Hồ Chí Minh."
35,Ministop -  Hoàng Hoa Thám 4,"10A Hoàng Hoa Thám, Phường 7, Bình Thạnh, Thành phố Hồ Chí Minh, Vietnam",10.8047072,106.4034714,"https://www.google.com/maps/place/MINISTOP/@10.8047072,106.4034714,11z/data=!4m10!1m2!2m1!1sMinistop+-++Ho%C3%A0ng+Hoa+Th%C3%A1m+4!3m6!1s0x317528c467f81b55:0xa0c0e32a7fb95e48!8m2!3d10.8047072!4d106.6918625!15sCh5NaW5pc3RvcCAtICBIb8OgbmcgSG9hIFRow6FtIDQiA4gBAZIBEWNvbnZlbmllbmNlX3N0b3JlqgFsCg0vZy8xMWJicmhqMF9kCgkvbS8wNjF0cTUQASoMIghtaW5pc3RvcChCMh8QASIbqJjTxt5cNA7m2HuECO0FF9IF4-ZGjM4eVtMZMh8QAiIbbWluaXN0b3AgaG_DoG5nIGhvYSB0aMOhbSA04AEA!16s%2Fg%2F11btrs3q_0?entry=ttu&g_ep=EgoyMDI1MTEwNC4xIKXMDSoASAFQAw%3D%3D",search,"153A Hoàng Hoa Thám, Phường 13, Quận Tân Bình, Thành phố Hồ Chí Minh."
36,Ministop -  Nguyễn Văn Lượng,"87, street 11, district Go Vap, Phường 16, Gò Vấp, Thành phố Hồ Chí Minh, Vietnam",10.8398599,106.6644439,"https://www.google.com/maps/place/MINISTOP-S233/@10.8398599,106.6644439,17z/data=!3m1!4b1!4m6!3m5!1s0x317529fe448fa325:0xf201aa42b5fd24fd!8m2!3d10.8398546!4d106.6670188!16s%2Fg%2F11w3p1wg60?entry=ttu&g_ep=EgoyMDI1MTEwNC4xIKXMDSoASAFQAw%3D%3D",search+selected_place,"368/16 Nguyễn Văn Lượng, Phường 16, Quận Gò Vấp, Thành phố Hồ Chí Minh."
37,Ministop -  Nguyễn Chí Thanh,"157 Nguyễn Chí Thanh, Phường 12, Quận 5, Thành phố Hồ Chí Minh, Vietnam",10.7589818,106.6625936,"https://www.google.com/maps/place/Ministop+-+Nguy%E1%BB%85n+Ch%C3%AD+Thanh/@10.7589818,106.6625936,17z/data=!3m1!4b1!4m6!3m5!1s0x31752f00726e7cf3:0xe89049e4163b538!8m2!3d10.7589765!4d106.6651685!16s%2Fg%2F11vk9g9hfq?entry=ttu&g_ep=EgoyMDI1MTEwNC4xIKXMDSoASAFQAw%3D%3D",search+selected_place,"157 - 157A Nguyễn Chí Thanh, Phường 12, Quận 05, Thành phố Hồ Chí Minh."
38,Ministop -  Bùi Văn Ba,"208 Bùi Văn Ba, Tân Thuận Đông, Quận 7, Thành phố Hồ Chí Minh, Vietnam",10.7505819,106.7325252,"https://www.google.com/maps/place/Ministop+B%C3%B9i+V%C4%83n+Ba/@10.7505819,106.7325252,17z/data=!3m1!4b1!4m6!3m5!1s0x317525005c8c9b25:0x4b0db4747142f9e!8m2!3d10.7505766!4d106.7351001!16s%2Fg%2F11vyj5ms1v?entry=ttu&g_ep=EgoyMDI1MTEwNC4xIKXMDSoASAFQAw%3D%3D",search+selected_place,"208 Bùi Văn Ba, Khu phố 2, Phường Tân Thuận Đông, Quận 7, Thành phố Hồ Chí Minh."
39,Ministop -  Cityland Park Hills 2,"P5-00.13 Cityland Park Hills, 18 Đ. Phan Văn Trị, Phường 10, Gò Vấp, Thành phố Hồ Chí Minh, Vietnam",10.8368383,106.6649755,"https://www.google.com/maps/place/Ministop/@10.8368383,106.6649755,17z/data=!3m1!4b1!4m6!3m5!1s0x3175292161caf477:0x479077db8b93dede!8m2!3d10.836833!4d106.6675504!16s%2Fg%2F11ftwg106f?entry=ttu&g_ep=EgoyMDI1MTEwNC4xIKXMDSoASAFQAw%3D%3D",search+selected_place,"Lô thương mại TMDV03 tại tầng 1, địa chỉ số 0.08 Chung cư CH3, Đường số 8, Khu dân cư Cityland, Phường 10, Quận Gò Vấp, Thành phố Hồ Chí Minh."
40,Ministop -  Khu dân cư Vĩnh Lộc,"1 Đ. A8, Khu Phố 5, Bình Tân, Thành phố Hồ Chí Minh 700000, Vietnam",10.8043218,106.4495034,"https://www.google.com/maps/place/Ministop+-+S228+Khu+D%C3%A2n+C%C6%B0+V%C4%A9nh+L%E1%BB%99c+-+%C4%90%C6%B0%E1%BB%9Dng+S%E1%BB%91+8/@10.8043218,106.4495034,12z/data=!4m10!1m2!2m1!1zTWluaXN0b3AgLSAgS2h1IGTDom4gY8awIFbEqW5oIEzhu5lj!3m6!1s0x31752bd600f0d39d:0x18722e932b402d1d!8m2!3d10.8043218!4d106.593699!15sCiRNaW5pc3RvcCAtICBLaHUgZMOibiBjxrAgVsSpbmggTOG7mWMiA4gBAVojIiFtaW5pc3RvcCBraHUgZMOibiBjxrAgdsSpbmggbOG7mWOSAQ1ncm9jZXJ5X3N0b3JlmgEjQ2haRFNVaE5NRzluUzBWSlEwRm5TVU42ZWxsMU5VaEJFQUWqAXIKDS9nLzExYmJyaGowX2QKCS9tLzA2MXRxNRABKgwiCG1pbmlzdG9wKEIyHxABIhumhVDpGbOhiJ1IVgJefJlp6SutDzy6zafzQx0yJRACIiFtaW5pc3RvcCBraHUgZMOibiBjxrAgdsSpbmggbOG7mWPgAQD6AQQIABBH!16s%2Fg%2F11vl501_f7?entry=ttu&g_ep=EgoyMDI1MTEwNC4xIKXMDSoASAFQAw%3D%3D",search,"01 Đường số 8, Khu dân cư Vĩnh Lộc, Khu phố 4, Phường Bình Hưng Hòa B, Quận Bình Tân, Thành phố Hồ Chí Minh."
41,Ministop -  Lạc Long Quân 3,"353 Lạc Long Quân, Phường 5, Quận 11, Thành phố Hồ Chí Minh, Vietnam",10.7709861,106.6090952,"https://www.google.com/maps/place/Ministop+L%E1%BA%A1c+Long+Qu%C3%A2n/@10.7709861,106.6090952,14z/data=!4m10!1m2!2m1!1sMinistop+-++La%CC%A3c+Long+Qu%C3%A2n+3!3m6!1s0x31752f0021a4c275:0xe0b827355610deaa!8m2!3d10.7709861!4d106.6451441!15sCh5NaW5pc3RvcCAtICBMYcyjYyBMb25nIFF1w6JuIDMiA4gBAVodIhttaW5pc3RvcCBs4bqhYyBsb25nIHF1w6JuIDOSARFjb252ZW5pZW5jZV9zdG9yZZoBJENoZERTVWhOTUc5blMwVkpRMEZuU1VOTWRXVnRlbmRCUlJBQqoBdwoNL2cvMTFiYnJoajBfZAoJL20vMDYxdHE1EAEqFyITbWluaXN0b3AgbOG6oWMgbG9uZyhCMh8QASIbpMfQfgTNFyTeJxKqsmHtdtFeF7NP5Flr_TJ7Mh8QAiIbbWluaXN0b3AgbOG6oWMgbG9uZyBxdcOibiAz4AEA-gEECCgQJw!16s%2Fg%2F11vm9ntpzn?entry=ttu&g_ep=EgoyMDI1MTEwNC4xIKXMDSoASAFQAw%3D%3D",search,"353 Lạc Long Quân, Phường 05, Quận 11, Thành phố Hồ Chí Minh."
42,Ministop -  Đất Mới,"367 Bình Trị Đông, khu phố 5, Bình Tân, Thành phố Hồ Chí Minh, Vietnam",10.7726162,106.6065031,"https://www.google.com/maps/place/MINISTOP+-+S227+-+%C4%90%E1%BA%A5t+M%E1%BB%9Bi/@10.7726162,106.6065031,17z/data=!3m1!4b1!4m6!3m5!1s0x31752d003fbf1593:0x28173fc666ce9a84!8m2!3d10.7726109!4d106.609078!16s%2Fg%2F11ld86x5_s?entry=ttu&g_ep=EgoyMDI1MTEwNC4xIKXMDSoASAFQAw%3D%3D",search+selected_place,"367 Đất Mới, Khu phố 5, Phường Bình Trị Đông A, Quận Bình Tân, Thành phố Hồ Chí Minh."
43,Ministop -  Phạm Văn Bạch,"997 Phạm Văn Bạch, Phường 12, Gò Vấp, Thành phố Hồ Chí Minh, Vietnam",10.8358562,106.6417647,"https://www.google.com/maps/place/Ministop+Ph%E1%BA%A1m+V%C4%83n+B%E1%BA%A1ch/@10.8358562,106.6417647,17z/data=!3m1!4b1!4m6!3m5!1s0x317529ee3567db43:0x9ff2b44d0824817!8m2!3d10.8358509!4d106.6443396!16s%2Fg%2F11vkrk5n3r?entry=ttu&g_ep=EgoyMDI1MTEwNC4xIKXMDSoASAFQAw%3D%3D",search+selected_place,"997 Phạm Văn Bạch, Phường 12, Quận Gò Vấp, Thành phố Hồ Chí Minh."
44,Ministop -  Cao ốc Re,"12-13 Đường số 1, Đông Hoà, Thủ Đức, Thành phố Hồ Chí Minh, Vietnam",10.9184606,106.7122687,"https://www.google.com/maps/place/Ministop+N%C3%B4ng+L%C3%A2m/@10.9184606,106.7122687,13z/data=!4m10!1m2!2m1!1sMinistop+-++Cao+%E1%BB%91c+Re!3m6!1s0x31752700673364f5:0xb8f07d9852013a5e!8m2!3d10.8690903!4d106.7876512!15sChdNaW5pc3RvcCAtICBDYW8g4buRYyBSZSIDiAEBkgERY29udmVuaWVuY2Vfc3RvcmWqAXEKDS9nLzExYmJyaGowX2QKCS9tLzA2MXRxNRABKhgiFG1pbmlzdG9wIGNhbyDhu5FjIHJlKAAyHxABIhsxxZEviO-YbyLmaehW8qHmaaAHdYP9E3rg40YyGBACIhRtaW5pc3RvcCBjYW8g4buRYyByZeABAA!16s%2Fg%2F11zj0f1h7f?entry=ttu&g_ep=EgoyMDI1MTEwNC4xIKXMDSoASAFQAw%3D%3D",search,"Tầng 1&2 – TMDV 03 – Cao ốc RES11, 205 Lạc Long Quân, Phường 03, Quận 11, Thành phố Hồ Chí Minh."
45,Ministop -  Phan Văn Đạt,"13 Phan Văn Đạt, Bến Nghé, Quận 1, Thành phố Hồ Chí Minh, Vietnam",10.7752188,106.7025143,"https://www.google.com/maps/place/Mini+Stop/@10.7752188,106.7025143,17z/data=!3m1!4b1!4m6!3m5!1s0x31752fc70da97fa1:0xd2289a13ec3f93eb!8m2!3d10.7752135!4d106.7050892!16s%2Fg%2F11vdjhvrqr?entry=ttu&g_ep=EgoyMDI1MTEwNC4xIKXMDSoASAFQAw%3D%3D",search+selected_place,"13 Phan Văn Đạt, Phường Bến Nghé, Quận 01, Thành phố Hồ Chí Minh."
46,Ministop -  Lý Tự Trọng 3,"126 Lý Tự Trọng, Phường Bến Thành, Quận 1, Thành phố Hồ Chí Minh 700000, Vietnam",10.7739983,106.6941487,"https://www.google.com/maps/place/Ministop+-+L%C3%BD+T%E1%BB%B1+Tr%E1%BB%8Dng+3/@10.7739983,106.6941487,17z/data=!3m1!4b1!4m6!3m5!1s0x31752f8dbc2e05d7:0x600a77e7b74b25b7!8m2!3d10.773993!4d106.6967236!16s%2Fg%2F11y1htdjpk?entry=ttu&g_ep=EgoyMDI1MTEwNC4xIKXMDSoASAFQAw%3D%3D",search+selected_place,"126 Lý Tự Trọng, Phường Bến Thành, Quận 01, Thành phố Hồ Chí Minh."
47,Ministop -  Tân Quý 2,"446 Đ. Tân Kỳ Tân Quý, Tân Quý, Tân Phú, Thành phố Hồ Chí Minh, Vietnam",10.7985708,106.5985228,"https://www.google.com/maps/place/Ministop+S210+-+446+T%C3%A2n+K%E1%BB%B3+T%C3%A2n+Qu%C3%BD/@10.7985708,106.5985228,15z/data=!4m10!1m2!2m1!1sMinistop+-++T%C3%A2n+Qu%C3%BD+2!3m6!1s0x31752b2d5ecd5969:0x2616307ab6825485!8m2!3d10.7985708!4d106.6165472!15sChdNaW5pc3RvcCAtICBUw6JuIFF1w70gMiIDiAEBWhYiFG1pbmlzdG9wIHTDom4gcXXDvSAykgERY29udmVuaWVuY2Vfc3RvcmWqAXUKDS9nLzExYmJyaGowX2QKDS9nLzExYzFndHd2eXMKCS9tLzA2MXRxNRABKgwiCG1pbmlzdG9wKEIyIBABIhylQ2qKGTFHeAZE4BzmphoDehnVPJTDLpDRRy5lMhgQAiIUbWluaXN0b3AgdMOibiBxdcO9IDLgAQA!16s%2Fg%2F11kqrg8sk2?entry=ttu&g_ep=EgoyMDI1MTEwNC4xIKXMDSoASAFQAw%3D%3D",search,"192 - 194 Tân Quý, Phường Tân Quý, Quận Tân Phú, Thành phố Hồ Chí Minh."
48,Ministop -  Trần Bình Trọng,"52A Trần Bình Trọng, Phường 5, Bình Thạnh, Thành phố Hồ Chí Minh, Vietnam",10.8127108,106.6854112,"https://www.google.com/maps/place/MINISTOP/@10.8127108,106.6854112,17z/data=!3m1!4b1!4m6!3m5!1s0x3175295cffff2989:0x3d988226a14d5c63!8m2!3d10.8127055!4d106.6879861!16s%2Fg%2F11krtx7b82?entry=ttu&g_ep=EgoyMDI1MTEwNC4xIKXMDSoASAFQAw%3D%3D",search+selected_place,"52G Trần Bình Trọng, Phường 05, Quận Bình Thạnh, Thành phố Hồ Chí Minh."
49,Ministop -  Lạc Long Quân 2,"353 Lạc Long Quân, Phường 5, Quận 11, Thành phố Hồ Chí Minh, Vietnam",10.7647174,106.6362013,"https://www.google.com/maps/place/Ministop+L%E1%BA%A1c+Long+Qu%C3%A2n/@10.7647174,106.6362013,16z/data=!4m10!1m2!2m1!1sMinistop+-++L%E1%BA%A1c+Long+Qu%C3%A2n+2!3m6!1s0x31752f0021a4c275:0xe0b827355610deaa!8m2!3d10.7709861!4d106.6451441!15sCh5NaW5pc3RvcCAtICBM4bqhYyBMb25nIFF1w6JuIDIiA4gBAZIBEWNvbnZlbmllbmNlX3N0b3JlqgFsCg0vZy8xMWJicmhqMF9kCgkvbS8wNjF0cTUQASoMIghtaW5pc3RvcChCMh8QASIbpoWrSAlDo-oPWI7eH-jZQ7y8KF-STGc6FSoaMh8QAiIbbWluaXN0b3AgbOG6oWMgbG9uZyBxdcOibiAy4AEA!16s%2Fg%2F11vm9ntpzn?entry=ttu&g_ep=EgoyMDI1MTEwNC4xIKXMDSoASAFQAw%3D%3D",search,"109 Lạc Long Quân, Phường 01, Quận 11, Thành phố Hồ Chí Minh."
50,Ministop -  Thành Thái 3,"5 Đ. Thành Thái, Phường 14, Quận 10, Thành phố Hồ Chí Minh, Vietnam",10.7693551,106.6481344,"https://www.google.com/maps/place/MINISTOP+Viet+Nam/@10.7693551,106.6481344,15z/data=!4m10!1m2!2m1!1sMinistop+-++Th%C3%A0nh+Th%C3%A1i+3!3m6!1s0x31752f4a191cb8df:0xf20c5ed312e9ed1a!8m2!3d10.7693551!4d106.6661588!15sChpNaW5pc3RvcCAtICBUaMOgbmggVGjDoWkgMyIDiAEBkgERY29udmVuaWVuY2Vfc3RvcmWqAWgKDS9nLzExYmJyaGowX2QKCS9tLzA2MXRxNRABKgwiCG1pbmlzdG9wKEIyHxABIhtplPz18SMTCQZxgHcVAL1GMmWYZmGyl2IyPOsyGxACIhdtaW5pc3RvcCB0aMOgbmggdGjDoWkgM-ABAA!16s%2Fg%2F11v3q6mrcy?entry=ttu&g_ep=EgoyMDI1MTEwNC4xIKXMDSoASAFQAw%3D%3D",search,"5 Thành Thái, Phường 14, Quận 10, Thành phố Hồ Chí Minh."
51,Ministop -  Mã Lò,"102 Đường Số 29, Bình Trị Đông B, Bình Tân, Thành phố Hồ Chí Minh, Vietnam",10.7568198,106.6091531,"https://www.google.com/maps/place/CHTL+-+MINISTOP+-+S257+-+%C4%90%C6%B0%E1%BB%9Dng+s%E1%BB%91+29/@10.7568198,106.6091531,17z/data=!3m1!4b1!4m6!3m5!1s0x31752d0009d9f3f5:0x7d10875e351a63b3!8m2!3d10.7568145!4d106.611728!16s%2Fg%2F11y6b46zks?entry=ttu&g_ep=EgoyMDI1MTEwNC4xIKXMDSoASAFQAw%3D%3D",search+selected_place,"168 Mã Lò, Khu phố 2, Phường Bình Trị Đông A, Quận Bình Tân, Thành phố Hồ Chí Minh."
52,Ministop -  Lê Văn Thọ,"314 Đ. Lê Văn Thọ, Phường 11, Gò Vấp, Thành phố Hồ Chí Minh 70000, Vietnam",10.8454085,106.6391055,"https://www.google.com/maps/place/MiniStop+l%C3%AA+v%C4%83n+th%E1%BB%8D/@10.8454085,106.6391055,15z/data=!4m10!1m2!2m1!1zTWluaXN0b3AgLSAgTMOqIFbEg24gVGjhu40!3m6!1s0x317529004fb9e7a9:0x6e9b0c45a3460be7!8m2!3d10.8454085!4d106.6571299!15sChpNaW5pc3RvcCAtICBMw6ogVsSDbiBUaOG7jSIDiAEBkgERY29udmVuaWVuY2Vfc3RvcmWqAVoKDS9nLzExYmJyaGowX2QKCS9tLzA2MXRxNRABMh8QASIbpoVXmOhssbPXBfcjpmPbj1Nglhs74ZeOFzWHMhsQAiIXbWluaXN0b3AgbMOqIHbEg24gdGjhu43gAQA!16s%2Fg%2F11y43t68sr?entry=ttu&g_ep=EgoyMDI1MTEwNC4xIKXMDSoASAFQAw%3D%3D",search,"314 Lê Văn Thọ, Phường 11, Quận Gò Vấp, Thành phố Hồ Chí Minh."
53,Ministop -  Lê Đức Thọ 2,"527 Đ. Lê Đức Thọ, Phường 16, Gò Vấp, Thành phố Hồ Chí Minh 70000, Vietnam",10.8498155,106.653479,"https://www.google.com/maps/place/MINISTOP+-+L%C3%AA+%C4%90%E1%BB%A9c+Th%E1%BB%8D/@10.8498155,106.653479,15z/data=!4m10!1m2!2m1!1zTWluaXN0b3AgLSAgTMOqIMSQ4bupYyBUaOG7jSAy!3m6!1s0x31752976c24363db:0xbec98fd9626dabe5!8m2!3d10.8463217!4d106.6704441!15sCh5NaW5pc3RvcCAtICBMw6ogxJDhu6ljIFRo4buNIDIiA4gBAVodIhttaW5pc3RvcCBsw6ogxJHhu6ljIHRo4buNIDKSARFjb252ZW5pZW5jZV9zdG9yZaoBbAoNL2cvMTFiYnJoajBfZAoJL20vMDYxdHE1EAEqDCIIbWluaXN0b3AoQjIfEAEiG6THiW_tJLRWyh6GD2IlVMKocIV6Vi4aRQUUtTIfEAIiG21pbmlzdG9wIGzDqiDEkeG7qWMgdGjhu40gMuABAA!16s%2Fg%2F11syj81266?entry=ttu&g_ep=EgoyMDI1MTEwNC4xIKXMDSoASAFQAw%3D%3D",search,"1177 Lê Đức Thọ, Phường 15, Quận Gò Vấp, Thành phố Hồ Chí Minh."
54,Ministop -  Cư Xá Lữ Gia,"43B Đường Số 2, Khu Phố 2, Quận 11, Thành phố Hồ Chí Minh, Vietnam",10.7717332,106.6185707,"https://www.google.com/maps/place/Mini+Stop/@10.7717332,106.6185707,14z/data=!4m10!1m2!2m1!1zTWluaXN0b3AgLSAgQ8awIFjDoSBM4buvIEdpYQ!3m6!1s0x31752f27fd7bd077:0x1c7d2e440ee8a00!8m2!3d10.7717332!4d106.6546196!15sChxNaW5pc3RvcCAtICBDxrAgWMOhIEzhu68gR2lhIgOIAQFaGyIZbWluaXN0b3AgY8awIHjDoSBs4buvIGdpYZIBDWdyb2Nlcnlfc3RvcmWaASRDaGREU1VoTk1HOW5TMFZKUTBGblNVUnNOazk2ZVMxQlJSQUKqAWoKDS9nLzExYmJyaGowX2QKCS9tLzA2MXRxNRABKgwiCG1pbmlzdG9wKEIyHxABIhuoE452TuzX-PummO7pH48Cel3X3Y5jL4hrGCMyHRACIhltaW5pc3RvcCBjxrAgeMOhIGzhu68gZ2lh4AEA-gEECAAQKw!16s%2Fg%2F11l5x2kb43?entry=ttu&g_ep=EgoyMDI1MTEwNC4xIKXMDSoASAFQAw%3D%3D",search,"77B Đường số 2 Cư Xá Lữ Gia, Phường 15, Quận 11, Thành phố Hồ Chí Minh."
55,Ministop -  Bệnh Viện Quân Y 175,"768 Nguyễn Kiệm, Phường 3, Gò Vấp, Thành phố Hồ Chí Minh, Vietnam",10.8164496,106.6776773,"https://www.google.com/maps/place/Ministop+B%E1%BB%87nh+vi%E1%BB%87n+qu%C3%A2n+y/@10.8164496,106.6776773,17z/data=!3m1!4b1!4m6!3m5!1s0x31752996cb1c03a9:0x5bf536fd3cd97bb!8m2!3d10.8164443!4d106.6802522!16s%2Fg%2F11vj6xbj37?entry=ttu&g_ep=EgoyMDI1MTEwNC4xIKXMDSoASAFQAw%3D%3D",search+selected_place,"786 Nguyễn Kiệm, Phường 03, Quận Gò Vấp, Thành phố Hồ Chí Minh."
56,Ministop -  Tân Kỳ Tân Quý 2,"446 Đ. Tân Kỳ Tân Quý, Tân Quý, Tân Phú, Thành phố Hồ Chí Minh, Vietnam",10.7985708,106.607535,"https://www.google.com/maps/place/Ministop+S210+-+446+T%C3%A2n+K%E1%BB%B3+T%C3%A2n+Qu%C3%BD/@10.7985708,106.607535,16z/data=!4m10!1m2!2m1!1zTWluaXN0b3AgLSAgVMOibiBL4buzIFTDom4gUXXDvSAy!3m6!1s0x31752b2d5ecd5969:0x2616307ab6825485!8m2!3d10.7985708!4d106.6165472!15sCiFNaW5pc3RvcCAtICBUw6JuIEvhu7MgVMOibiBRdcO9IDIiA4gBAVogIh5taW5pc3RvcCB0w6JuIGvhu7MgdMOibiBxdcO9IDKSARFjb252ZW5pZW5jZV9zdG9yZaoBcAoNL2cvMTFiYnJoajBfZAoJL20vMDYxdHE1EAEqDCIIbWluaXN0b3AoQjIgEAEiHKVDpsux5Q8czt1U-Aqbqw3HbiomJnJy6FO2X1EyIhACIh5taW5pc3RvcCB0w6JuIGvhu7MgdMOibiBxdcO9IDLgAQA!16s%2Fg%2F11kqrg8sk2?entry=ttu&g_ep=EgoyMDI1MTEwNC4xIKXMDSoASAFQAw%3D%3D",search,"446 Tân Kỳ Tân Quý, Phường Sơn Kỳ, Quận Tân Phú, Thành phố Hồ Chí Minh."
57,Ministop -  One Verandah,"1 Tạ Hiện, Phường Thạnh Mỹ Lợi, Thủ Đức, Thành phố Hồ Chí Minh, Vietnam",10.7769014,106.748999,"https://www.google.com/maps/place/Ministop+One+Verandah/@10.7769014,106.748999,17z/data=!3m1!4b1!4m6!3m5!1s0x317525000c1ced8d:0xdd9e4e798fcefed7!8m2!3d10.7768961!4d106.7515739!16s%2Fg%2F11vpdlvtwk?entry=ttu&g_ep=EgoyMDI1MTEwNC4xIKXMDSoASAFQAw%3D%3D",search+selected_place,"Cửa hàng thương mại số SH11 và SH12, Dự án One Verandah, số 02 đường Bát Nàn, Khu phố 01, Phường Thạnh Mỹ Lợi, Thành phố Thủ Đức, Thành phố Hồ Chí Minh."
58,Ministop -  Đường số 01,"107 Đ. Số 1, Phường Thông Tây Hội, Gò Vấp, Thành phố Hồ Chí Minh, Vietnam",10.8458136,106.3729954,"https://www.google.com/maps/place/Ministop+%C4%91%C6%B0%E1%BB%9Dng+s%E1%BB%91+1/@10.8458136,106.3729954,11z/data=!4m10!1m2!2m1!1zTWluaXN0b3AgLSAgxJDGsOG7nW5nIHPhu5EgMDE!3m6!1s0x3175290025ddc723:0x838d0d38b6e3fb57!8m2!3d10.8458136!4d106.6613865!15sCh1NaW5pc3RvcCAtICDEkMaw4budbmcgc-G7kSAwMSIDiAEBkgERY29udmVuaWVuY2Vfc3RvcmWqAWsKDS9nLzExYmJyaGowX2QKCS9tLzA2MXRxNRABKgwiCG1pbmlzdG9wKEIyHxABIhvRPuA509Lnlg0sqfnD-MgK3cGiSLZrKNJXTf4yHhACIhptaW5pc3RvcCDEkcaw4budbmcgc-G7kSAwMeABAA!16s%2Fg%2F11wq97szbh?entry=ttu&g_ep=EgoyMDI1MTEwNC4xIKXMDSoASAFQAw%3D%3D",search,"107 Đường số 01, Phường 11, Quận Gò Vấp, Thành phố Hồ Chí Minh."
59,Ministop -  Âu Cơ 3,"5/7A Đ. Âu Cơ, Phường 9, Tân Bình, Thành phố Hồ Chí Minh, Vietnam",10.7755593,106.5785417,"https://www.google.com/maps/place/MINISTOP/@10.7755593,106.5785417,13z/data=!4m10!1m2!2m1!1zTWluaXN0b3AgLSAgw4J1IEPGoSAz!3m6!1s0x31752f152cddb775:0x12da2d3da54b7a75!8m2!3d10.7755593!4d106.6506395!15sChVNaW5pc3RvcCAtICDDgnUgQ8ahIDMiA4gBAZIBEWNvbnZlbmllbmNlX3N0b3JlqgFjCg0vZy8xMWJicmhqMF9kCgkvbS8wNjF0cTUQASoMIghtaW5pc3RvcChCMh8QASIbpMfKVueUgfLdd-do7_ScZUIZCO84ieEJ4orfMhYQAiISbWluaXN0b3Agw6J1IGPGoSAz4AEA!16s%2Fg%2F11kk4jxrwl?entry=ttu&g_ep=EgoyMDI1MTEwNC4xIKXMDSoASAFQAw%3D%3D",search,"5/7A Âu Cơ, Phường 09, Quận Tân Bình, Thành phố Hồ Chí Minh."
60,Ministop -  Vườn Lài 3,"56 Đ. Vườn Lài, Phú Thọ Hoà, Tân Phú, Thành phố Hồ Chí Minh, Vietnam",10.7878457,106.6309805,"https://www.google.com/maps/place/MINISTOP+-+V%C6%B0%E1%BB%9Dn+L%C3%A0i/@10.7878457,106.6309805,17z/data=!3m1!4b1!4m6!3m5!1s0x31752eabe7858d9b:0xff6810d747e66634!8m2!3d10.7878404!4d106.6335554!16s%2Fg%2F11crzwdzw6?entry=ttu&g_ep=EgoyMDI1MTEwNC4xIKXMDSoASAFQAw%3D%3D",search+selected_place,"221/40 Vườn Lài, Phường Phú Thọ Hòa, Quận Tân Phú, Thành phố Hồ Chí Minh."
61,Ministop -  Lý Tự Trọng 2,"101a Lý Tự Trọng, Phường Bến Thành, Quận 1, Thành phố Hồ Chí Minh 700000, Vietnam",10.7742444,106.6950615,"https://www.google.com/maps/place/Ministop+-+L%C3%BD+T%E1%BB%B1+Tr%E1%BB%8Dng+2/@10.7742444,106.6950615,17z/data=!3m1!4b1!4m6!3m5!1s0x31752f5ee2a6f757:0x231cc6dfc458fd6!8m2!3d10.7742391!4d106.6976364!16s%2Fg%2F11svfntrzy?entry=ttu&g_ep=EgoyMDI1MTEwNC4xIKXMDSoASAFQAw%3D%3D",search+selected_place,"101A Lý Tự Trọng, Phường Bến Thành, Quận 01, Thành phố Hồ Chí Minh."
62,Ministop -  Thạch Thị Thanh,"55 Thạch Thị Thanh, Phường Tân Định, Quận 1, Thành phố Hồ Chí Minh, Vietnam",10.790455,106.6895403,"https://www.google.com/maps/place/MINISTOP+TH%E1%BA%A0CH+TH%E1%BB%8A+THANH/@10.790455,106.6895403,17z/data=!3m1!4b1!4m6!3m5!1s0x31752977661ab321:0xe94825b4124fd61!8m2!3d10.7904497!4d106.6921152!16s%2Fg%2F11ks077jsc?entry=ttu&g_ep=EgoyMDI1MTEwNC4xIKXMDSoASAFQAw%3D%3D",search+selected_place,"55 Thạch Thị Thanh, Phường Tân Định, Quận 01, Thành phố Hồ Chí Minh"
63,Ministop -  Nguyễn Văn Khối,"220/82 Nguyễn Văn Khối, Phường 8, Gò Vấp, Thành phố Hồ Chí Minh, Vietnam",10.8451488,106.6515686,"https://www.google.com/maps/place/Ministop/@10.8451488,106.6515686,17z/data=!3m1!4b1!4m6!3m5!1s0x317529f2a90c65dd:0x1e4becc9eae70918!8m2!3d10.8451435!4d106.6541435!16s%2Fg%2F11stbfx6yg?entry=ttu&g_ep=EgoyMDI1MTEwNC4xIKXMDSoASAFQAw%3D%3D",search+selected_place,"220/82 Nguyễn Văn Khối, Phường 8, Quận Gò Vấp, Thành phố Hồ Chí Minh"
64,Ministop -  Lý Thánh Tông,"46 Lý Thánh Tông, Tân Thới Hoà, Tân Phú, Thành phố Hồ Chí Minh 70000, Vietnam",10.7670707,106.6274667,"https://www.google.com/maps/place/Ministop+L%C3%BD+Th%C3%A1nh+T%C3%B4ng+-+S200/@10.7670707,106.6274667,17z/data=!3m1!4b1!4m6!3m5!1s0x31752f08c027c90b:0x54828d333b192a3!8m2!3d10.7670654!4d106.6300416!16s%2Fg%2F11st68zc7k?entry=ttu&g_ep=EgoyMDI1MTEwNC4xIKXMDSoASAFQAw%3D%3D",search+selected_place,"46 Lý Thánh Tông, Phường Hiệp Tân, Quận Tân Phú, Thành phố Hồ Chí Minh."
65,Ministop -  Đường số 28,"143 Đ. Số 28, Phường 6, Gò Vấp, Thành phố Hồ Chí Minh, Vietnam",10.8437927,106.6785195,"https://www.google.com/maps/place/C%E1%BB%ADa+h%C3%A0ng+ti%E1%BB%87n+l%E1%BB%A3i+ministop/@10.8437927,106.6785195,17z/data=!3m1!4b1!4m6!3m5!1s0x317529001bc1daaf:0xb594d98674f820e0!8m2!3d10.8437874!4d106.6810944!16s%2Fg%2F11stdssk6c?entry=ttu&g_ep=EgoyMDI1MTEwNC4xIKXMDSoASAFQAw%3D%3D",search+selected_place,"143 Đường số 28, Phường 6, Quận Gò Vấp, Thành phố Hồ Chí Minh"
66,Ministop -  Đường số 59,"107 Đ. Số 1, Phường Thông Tây Hội, Gò Vấp, Thành phố Hồ Chí Minh, Vietnam",10.8458136,106.3729954,"https://www.google.com/maps/place/Ministop+%C4%91%C6%B0%E1%BB%9Dng+s%E1%BB%91+1/@10.8458136,106.3729954,11z/data=!4m10!1m2!2m1!1zTWluaXN0b3AgLSAgxJDGsOG7nW5nIHPhu5EgNTk!3m6!1s0x3175290025ddc723:0x838d0d38b6e3fb57!8m2!3d10.8458136!4d106.6613865!15sCh1NaW5pc3RvcCAtICDEkMaw4budbmcgc-G7kSA1OSIDiAEBkgERY29udmVuaWVuY2Vfc3RvcmWqAWwKDS9nLzExYmJyaGowX2QKCS9tLzA2MXRxNRABKgwiCG1pbmlzdG9wKEIyIBABIhzRZhexX4rELt1Ss88SzaXW_F7ih9doiIGXatY0Mh4QAiIabWluaXN0b3AgxJHGsOG7nW5nIHPhu5EgNTngAQA!16s%2Fg%2F11wq97szbh?entry=ttu&g_ep=EgoyMDI1MTEwNC4xIKXMDSoASAFQAw%3D%3D",search,"83 Đường số 59, Phường 14, Quận Gò Vấp, Thành phố Hồ Chí Minh"
67,Ministop -  Huỳnh Văn Nghệ,"98 Đ. Huỳnh Văn Nghệ, Phường 15, Tân Bình, Thành phố Hồ Chí Minh, Vietnam",10.8297189,106.636088,"https://www.google.com/maps/place/Ministop+Hu%E1%BB%B3nh+V%C4%83n+Ngh%E1%BB%87/@10.8297189,106.636088,17z/data=!3m1!4b1!4m6!3m5!1s0x3175291691bb0c3b:0x3184fba11b21278a!8m2!3d10.8297136!4d106.6386629!16s%2Fg%2F11kqrggtpc?entry=ttu&g_ep=EgoyMDI1MTEwNC4xIKXMDSoASAFQAw%3D%3D",search+selected_place,"96 Huỳnh Văn Nghệ, Phường 15 Quận Tân Bình, Thành phố Hồ Chí Minh."
68,Ministop -  Thạch Lam 2,"113 Đ. Thạch Lam, Phú Thạnh, Tân Phú, Thành phố Hồ Chí Minh, Vietnam",10.7780014,106.6248688,"https://www.google.com/maps/place/MINISTOP/@10.7780014,106.6248688,17z/data=!4m10!1m2!2m1!1sMinistop+-++Th%E1%BA%A1ch+Lam+2!3m6!1s0x31752fae15a8f369:0x47cdd9483520eeaf!8m2!3d10.7769422!4d106.6300744!15sChlNaW5pc3RvcCAtICBUaOG6oWNoIExhbSAyIgOIAQFaGCIWbWluaXN0b3AgdGjhuqFjaCBsYW0gMpIBEWNvbnZlbmllbmNlX3N0b3JlqgFnCg0vZy8xMWJicmhqMF9kCgkvbS8wNjF0cTUQASoMIghtaW5pc3RvcChCMh8QASIbbKV9av76VZrwsXiUVBbA-mrZFIX1JpLgRr2eMhoQAiIWbWluaXN0b3AgdGjhuqFjaCBsYW0gMuABAA!16s%2Fg%2F11tk27690x?entry=ttu&g_ep=EgoyMDI1MTEwNC4xIKXMDSoASAFQAw%3D%3D",search,"280 Thạch Lam, Phường Phú Thạnh, Quận Tân Phú, Thành phố Hồ Chí Minh."
69,Ministop -  Trịnh Đình Trọng 2,"272 Trịnh Đình Trọng, Phú Trung, Tân Phú, Thành phố Hồ Chí Minh, Vietnam",10.7756205,106.6368303,"https://www.google.com/maps/place/MINISTOP/@10.7756205,106.6368303,17z/data=!3m1!4b1!4m6!3m5!1s0x31752f4fe6ee2313:0x6c3cda2241cdcb63!8m2!3d10.7756152!4d106.6394052!16s%2Fg%2F11tjzm689g?entry=ttu&g_ep=EgoyMDI1MTEwNC4xIKXMDSoASAFQAw%3D%3D",search+selected_place,"270A - 272 Trịnh Đình Trọng, Phường Phú Trung, Quận Tân Phú, Thành phố Hồ Chí Minh."
70,Ministop -  Bùi Quang Là,"92-94 Bùi Quang Là, Phường 12, Gò Vấp, Thành phố Hồ Chí Minh 700000, Vietnam",10.8350651,106.6369839,"https://www.google.com/maps/place/MINISTOP/@10.8350651,106.6369839,17z/data=!3m1!4b1!4m6!3m5!1s0x317529fd3f45ac89:0x446f7a34c821a828!8m2!3d10.8350598!4d106.6395588!16s%2Fg%2F11jt4g1qq0?entry=ttu&g_ep=EgoyMDI1MTEwNC4xIKXMDSoASAFQAw%3D%3D",search+selected_place,"92 – 94 Bùi Quang Là, Phường 12, Quận Gò Vấp, Thành phố Hồ Chí Minh."
71,Ministop -  Topaz City,"223 Đ. 154, Khu Phố 3, Thủ Đức, Thành phố Hồ Chí Minh, Vietnam",10.8648534,106.8082382,"https://www.google.com/maps/place/Ministop+Topaz+Home+2/@10.8648534,106.8082382,17z/data=!3m1!4b1!4m6!3m5!1s0x3175270004299aa7:0x6027059844f6f3b1!8m2!3d10.8648481!4d106.8108131!16s%2Fg%2F11w3bv9qcq?entry=ttu&g_ep=EgoyMDI1MTEwNC4xIKXMDSoASAFQAw%3D%3D",search+selected_place,"Lô thương mại dịch vụ B1 tầng 1, Chung cư Topaz City - 39 Cao Lỗ, Phường 04, Quận 08, Thành phố Hồ Chí Minh."
72,Ministop -  Bàu Cát,"307a Đ. Bàu Cát, Phường 12, Tân Bình, Thành phố Hồ Chí Minh 700000, Vietnam",10.7906718,106.6437864,"https://www.google.com/maps/place/MINISTOP/@10.7906718,106.6437864,17z/data=!3m1!4b1!4m6!3m5!1s0x31752fd8f8f5d77b:0x6be2f87b8e291eb6!8m2!3d10.7906665!4d106.6463613!16s%2Fg%2F11js_wyd24?entry=ttu&g_ep=EgoyMDI1MTEwNC4xIKXMDSoASAFQAw%3D%3D",search+selected_place,"307A – 307B – 307C Bàu Cát, Phường 12, Quận Tân Bình, Thành phố Hồ Chí Minh."
73,Ministop -  Tân Kỳ Tân Quý,"293 Đ. Tân Kỳ Tân Quý, Tân Sơn Nhì, Tân Phú, Thành phố Hồ Chí Minh, Vietnam",10.7978681,106.6134251,"https://www.google.com/maps/place/MINISTOP+-+T%C3%82N+K%E1%BB%B2+T%C3%82N+QU%C3%9D/@10.7978681,106.6134251,15z/data=!4m10!1m2!2m1!1zTWluaXN0b3AgLSAgVMOibiBL4buzIFTDom4gUXXDvQ!3m6!1s0x31752b4ff1f46ee3:0x5e8717e2631358fa!8m2!3d10.8021666!4d106.6265805!15sCh9NaW5pc3RvcCAtICBUw6JuIEvhu7MgVMOibiBRdcO9IgOIAQFaHiIcbWluaXN0b3AgdMOibiBr4buzIHTDom4gcXXDvZIBEWNvbnZlbmllbmNlX3N0b3JlqgFuCg0vZy8xMWJicmhqMF9kCgkvbS8wNjF0cTUQASoMIghtaW5pc3RvcChCMiAQASIcpUOqxPi-9bP4hPSsJtJrZv5eypJ_qqcRSJAZLjIgEAIiHG1pbmlzdG9wIHTDom4ga-G7syB0w6JuIHF1w73gAQA!16s%2Fg%2F11pf681q26?entry=ttu&g_ep=EgoyMDI1MTEwNC4xIKXMDSoASAFQAw%3D%3D",search,"293B – 293C Tân Kỳ Tân Quý, Phường Tân Sơn Nhì, Quận Tân Phú, Thành phố Hồ Chí Minh"
74,Ministop -  Phạm Văn Chí,"220 Đ. Phạm Văn Chí, Phường 1, Quận 6, Thành phố Hồ Chí Minh 700000, Vietnam",10.7448523,106.6105808,"https://www.google.com/maps/place/Ministop+Ph%E1%BA%A1m+V%C4%83n+Ch%C3%AD/@10.7448523,106.6105808,14z/data=!4m10!1m2!2m1!1zTWluaXN0b3AgLSAgUGjhuqFtIFbEg24gQ2jDrQ!3m6!1s0x31752f000d743a7d:0x471364d359f60ab4!8m2!3d10.7448523!4d106.6466297!15sChxNaW5pc3RvcCAtICBQaOG6oW0gVsSDbiBDaMOtWhsiGW1pbmlzdG9wIHBo4bqhbSB2xINuIGNow62SARFjb252ZW5pZW5jZV9zdG9yZaoBQhABMh8QASIbpoOqtTiZ7VOz1QHAQOhxP6wfvMxMRm-E3xALMh0QAiIZbWluaXN0b3AgcGjhuqFtIHbEg24gY2jDreABAA!16s%2Fg%2F11y5gyjm3w?entry=ttu&g_ep=EgoyMDI1MTEwNC4xIKXMDSoASAFQAw%3D%3D",search,"220 Phạm Văn Chí, Phường 1, Quận 06, Thành phố Hồ Chí Minh."
75,Ministop -  Đường số 10,"86 Đường số 10, P.13, Quận 6, Thành phố Hồ Chí Minh, Vietnam",10.7532768,106.6248323,"https://www.google.com/maps/place/Ministop/@10.7532768,106.6248323,17z/data=!3m1!4b1!4m6!3m5!1s0x31752d37bd48e7f5:0x8a79f93f7ef4be34!8m2!3d10.7532715!4d106.6274072!16s%2Fg%2F11s86f18rh?entry=ttu&g_ep=EgoyMDI1MTEwNC4xIKXMDSoASAFQAw%3D%3D",search+selected_place,"86 – 88 Đường số 10, Phường 13, Quận 06, Thành phố Hồ Chí Minh."
76,Ministop -  Thạch Lam,"113 Đ. Thạch Lam, Phú Thạnh, Tân Phú, Thành phố Hồ Chí Minh, Vietnam",10.7780014,106.6248688,"https://www.google.com/maps/place/MINISTOP/@10.7780014,106.6248688,17z/data=!4m10!1m2!2m1!1sMinistop+-++Th%E1%BA%A1ch+Lam!3m6!1s0x31752fae15a8f369:0x47cdd9483520eeaf!8m2!3d10.7769422!4d106.6300744!15sChdNaW5pc3RvcCAtICBUaOG6oWNoIExhbSIDiAEBWhYiFG1pbmlzdG9wIHRo4bqhY2ggbGFtkgERY29udmVuaWVuY2Vfc3RvcmWqAWYKDS9nLzExYmJyaGowX2QKCS9tLzA2MXRxNRABKgwiCG1pbmlzdG9wKEIyIBABIhxzG4Fnh9qzPNezMuiDUbsyy50dQq0Sx79OcEIwMhgQAiIUbWluaXN0b3AgdGjhuqFjaCBsYW3gAQA!16s%2Fg%2F11tk27690x?entry=ttu&g_ep=EgoyMDI1MTEwNC4xIKXMDSoASAFQAw%3D%3D",search,"113 Thạch Lam, Phường Hiệp Tân, Quận Tân Phú, Thành phố Hồ Chí Minh."
77,Ministop -  Water Point,"120 Song Hành Xa Lộ Hà Nội, P, Thủ Đức, Thành phố Hồ Chí Minh, Vietnam",10.9184606,106.7122687,"https://www.google.com/maps/place/MINISTOP/@10.9184606,106.7122687,13z/data=!4m10!1m2!2m1!1sMinistop+-++Water+Point!3m6!1s0x3175275971ad014d:0x39d693bae6626097!8m2!3d10.8660597!4d106.8024359!15sChdNaW5pc3RvcCAtICBXYXRlciBQb2ludCIDiAEBWhYiFG1pbmlzdG9wIHdhdGVyIHBvaW50kgERY29udmVuaWVuY2Vfc3RvcmWqAXsKDS9nLzExYmJyaGowX2QKCS9tLzA2MXRxNQoIL20vMDgzOGYQASoYIhRtaW5pc3RvcCB3YXRlciBwb2ludCgAMh8QASIbpTJgGL28EhFz6imgLzT5jGpQ_oJEjr-8qmPfMhgQAiIUbWluaXN0b3Agd2F0ZXIgcG9pbnTgAQA!16s%2Fg%2F11h9rwsfv9?entry=ttu&g_ep=EgoyMDI1MTEwNC4xIKXMDSoASAFQAw%3D%3D",search,"Tầng trệt gian hàng số 02, Trạm xe buýt và khu thương mại dịch vụ thuộc Lô MC5 thuộc khu đô thị mới Vàm Cỏ Đông, Xã An Thạnh, Huyện Bến Lức, Tỉnh Long An."
78,Ministop -  Akari City,"PJ84+WXV, 77 Võ Văn Kiệt, An Lạc, Bình Tân, Thành phố Hồ Chí Minh, Vietnam",10.7174051,106.6048175,"https://www.google.com/maps/place/Aeon+Ministop+Akari+City+AK5/@10.7174051,106.6048175,17z/data=!3m1!4b1!4m6!3m5!1s0x31752d11b5c44b9f:0x7c85383277859d81!8m2!3d10.7173998!4d106.6073924!16s%2Fg%2F11t4cc6r10?entry=ttu&g_ep=EgoyMDI1MTEwNC4xIKXMDSoASAFQAw%3D%3D",search+selected_place,"AK5-00.01 Akari City, 77 Võ Văn Kiệt P.An Lạc, Q.Bình Tân, TP.HCM"
79,Ministop -  Đường số 6,"86 Đường số 10, P.13, Quận 6, Thành phố Hồ Chí Minh, Vietnam",10.7532768,106.6248323,"https://www.google.com/maps/place/Ministop/@10.7532768,106.6248323,17z/data=!3m1!4b1!4m6!3m5!1s0x31752d37bd48e7f5:0x8a79f93f7ef4be34!8m2!3d10.7532715!4d106.6274072!16s%2Fg%2F11s86f18rh?entry=ttu&g_ep=EgoyMDI1MTEwNC4xIKXMDSoASAFQAw%3D%3D",search+selected_place,"165 Đường số 6, Phường Bình Trị Đông B, Quận Bình Tân, TP. HCM"
80,Ministop -  Vũ Tùng 2,"135 - 137 Đ. Vũ Tùng, Phường 2, Bình Thạnh, Thành phố Hồ Chí Minh, Vietnam",10.8019755,106.6983945,"https://www.google.com/maps/place/Ministop+V%C5%A9+T%C3%B9ng/@10.8019755,106.6983945,17z/data=!4m10!1m2!2m1!1sMinistop+-++V%C5%A9+T%C3%B9ng+2!3m6!1s0x317528b8ff423c3b:0x38504e3ea5d3c730!8m2!3d10.8021706!4d106.7012237!15sChdNaW5pc3RvcCAtICBWxakgVMO5bmcgMiIDiAEBkgERY29udmVuaWVuY2Vfc3RvcmWqAV8KDS9nLzExYmJyaGowX2QKCS9tLzA2MXRxNRABKgUiATIoQjIgEAEiHKaFcBT5kmNxbJklwdiPTR1STUJIout8PYXzwQQyGBACIhRtaW5pc3RvcCB2xakgdMO5bmcgMuABAA!16s%2Fg%2F11vkz8pdn6?entry=ttu&g_ep=EgoyMDI1MTEwNC4xIKXMDSoASAFQAw%3D%3D",search,"135 - 137 Vũ Tùng, Phường 2, Quận Bình Thạnh, TPHCM"
81,Ministop -  Thống Nhất,"141 Thống Nhất, Tân Thành, Tân Phú, Thành phố Hồ Chí Minh, Vietnam",10.7907612,106.6311031,"https://www.google.com/maps/place/MINISTOP/@10.7907612,106.6311031,17z/data=!3m1!4b1!4m6!3m5!1s0x31752f92998d25af:0xf5b0d3d5c081e93a!8m2!3d10.7907559!4d106.633678!16s%2Fg%2F11s39m5s_v?entry=ttu&g_ep=EgoyMDI1MTEwNC4xIKXMDSoASAFQAw%3D%3D",search+selected_place,"141 Thống Nhất, Phường Tân Thành, Quận Tân Phú, TPHCM"
82,Ministop -  Lê Đức Thọ,"527 Đ. Lê Đức Thọ, Phường 16, Gò Vấp, Thành phố Hồ Chí Minh 70000, Vietnam",10.846327,106.6678692,"https://www.google.com/maps/place/MINISTOP+-+L%C3%AA+%C4%90%E1%BB%A9c+Th%E1%BB%8D/@10.846327,106.6678692,17z/data=!3m1!4b1!4m6!3m5!1s0x31752976c24363db:0xbec98fd9626dabe5!8m2!3d10.8463217!4d106.6704441!16s%2Fg%2F11syj81266?entry=ttu&g_ep=EgoyMDI1MTEwNC4xIKXMDSoASAFQAw%3D%3D",search+selected_place,527 Lê Đức Thọ P.16 Q.Gò Vấp
83,Ministop -  Tô Hiệu,"58k Đ. Tô Hiệu, Tân Thới Hoà, Tân Phú, Thành phố Hồ Chí Minh, Vietnam",10.769923,106.6242643,"https://www.google.com/maps/place/Ministop+T%C3%B4+Hi%E1%BB%87u/@10.769923,106.6242643,17z/data=!3m1!4b1!4m6!3m5!1s0x31752d0960436181:0x3d00848b49f7f57a!8m2!3d10.7699177!4d106.6268392!16s%2Fg%2F11rzs45rsb?entry=ttu&g_ep=EgoyMDI1MTEwNC4xIKXMDSoASAFQAw%3D%3D",search+selected_place,"57K Tô Hiệu, P.Hiệp Tân, Q.Tân Phú"
84,Ministop -  Võ Thành Trang,"120 Võ Thành Trang, Phường 11, Tân Bình, Thành phố Hồ Chí Minh, Vietnam",10.7913312,106.6473707,"https://www.google.com/maps/place/Ministop+Vo+Thanh+Trang/@10.7913312,106.6473707,17z/data=!3m1!4b1!4m6!3m5!1s0x31752fea95c9df95:0x67ec8c44e6bb4ce8!8m2!3d10.7913259!4d106.6499456!16s%2Fg%2F11t6lbcklc?entry=ttu&g_ep=EgoyMDI1MTEwNC4xIKXMDSoASAFQAw%3D%3D",search+selected_place,"120 - 122 Võ Thành Trang, Phường 11, Quận Tân Bình, Thành phố Hồ Chí Minh."
85,Ministop -  Tôn Thất Hiệp,"284 Đ. Tôn Thất Hiệp, Phường 8, Quận 11, Thành phố Hồ Chí Minh, Vietnam",10.7611862,106.649705,"https://www.google.com/maps/place/MINISTOP+T%C3%B4n+Th%E1%BA%A5t+Hi%E1%BB%87p/@10.7611862,106.649705,17z/data=!3m1!4b1!4m6!3m5!1s0x31752f791f966257:0x883f46f888ceff28!8m2!3d10.7611809!4d106.6522799!16s%2Fg%2F11t6y4n2vz?entry=ttu&g_ep=EgoyMDI1MTEwNC4xIKXMDSoASAFQAw%3D%3D",search+selected_place,"282 - 284 Tôn Thất Hiệp, Phường 8, Quận 11, Thành phố Hồ Chí Minh."
86,Ministop -  Sunwah Pearl,"QPQ9+F8G, Đường D8, Saigon Pearl, Bình Thạnh, Thành phố Hồ Chí Minh, Vietnam",10.7887042,106.7157633,"https://www.google.com/maps/place/MINISTOP/@10.7887042,106.7157633,17z/data=!3m1!4b1!4m6!3m5!1s0x317529bc0e30cb97:0x2ed053856213a833!8m2!3d10.7886989!4d106.7183382!16s%2Fg%2F11q26250s8?entry=ttu&g_ep=EgoyMDI1MTEwNC4xIKXMDSoASAFQAw%3D%3D",search+selected_place,"Căn hộ thương mại số S-16 gồm 01 Tầng Thuộc Dự Án Sunwah Pearl, số 90 Nguyễn Hữu Cảnh, phường 22, quận Bình Thạnh, TP. HCM"
87,Ministop -  Safira D,"179 Đ. Võ Chí Công, Bình Trưng Đông, Thủ Đức, Thành phố Hồ Chí Minh, Vietnam",10.9186722,106.5886555,"https://www.google.com/maps/place/Ministop+Safira/@10.9186722,106.5886555,11z/data=!4m10!1m2!2m1!1sMinistop+-++Safira+D!3m6!1s0x3175270047803f49:0x420d5f80cd7f5213!8m2!3d10.801393!4d106.7938978!15sChRNaW5pc3RvcCAtICBTYWZpcmEgRJIBEWNvbnZlbmllbmNlX3N0b3JlqgFBEAEqBSIBZCgMMh8QASIbdI3D9JXJpZUsjKutMI_d5ilRskndkafuzYBQMhUQAiIRbWluaXN0b3Agc2FmaXJhIGTgAQA!16s%2Fg%2F11w1jy8c8l?entry=ttu&g_ep=EgoyMDI1MTEwNC4xIKXMDSoASAFQAw%3D%3D",search,"Căn D2.01.04-TM tại tầng 01 và tầng 02 của tháp D2 thuộc Khu nhà ở cao tầng Công ty Saphire tại số 454 đường Võ Chí Công, Khu phố 2, phường Phú Hữu, Tp. Thủ Đức, TP.HCM."
88,Ministop -  HaDo Centrosa Garden,"200 Đ. 3 Tháng 2, Phường 12, Quận 10, Thành phố Hồ Chí Minh 740300, Vietnam",10.7745414,106.6062899,"https://www.google.com/maps/place/HaDo+Centrosa/@10.7745414,106.6062899,13z/data=!4m10!1m2!2m1!1sMinistop+-++HaDo+Centrosa+Garden!3m6!1s0x31752f98490b472b:0xa12977e8d577e299!8m2!3d10.7745414!4d106.6783877!15sCiBNaW5pc3RvcCAtICBIYURvIENlbnRyb3NhIEdhcmRlbiIDiAEBWh8iHW1pbmlzdG9wIGhhZG8gY2VudHJvc2EgZ2FyZGVukgERYXBhcnRtZW50X2NvbXBsZXiaASNDaFpEU1VoTk1HOW5TMFZKUTBGblNVTnVMVzl4WjA1bkVBRaoBfQoNL2cvMTFiYnJoajBfZAoNL2cvMTFrcnF5ZHcxcQoJL20vMDYxdHE1EAEqDCIIbWluaXN0b3AoADIfEAEiG20MeYQG8hLoLDJv9Wg-D1deiJPiAM4NVGzyNjIhEAIiHW1pbmlzdG9wIGhhZG8gY2VudHJvc2EgZ2FyZGVu4AEA-gEECAwQFw!16s%2Fg%2F11krqydw1q?entry=ttu&g_ep=EgoyMDI1MTEwNC4xIKXMDSoASAFQAw%3D%3D",search,"I-1.TM.05, Khu vực thương mại khối Iris(I), Khu Phức Hợp HaDo Centrosa, số 200, đường 3/2, Phường 12, Quận 10, TP. HCM."
89,Ministop -  Sài Gòn South,"Phước Kiển, Nhà Bè, Ho Chi Minh City, Vietnam",10.7204259,106.7016547,"https://www.google.com/maps/place/MINISTOP+SAIGON+SOUTH/@10.7204259,106.7016547,17z/data=!3m1!4b1!4m6!3m5!1s0x31752f812b64f4cf:0x62e617975563ed87!8m2!3d10.7204206!4d106.7042296!16s%2Fg%2F11n103g8qb?entry=ttu&g_ep=EgoyMDI1MTEwNC4xIKXMDSoASAFQAw%3D%3D",search+selected_place,"Căn D0.02 Khu nhà ở xã Phước Kiển, huyện Nhà Bè – Khu nhà ở Nam Sài Gòn Residences, ấp 5, xã Phước Kiển, huyện Nhà Bè, TP.Hồ Chí Minh"
90,Ministop -  Saigon Royal,"Tháp A, Bến Vân Đồn, Phường 12, Quận 4, Thành phố Hồ Chí Minh, Vietnam",10.7669559,106.701395,"https://www.google.com/maps/place/Ministop+Saigon+Royal/@10.7669559,106.701395,17z/data=!3m1!4b1!4m6!3m5!1s0x31752f6a75f3d199:0x82676162b98eaf9b!8m2!3d10.7669506!4d106.7039699!16s%2Fg%2F11rb61366v?entry=ttu&g_ep=EgoyMDI1MTEwNC4xIKXMDSoASAFQAw%3D%3D",search+selected_place,"A.1.02 tại Tầng 01, tháp A thuộc Trung tâm Thương mại – Dịch vụ, Officetel và Căn hộ ở tại số 34 – 35 Bến Vân Đồn, Phường 13, Quận 4, TPHCM"
91,Ministop -  The CBD,"123/7 Đ. Đồng Văn Cống, Phường Thạnh Mỹ Lợi, Quận 2, Thành phố Hồ Chí Minh, Vietnam",10.8187197,106.631375,"https://www.google.com/maps/place/Ministop+CBD+%C4%90%E1%BB%93ng+V%C4%83n+C%E1%BB%91ng/@10.8187197,106.631375,12z/data=!4m10!1m2!2m1!1sMinistop+-++The+CBD!3m6!1s0x317525a968055a4f:0x8475e87e6bdabc67!8m2!3d10.7745241!4d106.7621116!15sChNNaW5pc3RvcCAtICBUaGUgQ0JEIgOIAQFaEiIQbWluaXN0b3AgdGhlIGNiZJIBEWNvbnZlbmllbmNlX3N0b3JlqgFTCg0vZy8xMWJicmhqMF9kCgkvbS8wNjF0cTUQATIfEAEiGyjjm6rAZ-g58ApumSjrqALA_jeSZxvNDSQ-0jIUEAIiEG1pbmlzdG9wIHRoZSBjYmTgAQA!16s%2Fg%2F11j99c6pk9?entry=ttu&g_ep=EgoyMDI1MTEwNC4xIKXMDSoASAFQAw%3D%3D",search,"A1-1-5, Tầng số 1 Tháp A Tòa Nhà The CBD tại số 125 Đường Đồng Văn Cống, Phường Thạnh Mỹ Lợi, Tp. Thủ Đức, TP.HCM."
92,Ministop -  Trần Hưng Đạo,"949 Trần Hưng Đạo, Phường 1, Quận 5, Thành phố Hồ Chí Minh 700000, Vietnam",10.7540758,106.6746323,"https://www.google.com/maps/place/MINISTOP/@10.7540758,106.6746323,17z/data=!3m1!4b1!4m6!3m5!1s0x31752f026ee37c6d:0x90cec6d253b5e012!8m2!3d10.7540705!4d106.6772072!16s%2Fg%2F11ljc_fcl8?entry=ttu&g_ep=EgoyMDI1MTEwNC4xIKXMDSoASAFQAw%3D%3D",search+selected_place,"945 - 947 Trần Hưng Đạo, Phường 01, Quận 5, TP. HCM"
93,Ministop -  Điện Biên Phủ,"475A Điện Biên Phủ, Phường 25, Bình Thạnh, Thành phố Hồ Chí Minh, Vietnam",10.7864585,106.6750093,"https://www.google.com/maps/place/MINISTOP+HUTECH/@10.7864585,106.6750093,14z/data=!4m10!1m2!2m1!1zTWluaXN0b3AgLSAgxJBp4buHbiBCacOqbiBQaOG7pw!3m6!1s0x317528a450d7cb9f:0xf65d8cc95cd2683f!8m2!3d10.8025372!4d106.7146403!15sCh9NaW5pc3RvcCAtICDEkGnhu4duIEJpw6puIFBo4bunIgOIAQFaHiIcbWluaXN0b3AgxJFp4buHbiBiacOqbiBwaOG7p5IBEWNvbnZlbmllbmNlX3N0b3JlqgFtCg0vZy8xMWJicmhqMF9kCgkvbS8wNjF0cTUQASoMIghtaW5pc3RvcChCMh8QASIbqBPfOFeVXF6Ee9uXGLmCwXrI6sDiaXYxgrg0MiAQAiIcbWluaXN0b3AgxJFp4buHbiBiacOqbiBwaOG7p-ABAA!16s%2Fg%2F11c4nwfd12?entry=ttu&g_ep=EgoyMDI1MTEwNC4xIKXMDSoASAFQAw%3D%3D",search,"563 Điện Biên Phủ, Phường 1, Quận 3, TP.HCM."
94,Ministop -  Bùi Đình Túy 2,"247 C Bùi Đình Tuý, Phường 14, Bình Thạnh, Thành phố Hồ Chí Minh, Vietnam",10.8075409,106.6971549,"https://www.google.com/maps/place/Ministop/@10.8075409,106.6971549,17z/data=!4m10!1m2!2m1!1zTWluaXN0b3AgLSAgQsO5aSDEkMOsbmggVMO6eSAy!3m6!1s0x317528bf0dc25777:0x265855396e6251a5!8m2!3d10.8075409!4d106.701661!15sCh5NaW5pc3RvcCAtICBCw7lpIMSQw6xuaCBUw7p5IDIiA4gBAVodIhttaW5pc3RvcCBiw7lpIMSRw6xuaCB0w7p5IDKSARFjb252ZW5pZW5jZV9zdG9yZaoBbAoNL2cvMTFiYnJoajBfZAoJL20vMDYxdHE1EAEqDCIIbWluaXN0b3AoQjIfEAEiG21iZQLQ4FAhDUHolFJsS8p40L3VXEgk_X5qnDIfEAIiG21pbmlzdG9wIGLDuWkgxJHDrG5oIHTDunkgMuABAA!16s%2Fg%2F11fyls00d5?entry=ttu&g_ep=EgoyMDI1MTEwNC4xIKXMDSoASAFQAw%3D%3D",search,"114 Bùi Đình Túy, Phường 12, Quận Bình Thạnh, Tp.HCM"
95,Ministop -  Đại học Ngân Hàng,"58 Đ. Hoàng Diệu 2, Linh Chiểu, Thủ Đức, Thành phố Hồ Chí Minh, Vietnam",10.9184606,106.7122687,"https://www.google.com/maps/place/MINI+STOP/@10.9184606,106.7122687,13z/data=!4m10!1m2!2m1!1zTWluaXN0b3AgLSAgxJDhuqFpIGjhu41jIE5nw6JuIEjDoG5n!3m6!1s0x317527a3aab4bbb7:0x6c6be78465fa5bad!8m2!3d10.8578065!4d106.7633672!15sCiRNaW5pc3RvcCAtICDEkOG6oWkgaOG7jWMgTmfDom4gSMOgbmciA4gBAVojIiFtaW5pc3RvcCDEkeG6oWkgaOG7jWMgbmfDom4gaMOgbmeSARFjb252ZW5pZW5jZV9zdG9yZZoBRENpOURRVWxSUVVOdlpFTm9kSGxqUmpsdlQyeFNWV014YkZoT1JUVk9VMWhWZUZGVk5YRlpNbFpQVDBVMU1WVXlZeEFCqgGCAQoNL2cvMTFiYnJoajBfZAoJL20vMDYxdHE1EAEqHCIYxJHhuqFpIGjhu41jIG5nw6JuIGjDoG5nKEIyHxABIhty49G3yj4Rs_X4EnJ6598_-8Ao954RRHfuXVcyJRACIiFtaW5pc3RvcCDEkeG6oWkgaOG7jWMgbmfDom4gaMOgbmfgAQD6AQQIABA5!16s%2Fg%2F11j48glwqk?entry=ttu&g_ep=EgoyMDI1MTEwNC4xIKXMDSoASAFQAw%3D%3D",search,"56 Hoàng Diệu 2, Phường Linh Chiểu, Tp. Thủ Đức, Tp.HCM"
96,Ministop -  Nguyễn Trãi,"927 Nguyễn Trãi, Phường 14, Quận 5, Thành phố Hồ Chí Minh, Vietnam",10.7527929,106.6527634,"https://www.google.com/maps/place/MINISTOP/@10.7527929,106.6527634,17z/data=!3m1!4b1!4m6!3m5!1s0x31752faee0d81739:0x2c8c6fd591cf5121!8m2!3d10.7527876!4d106.6553383!16s%2Fg%2F11fnw0sqgz?entry=ttu&g_ep=EgoyMDI1MTEwNC4xIKXMDSoASAFQAw%3D%3D",search+selected_place,"927 Nguyễn Trãi, Phường 14, Quận 5, Tp.HCM"
97,Ministop -  Palm Residence,"SH7C, 12A đường A5, KDC Palm Residence, Khu Phố 3, Thủ Đức, Thành phố Hồ Chí Minh, Vietnam",10.7921585,106.7586584,"https://www.google.com/maps/place/Ministop+Palm+Residence/@10.7921585,106.7586584,17z/data=!3m1!4b1!4m6!3m5!1s0x31752732ab42095b:0x2a6d15e6c1322530!8m2!3d10.7921532!4d106.7612333!16s%2Fg%2F11h58cynm1?entry=ttu&g_ep=EgoyMDI1MTEwNC4xIKXMDSoASAFQAw%3D%3D",search+selected_place,"SH-7C, 12A Đường A5 Khu dân cư Palm Residence, Khu phố 3, Phường An Phú, Tp. Thủ Đức, Tp.HCM"
98,Ministop -  Homyland Riverside,"360 Nguyễn Duy Trinh, Phường Bình Trưng Tây, Quận 2, Thành phố Hồ Chí Minh, Vietnam",10.7894148,106.7660814,"https://www.google.com/maps/place/Ministop+Homyland+Riverside/@10.7894148,106.7660814,17z/data=!3m1!4b1!4m6!3m5!1s0x317527abe6891fff:0x43b240654865d4ed!8m2!3d10.7894095!4d106.7686563!16s%2Fg%2F11fr0cjpj4?entry=ttu&g_ep=EgoyMDI1MTEwNC4xIKXMDSoASAFQAw%3D%3D",search+selected_place,"Lô thương mại SH1 thuộc chung cư cao cấp Homyland Riverside, 14 Đường số 1-THM, Phường Bình Trưng Đông, Thành phố Thủ Đức, Thành phố Hồ Chí Minh."
99,Ministop -  Cityland,"P5-00.13 Cityland Park Hills, 18 Đ. Phan Văn Trị, Phường 10, Gò Vấp, Thành phố Hồ Chí Minh, Vietnam",10.8362164,106.664595,"https://www.google.com/maps/place/Ministop/@10.8362164,106.664595,17z/data=!4m10!1m2!2m1!1sMinistop+-++Cityland!3m6!1s0x3175292161caf477:0x479077db8b93dede!8m2!3d10.836833!4d106.6675504!15sChRNaW5pc3RvcCAtICBDaXR5bGFuZCIDiAEBkgERY29udmVuaWVuY2Vfc3RvcmXgAQA!16s%2Fg%2F11ftwg106f?entry=ttu&g_ep=EgoyMDI1MTEwNC4xIKXMDSoASAFQAw%3D%3D",search,"Park Hills P5-00.10, Tầng 1, Tòa nhà chung cư CH1, số 18 Phan Văn Trị, Phường 10, Quận Gò Vấp, Thành phố Hồ Chí Minh."
100,Ministop -  Mai Thị Lựu,"21 Mai Thị Lựu, Đa Kao, Quận 1, Thành phố Hồ Chí Minh, Vietnam",10.790673,106.697038,"https://www.google.com/maps/place/MiniStop/@10.790673,106.697038,17z/data=!3m1!4b1!4m6!3m5!1s0x317529f326c87e9b:0x211096385b921809!8m2!3d10.7906677!4d106.6996129!16s%2Fg%2F11h_610dt_?entry=ttu&g_ep=EgoyMDI1MTEwNC4xIKXMDSoASAFQAw%3D%3D",search+selected_place,"21 Mai Thị Lựu, Phường Đa Kao, Quận 1, TP.HCM"
101,Ministop -  Ni Sư Huỳnh Liên,"71 Ni Sư Huỳnh Liên, Phường 10, Tân Bình, Thành phố Hồ Chí Minh, Vietnam",10.7835025,106.646193,"https://www.google.com/maps/place/MINISTOP/@10.7835025,106.646193,17z/data=!3m1!4b1!4m6!3m5!1s0x31752fcb666b12af:0xba70b8e0c20999fa!8m2!3d10.7834972!4d106.6487679!16s%2Fg%2F11fr3fyzd4?entry=ttu&g_ep=EgoyMDI1MTEwNC4xIKXMDSoASAFQAw%3D%3D",search+selected_place,"73 Ni Sư Huỳnh Liên, Phường 10, Quận Tân Bình, TP.HCM"
102,Ministop -  Masteri An Phú,"215 Điện Biên Phủ, Phường 2, Bình Thạnh, Thành phố Hồ Chí Minh, Vietnam",10.8004298,106.6347005,"https://www.google.com/maps/place/Ministop+Vietnam+company+limited/@10.8004298,106.6347005,13z/data=!4m10!1m2!2m1!1sMinistop+-++Masteri+An+Ph%C3%BA!3m6!1s0x31752f373ef3a5b1:0x569a2a75929fd426!8m2!3d10.8004298!4d106.7067983!15sChtNaW5pc3RvcCAtICBNYXN0ZXJpIEFuIFBow7oiA4gBAZIBEWNvbnZlbmllbmNlX3N0b3JlqgFpCg0vZy8xMWJicmhqMF9kCgkvbS8wNjF0cTUQASoMIghtaW5pc3RvcCgAMh8QASIbbcKHI4Y1mk5uU0zhSArbbFtaSco6hR9xb5LwMhwQAiIYbWluaXN0b3AgbWFzdGVyaSBhbiBwaMO64AEA!16s%2Fg%2F11f2b70817?entry=ttu&g_ep=EgoyMDI1MTEwNC4xIKXMDSoASAFQAw%3D%3D",search,"TMDV30, Dự án Masteri An Phú, 179 Võ Nguyên Giáp, Phường Thảo Điền, Thành phố Thủ Đức, Thành phố Hồ Chí Minh."
103,Ministop -  The Sun Avenue,"The Sun avenue, 28 Mai Chí Thọ, An Phú, Thủ Đức, Thành phố Hồ Chí Minh, Vietnam",10.7851502,106.7459013,"https://www.google.com/maps/place/Ministop+Sun+Avenue/@10.7851502,106.7459013,17z/data=!3m1!4b1!4m6!3m5!1s0x3175256209df66f1:0x41fbe7f663720c6e!8m2!3d10.7851449!4d106.7484762!16s%2Fg%2F11fr0cn4dx?entry=ttu&g_ep=EgoyMDI1MTEwNC4xIKXMDSoASAFQAw%3D%3D",search+selected_place,"SAV.5-00.06 The Sun Avenue, 28 Mai Chí Thọ, Phường An Phú, TP. Thủ Đức, TP. HCM"
104,Ministop -  Hồ Văn Huê,"113 Đ. Thích Quảng Đức, Phường 4, Phú Nhuận, Thành phố Hồ Chí Minh, Vietnam",10.8056129,106.6457091,"https://www.google.com/maps/place/Ministop/@10.8056129,106.6457091,14z/data=!4m10!1m2!2m1!1zTWluaXN0b3AgLSAgSOG7kyBWxINuIEh1w6o!3m6!1s0x317528d95bcf658d:0x1827e2d1cb9e6cc4!8m2!3d10.8056129!4d106.681758!15sChpNaW5pc3RvcCAtICBI4buTIFbEg24gSHXDqiIDiAEBkgERY29udmVuaWVuY2Vfc3RvcmWqAWkKDS9nLzExYmJyaGowX2QKCS9tLzA2MXRxNRABKgwiCG1pbmlzdG9wKEIyIBABIhykx9CHyF2NjU8yx5g4GzBctrjSGVDWUcPMsbfJMhsQAiIXbWluaXN0b3AgaOG7kyB2xINuIGh1w6rgAQA!16s%2Fg%2F11h9zgpv4_?entry=ttu&g_ep=EgoyMDI1MTEwNC4xIKXMDSoASAFQAw%3D%3D",search,"43F Hồ Văn Huê, Phường 9, Quận Phú Nhuận"
105,Ministop -  Đảo Kim Cương,"Đảo Kim Cương, Quận 2, Thủ Đức, Thành phố Hồ Chí Minh, Vietnam",10.7796074,106.7443691,"https://www.google.com/maps/place/MINISTOP/@10.7796074,106.7443691,17z/data=!3m1!4b1!4m6!3m5!1s0x31752511b4cfc54d:0x2593883397efdd9a!8m2!3d10.7796021!4d106.746944!16s%2Fg%2F11h0yg8xq0?entry=ttu&g_ep=EgoyMDI1MTEwNC4xIKXMDSoASAFQAw%3D%3D",search+selected_place,"Căn B2.2G, Tầng B2, Tháp Hawaii, Đảo Kim Cương, Số 1 Đường 104 - BTT, KP. 3, P. Bình Trưng Tây, TP. Thủ Đức, TP. HCM"
106,Ministop -  Vinhomes Golden River (Bason),"2 Tôn Đức Thắng, Bến Nghé, Quận 1, Thành phố Hồ Chí Minh, Vietnam",10.7799858,106.6972438,"https://www.google.com/maps/place/MINISTOP+-+Vinhomes+Golden+River/@10.7799858,106.6972438,15z/data=!4m10!1m2!2m1!1sMinistop+-++Vinhomes+Golden+River+(Bason)!3m6!1s0x31752f8b320ad723:0xffcfda53d640e5af!8m2!3d10.7867421!4d106.710601!15sCilNaW5pc3RvcCAtICBWaW5ob21lcyBHb2xkZW4gUml2ZXIgKEJhc29uKSIDiAEBWiYiJG1pbmlzdG9wIHZpbmhvbWVzIGdvbGRlbiByaXZlciBiYXNvbpIBEWNvbnZlbmllbmNlX3N0b3JlqgFyCg0vZy8xMWJicmhqMF9kCgkvbS8wNjF0cTUQASoJIgViYXNvbigAMh8QASIbd6AbMvH8mkiPBuwvSLkl9i-m99lMY9SJH28XMigQAiIkbWluaXN0b3AgdmluaG9tZXMgZ29sZGVuIHJpdmVyIGJhc29u4AEA!16s%2Fg%2F11h0mj3mzd?entry=ttu&g_ep=EgoyMDI1MTEwNC4xIKXMDSoASAFQAw%3D%3D",search,"Căn A2SH09 tầng trệt và tầng 01 tòa A2 Vinhomes Golden River, 02 Tôn Đức Thắng, Phường Bến Nghé, Quận 1"
107,Ministop -  Đường 3/2,"200 Đ. 3 Tháng 2, Phường 12, Quận 10, Thành phố Hồ Chí Minh, Vietnam",10.7715608,106.658991,"https://www.google.com/maps/place/Mini+stop/@10.7715608,106.658991,15z/data=!4m10!1m2!2m1!1zTWluaXN0b3AgLSAgxJDGsOG7nW5nIDMvMg!3m6!1s0x31752fcdeccf645b:0xf1937807031f5fdf!8m2!3d10.7753088!4d106.6779535!15sChlNaW5pc3RvcCAtICDEkMaw4budbmcgMy8yIgOIAQGSARFjb252ZW5pZW5jZV9zdG9yZaoBZwoNL2cvMTFiYnJoajBfZAoJL20vMDYxdHE1EAEqDCIIbWluaXN0b3AoADIfEAEiG6gQVn9gZnAfHTsKdicM9BA8IFsmEnzNP4y9zDIaEAIiFm1pbmlzdG9wIMSRxrDhu51uZyAzIDLgAQA!16s%2Fg%2F11nnsbhg2s?entry=ttu&g_ep=EgoyMDI1MTEwNC4xIKXMDSoASAFQAw%3D%3D",search,"666/64 Đường 3/2, Phường 14, Quận 10"
108,Ministop -  Phùng Văn Cung,"94d Đ. Phùng Văn Cung, Phường 7, Phú Nhuận, Thành phố Hồ Chí Minh, Vietnam",10.8020447,106.6820863,"https://www.google.com/maps/place/MINISTOP-S123/@10.8020447,106.6820863,17z/data=!3m1!4b1!4m6!3m5!1s0x3175299e7efd92ad:0x88d612b73553d988!8m2!3d10.8020394!4d106.6846612!16s%2Fg%2F11kd9mtbvl?entry=ttu&g_ep=EgoyMDI1MTEwNC4xIKXMDSoASAFQAw%3D%3D",search+selected_place,"94D2 Phùng Văn Cung, Phường 7, Quận Phú Nhuận"
109,Ministop -  Lê Thánh Tôn,"11 Lê Thánh Tôn, Bến Nghé, Quận 1, Thành phố Hồ Chí Minh, Vietnam",10.781533,106.7030973,"https://www.google.com/maps/place/Ministop+L%C3%AA+Th%C3%A1nh+T%C3%B4n/@10.781533,106.7030973,17z/data=!3m1!4b1!4m6!3m5!1s0x31752f18c38f26ef:0x450658968a441c1!8m2!3d10.7815277!4d106.7056722!16s%2Fg%2F11gy572bdc?entry=ttu&g_ep=EgoyMDI1MTEwNC4xIKXMDSoASAFQAw%3D%3D",search+selected_place,"11 Lê Thánh Tôn, Phường Bến Nghé, Quận 1"
110,Ministop -  Hoàng Văn Thụ,"521 Hoàng Văn Thụ, Phường 4, Tân Bình, Thành phố Hồ Chí Minh, Vietnam",10.7959377,106.653933,"https://www.google.com/maps/place/MINISTOP/@10.7959377,106.653933,17z/data=!3m1!4b1!4m6!3m5!1s0x317529e6211c83ff:0x62e20f4c6646bab7!8m2!3d10.7959324!4d106.6565079!16s%2Fg%2F11fkl8wrnn?entry=ttu&g_ep=EgoyMDI1MTEwNC4xIKXMDSoASAFQAw%3D%3D",search+selected_place,"519 - 521 Hoàng Văn Thụ, Phường 4, Quận Tân Bình, Thành phố Hồ Chí Minh."
111,Ministop -  Nguyễn Thái Bình 2,"Số 163 Nguyễn Thái Bình, Phường Nguyễn Thái Bình, Quận 1, Thành phố Hồ Chí Minh, Vietnam",10.7680391,106.6959633,"https://www.google.com/maps/place/Ministop+Nguy%E1%BB%85n+Th%C3%A1i+B%C3%ACnh/@10.7680391,106.6959633,17z/data=!3m1!4b1!4m6!3m5!1s0x31752f035ebdb86b:0xcef0a3993cc93af4!8m2!3d10.7680338!4d106.6985382!16s%2Fg%2F11f5k2bwhz?entry=ttu&g_ep=EgoyMDI1MTEwNC4xIKXMDSoASAFQAw%3D%3D",search+selected_place,"163 Nguyễn Thái Bình, Phường Nguyễn Thái Bình, Quận 1"
112,Ministop -  Phổ Quang 2,"104 Đ. Phổ Quang, Phường 2, Tân Bình, Thành phố Hồ Chí Minh, Vietnam",10.8074116,106.66574,"https://www.google.com/maps/place/MINISTOP/@10.8074116,106.66574,17z/data=!4m10!1m2!2m1!1sMinistop+-++Ph%E1%BB%95+Quang+2!3m6!1s0x31752941bac1867b:0xc0091c3348ee3902!8m2!3d10.8084579!4d106.6702581!15sChlNaW5pc3RvcCAtICBQaOG7lSBRdWFuZyAyIgOIAQGSARFjb252ZW5pZW5jZV9zdG9yZaoBZwoNL2cvMTFiYnJoajBfZAoJL20vMDYxdHE1EAEqDCIIbWluaXN0b3AoQjIfEAEiG6heJ6N5pkVTJvsvMdxOJc5a_gJSr-4JUUApWzIaEAIiFm1pbmlzdG9wIHBo4buVIHF1YW5nIDLgAQA!16s%2Fg%2F11sx50qnwg?entry=ttu&g_ep=EgoyMDI1MTEwNC4xIKXMDSoASAFQAw%3D%3D",search,"DH.7 thuộc Khu cao ốc văn phòng và Căn hộ chung cư số 5B đường Phổ Quang, Phường 2, Quận Tân Bình, Thành phố Hồ Chí Minh."
113,Ministop -  Nguyễn Văn Nguyễn,"216c Nguyễn Văn Nguyễn, Phường Tân Định, Quận 1, Thành phố Hồ Chí Minh, Vietnam",10.7917241,106.6852879,"https://www.google.com/maps/place/Ministop+Nguyen+Van+Nguyen/@10.7917241,106.6852879,17z/data=!3m1!4b1!4m6!3m5!1s0x317528d29cdf7119:0x4c9f27ff8825d038!8m2!3d10.7917188!4d106.6878628!16s%2Fg%2F11ggmgt8qj?entry=ttu&g_ep=EgoyMDI1MTEwNC4xIKXMDSoASAFQAw%3D%3D",search+selected_place,"216C Nguyễn Văn Nguyễn, Phường Tân Định, Quận 1"
114,Ministop -  Nguyễn Cảnh Chân,"TK17/1 Nguyễn Cảnh Chân, Cầu Kho, Quận 1, Thành phố Hồ Chí Minh, Vietnam",10.7581064,106.6859936,"https://www.google.com/maps/place/MINISTOP+Nguy%E1%BB%85n+C%E1%BA%A3nh+Ch%C3%A2n/@10.7581064,106.6859936,17z/data=!3m1!4b1!4m6!3m5!1s0x31752fa0d63f4303:0x6468aec8016a5d50!8m2!3d10.7581011!4d106.6885685!16s%2Fg%2F11gh4mb3t0?entry=ttu&g_ep=EgoyMDI1MTEwNC4xIKXMDSoASAFQAw%3D%3D",search+selected_place,"TK 17/1 Nguyễn Cảnh Chân, Phường Cầu Kho, Quận 1"
115,Ministop -  New City Thủ Thiêm,"17 Mai Chí Thọ, Phường An Khánh, Thủ Đức, Thành phố Hồ Chí Minh, Vietnam",10.7822228,106.7335189,"https://www.google.com/maps/place/Ministop+New+City/@10.7822228,106.7335189,17z/data=!3m1!4b1!4m6!3m5!1s0x317525e34fedf0ef:0xecee2d2cbabb516c!8m2!3d10.7822175!4d106.7360938!16s%2Fg%2F11gf5s4130?entry=ttu&g_ep=EgoyMDI1MTEwNC4xIKXMDSoASAFQAw%3D%3D",search+selected_place,"Gian hàng số BB-S01, Tầng trệt, KDC New City, Số 17 Mai Chí Thọ, KP.3, Phường An Khánh, TP. Thủ Đức, TP. HCM"
116,Ministop -  Trần Trọng Cung,"69 Trần Trọng Cung, Tân Thuận Đông, Quận 7, Thành phố Hồ Chí Minh, Vietnam",10.7437782,106.7293423,"https://www.google.com/maps/place/MINISTOP/@10.7437782,106.7293423,17z/data=!3m1!4b1!4m6!3m5!1s0x3175257883c17f19:0x8424a570432a7313!8m2!3d10.7437729!4d106.7319172!16s%2Fg%2F11f3n9_wvg?entry=ttu&g_ep=EgoyMDI1MTEwNC4xIKXMDSoASAFQAw%3D%3D",search+selected_place,"69 Trần Trọng Cung, Phường Tân Thuận Đông, Quận 7"
117,Ministop -  Suối Tiên,"120 Song Hành Xa Lộ Hà Nội, P, Thủ Đức, Thành phố Hồ Chí Minh, Vietnam",10.866065,106.799861,"https://www.google.com/maps/place/MINISTOP/@10.866065,106.799861,17z/data=!3m1!4b1!4m6!3m5!1s0x3175275971ad014d:0x39d693bae6626097!8m2!3d10.8660597!4d106.8024359!16s%2Fg%2F11h9rwsfv9?entry=ttu&g_ep=EgoyMDI1MTEwNC4xIKXMDSoASAFQAw%3D%3D",search+selected_place,"120 Xa Lộ Hà Nội, Phường Tân Phú, TP. Thủ Đức, TP. HCM"
118,Ministop -  Thành Thái 2,"136 Đ. Thành Thái, Phường 14, Quận 10, Thành phố Hồ Chí Minh, Vietnam",10.7749558,106.6598124,"https://www.google.com/maps/place/Ministop+CN+Th%C3%A0nh+Th%C3%A1i./@10.7749558,106.6598124,17z/data=!4m10!1m2!2m1!1sMinistop+-++Th%C3%A0nh+Th%C3%A1i+2!3m6!1s0x31752fdb6089e127:0x4aeec3df51b47bb2!8m2!3d10.7749558!4d106.6643185!15sChpNaW5pc3RvcCAtICBUaMOgbmggVGjDoWkgMiIDiAEBWhkiF21pbmlzdG9wIHRow6BuaCB0aMOhaSAykgERY29udmVuaWVuY2Vfc3RvcmWqAWgKDS9nLzExYmJyaGowX2QKCS9tLzA2MXRxNRABKgwiCG1pbmlzdG9wKEIyHxABIhukx9CHROjJlZAf-owIFxIpUbi7XtNpkwur_GwyGxACIhdtaW5pc3RvcCB0aMOgbmggdGjDoWkgMuABAA!16s%2Fg%2F11f5psjp1d?entry=ttu&g_ep=EgoyMDI1MTEwNC4xIKXMDSoASAFQAw%3D%3D",search,"7A/7 Thành Thái, Phường 14, Quận 10"
119,Ministop -  Hutech 2,"Vietnam, Thành phố Hồ Chí Minh, Thủ Đức, Hiệp Phú, Song Hành Xa Lộ Hà Nội",10.9186722,106.5886555,"https://www.google.com/maps/place/MINISTOP-HUTECH+KHU+E/@10.9186722,106.5886555,11z/data=!4m10!1m2!2m1!1sMinistop+-++Hutech+2!3m6!1s0x31752709bc5097b7:0x43d68e139b456316!8m2!3d10.8554246!4d106.785659!15sChRNaW5pc3RvcCAtICBIdXRlY2ggMiIDiAEBkgERY29udmVuaWVuY2Vfc3RvcmWqAWkKDS9nLzExYmJyaGowX2QKDC9nLzEyNHh2YmZtZwoJL20vMDYxdHE1EAEqBSIBMigAMh8QASIbMQ8j0Mf51G-KQ1AHOzDVHWFN4nqmMZfHgpBuMhUQAiIRbWluaXN0b3AgaHV0ZWNoIDLgAQA!16s%2Fg%2F11f5ms4_1z?entry=ttu&g_ep=EgoyMDI1MTEwNC4xIKXMDSoASAFQAw%3D%3D",search,"15A Phân khu E1, Khu Công Nghệ Cao, Xa Lộ Hà Nội, Phường Hiệp Phú, TP. Thủ Đức, TP. HCM"
120,Ministop -  Nguyễn Cửu Vân,"79 Nguyễn Cửu Vân, Phường 17, Bình Thạnh, Thành phố Hồ Chí Minh, Vietnam",10.795626,106.704723,"https://www.google.com/maps/place/MINISTOP/@10.795626,106.704723,17z/data=!3m1!4b1!4m6!3m5!1s0x317528b13efc091d:0x10632743d9c26a64!8m2!3d10.7956207!4d106.7072979!16s%2Fg%2F11f2rwc162?entry=ttu&g_ep=EgoyMDI1MTEwNC4xIKXMDSoASAFQAw%3D%3D",search+selected_place,"79 Nguyễn Cửu Vân, Phường 17, Quận Bình Thạnh"
121,Ministop -  Vạn Kiếp 2,"87 Đ. Vạn Kiếp, Phường 1, Bình Thạnh, Thành phố Hồ Chí Minh, Vietnam",10.8009331,106.6921551,"https://www.google.com/maps/place/MINISTOP/@10.8009331,106.6921551,18z/data=!4m10!1m2!2m1!1zTWluaXN0b3AgLSAgVuG6oW4gS2nhur9wIDI!3m6!1s0x317529fbd5603f75:0xcb7a3e635ec6f2ba!8m2!3d10.7992906!4d106.6936645!15sChpNaW5pc3RvcCAtICBW4bqhbiBLaeG6v3AgMiIDiAEBkgERY29udmVuaWVuY2Vfc3RvcmWqAWgKDS9nLzExYmJyaGowX2QKCS9tLzA2MXRxNRABKgwiCG1pbmlzdG9wKEIyHxABIhuoE5mAJjm9otFFEXaBJZ2qv8812tDSBk9FlpcyGxACIhdtaW5pc3RvcCB24bqhbiBraeG6v3AgMuABAA!16s%2Fg%2F11f5k4pxjc?entry=ttu&g_ep=EgoyMDI1MTEwNC4xIKXMDSoASAFQAw%3D%3D",search,"87 Vạn Kiếp, Phường 1, Quận Bình Thạnh, Thành phố Hồ Chí Minh."
122,Ministop -  Phú Thọ,"75 Phú Thọ, Phường 1, Quận 11, Thành phố Hồ Chí Minh, Vietnam",10.7584196,106.6389945,"https://www.google.com/maps/place/Ministop/@10.7584196,106.6389945,17z/data=!3m1!4b1!4m6!3m5!1s0x31752e8fed95449f:0x96e5798e137267a1!8m2!3d10.7584143!4d106.6415694!16s%2Fg%2F11f15hw5lw?entry=ttu&g_ep=EgoyMDI1MTEwNC4xIKXMDSoASAFQAw%3D%3D",search+selected_place,"75 Phú Thọ, Phường 1, Quận 11"
123,Ministop -  Đại Học Hồng Bàng,"215 Điện Biên Phủ, Phường 2, Bình Thạnh, Thành phố Hồ Chí Minh, Vietnam",10.7980602,106.6803634,"https://www.google.com/maps/place/Ministop+Vietnam+company+limited/@10.7980602,106.6803634,14z/data=!4m10!1m2!2m1!1zTWluaXN0b3AgLSAgxJDhuqFpIEjhu41jIEjhu5NuZyBCw6BuZw!3m6!1s0x31752f373ef3a5b1:0x569a2a75929fd426!8m2!3d10.8004298!4d106.7067983!15sCiVNaW5pc3RvcCAtICDEkOG6oWkgSOG7jWMgSOG7k25nIELDoG5nIgOIAQFaJCIibWluaXN0b3AgxJHhuqFpIGjhu41jIGjhu5NuZyBiw6BuZ5IBEWNvbnZlbmllbmNlX3N0b3JlmgEkQ2hkRFNVaE5NRzluUzBWSlEwRm5TVVExYVV4RE16aFJSUkFCqgGDAQoNL2cvMTFiYnJoajBfZAoNL2cvMTFiYzVxZ3o1bgoNL2cvMTFjczVmazQ5cQoJL20vMDYxdHE1EAEyHxABIhsrNlZioGboePcQirpdCZvvB0ETjnleHMx01r0yJhACIiJtaW5pc3RvcCDEkeG6oWkgaOG7jWMgaOG7k25nIGLDoG5n4AEA-gEECDAQKg!16s%2Fg%2F11f2b70817?entry=ttu&g_ep=EgoyMDI1MTEwNC4xIKXMDSoASAFQAw%3D%3D",search,"215 Điện Biên Phủ, Phường 2, Quận Bình Thạnh, Thành phố Hồ Chí Minh."
124,Ministop -  Bình Giã,"62 Bình Giã, Phường 13, Tân Bình, Thành phố Hồ Chí Minh, Vietnam",10.8005275,106.6421452,"https://www.google.com/maps/place/Ministop+-+B%C3%ACnh+Gi%C3%A3/@10.8005275,106.6421452,17z/data=!3m1!4b1!4m6!3m5!1s0x3175294f1d1bff07:0xf02e34a4e07349ca!8m2!3d10.8005222!4d106.6447201!16s%2Fg%2F11f5bxhsth?entry=ttu&g_ep=EgoyMDI1MTEwNC4xIKXMDSoASAFQAw%3D%3D",search+selected_place,"62 Bình Giã, Phường 13, Quận Tân Bình"
125,Ministop -  Cao Thắng 2,"262 Cao Thắng, Phường 12, Quận 10, Thành phố Hồ Chí Minh, Vietnam",10.7741532,106.6615376,"https://www.google.com/maps/place/MINISTOP/@10.7741532,106.6615376,15z/data=!4m10!1m2!2m1!1sMinistop+-++Cao+Th%E1%BA%AFng+2!3m6!1s0x31752f355073ae65:0xdbc436666ee9034f!8m2!3d10.7748906!4d106.6756687!15sChlNaW5pc3RvcCAtICBDYW8gVGjhuq9uZyAyIgOIAQFaGCIWbWluaXN0b3AgY2FvIHRo4bqvbmcgMpIBEWNvbnZlbmllbmNlX3N0b3JlmgEjQ2haRFNVaE5NRzluUzBWSlEwRm5TVVJsTmpabVFtVlJFQUWqAWcKDS9nLzExYmJyaGowX2QKCS9tLzA2MXRxNRABKgwiCG1pbmlzdG9wKEIyHxABIhtplH8pOF_U6yGLWVDITvnB4GZ4mtGwB21cy8kyGhACIhZtaW5pc3RvcCBjYW8gdGjhuq9uZyAy4AEA-gEECAAQDg!16s%2Fg%2F11gh7rygh2?entry=ttu&g_ep=EgoyMDI1MTEwNC4xIKXMDSoASAFQAw%3D%3D",search,"262 - 264 Cao Thắng, Phường 12, Quận 10"
126,Ministop -  Nguyễn Trọng Tuyển 2,"41 Nguyễn Trọng Tuyển, Phường 15, Phú Nhuận, Thành phố Hồ Chí Minh, Vietnam",10.7977299,106.6686008,"https://www.google.com/maps/place/MINISTOP/@10.7977299,106.6686008,16z/data=!4m10!1m2!2m1!1zTWluaXN0b3AgLSAgTmd1eeG7hW4gVHLhu41uZyBUdXnhu4NuIDI!3m6!1s0x317528d6ed138855:0x7830bf62c32124c2!8m2!3d10.7971661!4d106.6799951!15sCiZNaW5pc3RvcCAtICBOZ3V54buFbiBUcuG7jW5nIFR1eeG7g24gMiIDiAEBWiUiI21pbmlzdG9wIG5ndXnhu4VuIHRy4buNbmcgdHV54buDbiAykgERY29udmVuaWVuY2Vfc3RvcmWqAXQKDS9nLzExYmJyaGowX2QKCS9tLzA2MXRxNRABKgwiCG1pbmlzdG9wKEIyHxABIhulQ2TIJu9mX9at2kdOsai70KwvbJLE4gfQ7dkyJxACIiNtaW5pc3RvcCBuZ3V54buFbiB0cuG7jW5nIHR1eeG7g24gMuABAA!16s%2Fg%2F11f03ssw88?entry=ttu&g_ep=EgoyMDI1MTEwNC4xIKXMDSoASAFQAw%3D%3D",search,"41 Nguyễn Trọng Tuyển, Phường 15, Quận Phú Nhuận"
127,Ministop -  Thích Quảng Đức,"113 Đ. Thích Quảng Đức, Phường 4, Phú Nhuận, Thành phố Hồ Chí Minh, Vietnam",10.8056182,106.6791831,"https://www.google.com/maps/place/Ministop/@10.8056182,106.6791831,17z/data=!3m1!4b1!4m6!3m5!1s0x317528d95bcf658d:0x1827e2d1cb9e6cc4!8m2!3d10.8056129!4d106.681758!16s%2Fg%2F11h9zgpv4_?entry=ttu&g_ep=EgoyMDI1MTEwNC4xIKXMDSoASAFQAw%3D%3D",search+selected_place,"113-115 Thích Quảng Đức, Phường 4, Quận Phú Nhuận"
128,Ministop -  Ung Văn Khiêm,"31/53 Hẻm 31 Ung Văn Khiêm, Phường 25, Bình Thạnh, Thành phố Hồ Chí Minh, Vietnam",10.8099458,106.7123391,"https://www.google.com/maps/place/MINISTOP/@10.8099458,106.7123391,17z/data=!3m1!4b1!4m6!3m5!1s0x31752965c338adcb:0xf4a95584f7e67a9d!8m2!3d10.8099405!4d106.714914!16s%2Fg%2F11ghfpq22z?entry=ttu&g_ep=EgoyMDI1MTEwNC4xIKXMDSoASAFQAw%3D%3D",search+selected_place,"31/53 Ung Văn Khiêm, Phường 25, Quận Bình Thạnh"
129,Ministop -  Hoàng Diệu,"58 Đ. Hoàng Diệu 2, Linh Chiểu, Thủ Đức, Thành phố Hồ Chí Minh, Vietnam",10.8578065,106.4749761,"https://www.google.com/maps/place/MINI+STOP/@10.8578065,106.4749761,11z/data=!4m10!1m2!2m1!1zTWluaXN0b3AgLSAgSG_DoG5nIERp4buHdQ!3m6!1s0x317527a3aab4bbb7:0x6c6be78465fa5bad!8m2!3d10.8578065!4d106.7633672!15sChlNaW5pc3RvcCAtICBIb8OgbmcgRGnhu4d1IgOIAQFaGCIWbWluaXN0b3AgaG_DoG5nIGRp4buHdZIBEWNvbnZlbmllbmNlX3N0b3JlqgFnCg0vZy8xMWJicmhqMF9kCgkvbS8wNjF0cTUQASoMIghtaW5pc3RvcChCMh8QASIbpUDhv3USY3o15IyGKmn3dKxbktD3EVv9xxy8MhoQAiIWbWluaXN0b3AgaG_DoG5nIGRp4buHdeABAA!16s%2Fg%2F11j48glwqk?entry=ttu&g_ep=EgoyMDI1MTEwNC4xIKXMDSoASAFQAw%3D%3D",search,"192A Hoàng Diệu, Phường 9, Quận 4"
130,Ministop -  Bệnh Viện Nhi Đồng 1 Khu Ngoại Trú,"20-22 Đ. Dương Quang Trung, Phường Hòa Hưng, Quận 10, Thành phố Hồ Chí Minh 700000, Vietnam",10.774289,106.6315201,"https://www.google.com/maps/place/C%C3%B4ng+ty+c%E1%BB%95+ph%E1%BA%A7n+Y+Vi%C3%AA%CC%A3t+-+Ph%C3%B2ng+kh%C3%A1m+B%E1%BB%87nh+vi%E1%BB%87n+%C4%90%E1%BA%A1i+h%E1%BB%8Dc+Y+D%C6%B0%E1%BB%A3c+1/@10.774289,106.6315201,14z/data=!4m9!1m2!2m1!1zTWluaXN0b3AgLSAgQuG7h25oIFZp4buHbiBOaGkgxJDhu5NuZyAxIEtodSBOZ2_huqFpIFRyw7o!3m5!1s0x31752edc7e646871:0xd6a47e80f97cef4d!8m2!3d10.7742889!4d106.667569!16s%2Fg%2F11gfkmp_79?entry=ttu&g_ep=EgoyMDI1MTEwNC4xIKXMDSoASAFQAw%3D%3D",search,"341 Sư Vạn Hạnh, Phường 10, Quận 10"
131,Ministop -  Masteri Thảo Điền,"43-45 Thảo Điền, Quận 2, Thành phố Hồ Chí Minh, Vietnam",10.805575,106.7267938,"https://www.google.com/maps/place/ACE+Home+Center+-+Th%E1%BA%A3o+%C4%90i%E1%BB%81n/@10.805575,106.7267938,16z/data=!4m9!1m2!2m1!1zTWluaXN0b3AgLSAgTWFzdGVyaSBUaOG6o28gxJBp4buBbg!3m5!1s0x317527e7c671aea9:0x83ce7b23f8f47b4a!8m2!3d10.8055747!4d106.7358056!16s%2Fg%2F11l34rlfdz?entry=ttu&g_ep=EgoyMDI1MTEwNC4xIKXMDSoASAFQAw%3D%3D",search,"T5-B01.03+04, tại tầng 1 thuộc dự án Khu nhà ở chung cư cao cấp Masteri Thảo Điền, số 159 Võ Nguyên Giáp, Phường Thảo Điền, Thành phố Thủ Đức, Thành phố Hồ Chí Minh."
132,Ministop -  Bành Văn Trân,"108B Bành Văn Trân, Phường 7, Tân Bình, Thành phố Hồ Chí Minh, Vietnam",10.7885781,106.6539611,"https://www.google.com/maps/place/MINISTOP/@10.7885781,106.6539611,17z/data=!3m1!4b1!4m6!3m5!1s0x31752ecba5e127d5:0x80ef701978196e72!8m2!3d10.7885728!4d106.656536!16s%2Fg%2F11f0866pgn?entry=ttu&g_ep=EgoyMDI1MTEwNC4xIKXMDSoASAFQAw%3D%3D",search+selected_place,"108A Bành Văn Trân, Phường 7, Quận Tân Bình"
133,Ministop -  Nguyễn Lâm,"Số 46 Nguyễn Lâm, Phường 6, Quận 10, Thành phố Hồ Chí Minh, Vietnam",10.7636817,106.6608684,"https://www.google.com/maps/place/MINISTOP/@10.7636817,106.6608684,17z/data=!3m1!4b1!4m6!3m5!1s0x31752eef4c418ebb:0xaed6636c33062029!8m2!3d10.7636764!4d106.6634433!16s%2Fg%2F11f_p2x8f0?entry=ttu&g_ep=EgoyMDI1MTEwNC4xIKXMDSoASAFQAw%3D%3D",search+selected_place,"46 Nguyễn Lâm, Phường 6, Quận 10"
134,Ministop -  Thành Thái,"136 Đ. Thành Thái, Phường 14, Quận 10, Thành phố Hồ Chí Minh, Vietnam",10.7749558,106.6598124,"https://www.google.com/maps/place/Ministop+CN+Th%C3%A0nh+Th%C3%A1i./@10.7749558,106.6598124,17z/data=!4m10!1m2!2m1!1sMinistop+-++Th%C3%A0nh+Th%C3%A1i!3m6!1s0x31752fdb6089e127:0x4aeec3df51b47bb2!8m2!3d10.7749558!4d106.6643185!15sChhNaW5pc3RvcCAtICBUaMOgbmggVGjDoWkiA4gBAVoXIhVtaW5pc3RvcCB0aMOgbmggdGjDoWmSARFjb252ZW5pZW5jZV9zdG9yZaoBZgoNL2cvMTFiYnJoajBfZAoJL20vMDYxdHE1EAEqDCIIbWluaXN0b3AoQjIfEAEiG6TH0IdFIaZrxs0P1jZucwWMHSBcQiIPs91T0TIZEAIiFW1pbmlzdG9wIHRow6BuaCB0aMOhaeABAA!16s%2Fg%2F11f5psjp1d?entry=ttu&g_ep=EgoyMDI1MTEwNC4xIKXMDSoASAFQAw%3D%3D",search,"136 Thành Thái, Phường 12, Quận 10"
135,Ministop -  Lý Nam Đế,"117 Lý Nam Đế, Phường 7, Quận 11, Thành phố Hồ Chí Minh, Vietnam",10.760906,106.6569385,"https://www.google.com/maps/place/Ministop+L%C3%BD+Nam+%C4%90%E1%BA%BF/@10.760906,106.6569385,17z/data=!3m1!4b1!4m6!3m5!1s0x31752eee6509f737:0xdec9428921968aca!8m2!3d10.7609007!4d106.6595134!16s%2Fg%2F11f57whf9y?entry=ttu&g_ep=EgoyMDI1MTEwNC4xIKXMDSoASAFQAw%3D%3D",search+selected_place,"119 Lý Nam Đế, Phường 7, Quận 11, Thành phố Hồ Chí Minh"
136,Ministop -  Nguyễn Thiện Thuật 2,"138 Đ. Nguyễn Thiện Thuật, Phường 3, Quận 3, Thành phố Hồ Chí Minh, Vietnam",10.7681728,106.6753271,"https://www.google.com/maps/place/MINISTOP/@10.7681728,106.6753271,17z/data=!4m10!1m2!2m1!1zTWluaXN0b3AgLSAgTmd1eeG7hW4gVGhp4buHbiBUaHXhuq10IDI!3m6!1s0x31752f1f7b7d42cb:0x59a8f834ba1d94f7!8m2!3d10.7681728!4d106.6798332!15sCiZNaW5pc3RvcCAtICBOZ3V54buFbiBUaGnhu4duIFRodeG6rXQgMiIDiAEBWiUiI21pbmlzdG9wIG5ndXnhu4VuIHRoaeG7h24gdGh14bqtdCAykgERY29udmVuaWVuY2Vfc3RvcmWqAXQKDS9nLzExYmJyaGowX2QKCS9tLzA2MXRxNRABKgwiCG1pbmlzdG9wKEIyHxABIhuolq8DO0sqB3dkbfNl2tC6OnQA3bdFTuHiwG8yJxACIiNtaW5pc3RvcCBuZ3V54buFbiB0aGnhu4duIHRodeG6rXQgMuABAA!16s%2Fg%2F11fxd_vj4s?entry=ttu&g_ep=EgoyMDI1MTEwNC4xIKXMDSoASAFQAw%3D%3D",search,"138 Nguyễn Thiện Thuật, Phường 3, Quận 3"
137,Ministop -  Trần Nhân Tôn,"179 Trần Nhân Tôn, Phường 2, Quận 10, Thành phố Hồ Chí Minh, Vietnam",10.7631363,106.6719741,"https://www.google.com/maps/place/MINISTOP/@10.7631363,106.6719741,17z/data=!3m1!4b1!4m6!3m5!1s0x31752ee22132f107:0xc637321cb7646f4d!8m2!3d10.763131!4d106.674549!16s%2Fg%2F11gdggtmjm?entry=ttu&g_ep=EgoyMDI1MTEwNC4xIKXMDSoASAFQAw%3D%3D",search+selected_place,"177 - 179 Trần Nhân Tôn, Phường 2, Quận 10"
138,Ministop -  Bùi Đình Túy,"247 C Bùi Đình Tuý, Phường 14, Bình Thạnh, Thành phố Hồ Chí Minh, Vietnam",10.8075409,106.6971549,"https://www.google.com/maps/place/Ministop/@10.8075409,106.6971549,17z/data=!4m10!1m2!2m1!1zTWluaXN0b3AgLSAgQsO5aSDEkMOsbmggVMO6eQ!3m6!1s0x317528bf0dc25777:0x265855396e6251a5!8m2!3d10.8075409!4d106.701661!15sChxNaW5pc3RvcCAtICBCw7lpIMSQw6xuaCBUw7p5IgOIAQFaGyIZbWluaXN0b3AgYsO5aSDEkcOsbmggdMO6eZIBEWNvbnZlbmllbmNlX3N0b3JlqgFqCg0vZy8xMWJicmhqMF9kCgkvbS8wNjF0cTUQASoMIghtaW5pc3RvcChCMh8QASIbaZR_EV-mh2e-40Ggdmiio2mJobEPLce7BjyGMh0QAiIZbWluaXN0b3AgYsO5aSDEkcOsbmggdMO6eeABAA!16s%2Fg%2F11fyls00d5?entry=ttu&g_ep=EgoyMDI1MTEwNC4xIKXMDSoASAFQAw%3D%3D",search,"247C Bùi Đình Túy, Phường 14, Quận Bình Thạnh, Thành phố Hồ Chí Minh."
139,Ministop -  Đinh Bộ Lĩnh,"157 Đ. Đinh Bộ Lĩnh, Phường 26, Bình Thạnh, Thành phố Hồ Chí Minh, Vietnam",10.8093006,106.7065115,"https://www.google.com/maps/place/MINISTOP/@10.8093006,106.7065115,17z/data=!3m1!4b1!4m6!3m5!1s0x31752897cc352d4b:0xe60b318d7c4da837!8m2!3d10.8092953!4d106.7090864!16s%2Fg%2F11c60063kk?entry=ttu&g_ep=EgoyMDI1MTEwNC4xIKXMDSoASAFQAw%3D%3D",search+selected_place,"157 Đinh Bộ Lĩnh, Phường 26, Quận Bình Thạnh"
140,Ministop -  Vũ Tông Phan,"8 Vũ Tông Phan, An Phú, Thủ Đức, Thành phố Hồ Chí Minh, Vietnam",10.7978187,106.7402744,"https://www.google.com/maps/place/Ministop+Vu+Tong+Phan/@10.7978187,106.7402744,17z/data=!3m1!4b1!4m6!3m5!1s0x3175261275f934bd:0xf84c37ce15bb39d!8m2!3d10.7978134!4d106.7428493!16s%2Fg%2F11csr6xmsg?entry=ttu&g_ep=EgoyMDI1MTEwNC4xIKXMDSoASAFQAw%3D%3D",search+selected_place,"8 Vũ Tông Phan, Phường An Phú, TP. Thủ Đức, TP. HCM"
141,Ministop -  Bình Thới,"120 Đ. Bình Thới, Phường 14, Quận 11, Thành phố Hồ Chí Minh, Vietnam",10.7676037,106.6471226,"https://www.google.com/maps/place/MINISTOP/@10.7676037,106.6471226,17z/data=!3m1!4b1!4m6!3m5!1s0x31752e95aa6ffffd:0x726dda7e0fb9ee13!8m2!3d10.7675984!4d106.6496975!16s%2Fg%2F11c6lbp7p_?entry=ttu&g_ep=EgoyMDI1MTEwNC4xIKXMDSoASAFQAw%3D%3D",search+selected_place,"120 Bình Thới, Phường 14, Quận 11"
142,Ministop -  Hoàng Hoa Thám 2,"10A Hoàng Hoa Thám, Phường 7, Bình Thạnh, Thành phố Hồ Chí Minh, Vietnam",10.8010608,106.6489079,"https://www.google.com/maps/place/MINISTOP/@10.8010608,106.6489079,14z/data=!4m10!1m2!2m1!1sMinistop+-++Ho%C3%A0ng+Hoa+Th%C3%A1m+2!3m6!1s0x317528c467f81b55:0xa0c0e32a7fb95e48!8m2!3d10.8047072!4d106.6918625!15sCh5NaW5pc3RvcCAtICBIb8OgbmcgSG9hIFRow6FtIDIiA4gBAZIBEWNvbnZlbmllbmNlX3N0b3JlqgFsCg0vZy8xMWJicmhqMF9kCgkvbS8wNjF0cTUQASoMIghtaW5pc3RvcChCMh8QASIbqBPl3fW4U0xdPB8Koobu7dshLZGB3Bef6rsRMh8QAiIbbWluaXN0b3AgaG_DoG5nIGhvYSB0aMOhbSAy4AEA!16s%2Fg%2F11btrs3q_0?entry=ttu&g_ep=EgoyMDI1MTEwNC4xIKXMDSoASAFQAw%3D%3D",search,"18 Hoàng Hoa Thám, Phường 12, Quận Tân Bình"
143,Ministop -  Trần Quý Cáp,"43 Đ. Trần Quý Cáp, Phường 11, Bình Thạnh, Thành phố Hồ Chí Minh, Vietnam",10.8155825,106.6927779,"https://www.google.com/maps/place/Ministop/@10.8155825,106.6927779,17z/data=!3m1!4b1!4m6!3m5!1s0x317528ebeb79e5b3:0x6db724724cf5df80!8m2!3d10.8155772!4d106.6953528!16s%2Fg%2F11g027y9_z?entry=ttu&g_ep=EgoyMDI1MTEwNC4xIKXMDSoASAFQAw%3D%3D",search+selected_place,"43 Trần Quý Cáp, Phường 12, Quận Bình Thạnh"
144,Ministop -  Sư Vạn Hạnh,"435 Sư Vạn Hạnh, Phường 12, Quận 10, Thành phố Hồ Chí Minh, Vietnam",10.7727332,106.66445,"https://www.google.com/maps/place/MINISTOP/@10.7727332,106.66445,17z/data=!4m10!1m2!2m1!1zTWluaXN0b3AgLSAgU8awIFbhuqFuIEjhuqFuaA!3m6!1s0x31752edc38f507a9:0x37fcd8802da0542a!8m2!3d10.7727332!4d106.6689561!15sChxNaW5pc3RvcCAtICBTxrAgVuG6oW4gSOG6oW5oIgOIAQFaGyIZbWluaXN0b3Agc8awIHbhuqFuIGjhuqFuaJIBEWNvbnZlbmllbmNlX3N0b3JlqgFqCg0vZy8xMWJicmhqMF9kCgkvbS8wNjF0cTUQASoMIghtaW5pc3RvcChCMh8QASIbqBPfK21TQGys4RS2cbkQqZacQKiXUv8cbVuWMh0QAiIZbWluaXN0b3Agc8awIHbhuqFuIGjhuqFuaOABAA!16s%2Fg%2F11c2k_sz7b?entry=ttu&g_ep=EgoyMDI1MTEwNC4xIKXMDSoASAFQAw%3D%3D",search,"435 Sư Vạn Hạnh, Phường 12, Quận 10"
145,Ministop -  Trần Quốc Toản,"47 Trần Quốc Toản, Phường Võ Thị Sáu, Quận 3, Thành phố Hồ Chí Minh, Vietnam",10.7880953,106.6862241,"https://www.google.com/maps/place/MINISTOP/@10.7880953,106.6862241,17z/data=!3m1!4b1!4m6!3m5!1s0x31752f3299feb5b3:0xe084d7b4ee205d1a!8m2!3d10.78809!4d106.688799!16s%2Fg%2F11cs2h8csp?entry=ttu&g_ep=EgoyMDI1MTEwNC4xIKXMDSoASAFQAw%3D%3D",search+selected_place,"47 Trần Quốc Toản, Phường Võ Thị Sáu, Quận 3"
146,Ministop -  Khu cư xá Bình Thới,"60 Đường Số 5 - Cư xá Bình Thới, Phường 8, Quận 11, Thành phố Hồ Chí Minh, Vietnam",10.7617588,106.6457778,"https://www.google.com/maps/place/MINISTOP/@10.7617588,106.6457778,17z/data=!3m1!4b1!4m6!3m5!1s0x31752e924a10bc49:0x969ce52c43ac1aa!8m2!3d10.7617535!4d106.6483527!16s%2Fg%2F11g0209c1y?entry=ttu&g_ep=EgoyMDI1MTEwNC4xIKXMDSoASAFQAw%3D%3D",search+selected_place,"60 Đường số 5, Khu cư xá Bình Thới, Phường 8, Quận 11"
147,Ministop -  Nguyễn Du,"15 Đường Nguyễn Du, Phường 1, Gò Vấp, Thành phố Hồ Chí Minh, Vietnam",10.8257706,106.6832544,"https://www.google.com/maps/place/MINISTOP/@10.8257706,106.6832544,17z/data=!3m1!4b1!4m6!3m5!1s0x317528fa5a0e254f:0xc6c52c15dd7f6a69!8m2!3d10.8257653!4d106.6858293!16s%2Fg%2F11c533_126?entry=ttu&g_ep=EgoyMDI1MTEwNC4xIKXMDSoASAFQAw%3D%3D",search+selected_place,"15 Nguyễn Du, Phường 1, Quận Gò Vấp, Thành phố Hồ Chí Minh."
148,Ministop -  Xóm Chiếu,"181/13 Xóm Chiếu, Phường 16, Quận 4, Thành phố Hồ Chí Minh, Vietnam",10.7553503,106.7070591,"https://www.google.com/maps/place/MINISTOP+-+X%C3%B3m+Chi%E1%BA%BFu/@10.7553503,106.7070591,17z/data=!3m1!4b1!4m6!3m5!1s0x31752f4a56d68ae7:0xd3851d5f9536972c!8m2!3d10.755345!4d106.709634!16s%2Fg%2F11y21kkkpt?entry=ttu&g_ep=EgoyMDI1MTEwNC4xIKXMDSoASAFQAw%3D%3D",search+selected_place,"181/13 Xóm Chiếu, Phường 16, Quận 4"
149,Ministop -  Lê Quang Định,"484 Lê Quang Định, Phường 11, Bình Thạnh, Thành phố Hồ Chí Minh, Vietnam",10.8142932,106.6807349,"https://www.google.com/maps/place/MINISTOP/@10.8142932,106.6807349,16z/data=!4m10!1m2!2m1!1zTWluaXN0b3AgLSAgTMOqIFF1YW5nIMSQ4buLbmg!3m6!1s0x317528e85f757187:0xb16fd146e3121940!8m2!3d10.8142932!4d106.6897471!15sCh1NaW5pc3RvcCAtICBMw6ogUXVhbmcgxJDhu4tuaCIDiAEBkgERY29udmVuaWVuY2Vfc3RvcmWqAWwKDS9nLzExYmJyaGowX2QKCS9tLzA2MXRxNRABKgwiCG1pbmlzdG9wKEIyIBABIhyomNPHO-uZb_FMfQE_0VST0aLw_UPuT7cxGEsrMh4QAiIabWluaXN0b3AgbMOqIHF1YW5nIMSR4buLbmjgAQA!16s%2Fg%2F11cs16zn7w?entry=ttu&g_ep=EgoyMDI1MTEwNC4xIKXMDSoASAFQAw%3D%3D",search,"484 Lê Quang Định, Phường 11, Quận Bình Thạnh"
150,Ministop -  Trần Đình Xu,"114 Trần Đình Xu, Phường Nguyễn Cư Trinh, Quận 1, Thành phố Hồ Chí Minh, Vietnam",10.7621663,106.6866191,"https://www.google.com/maps/place/MINISTOP+-+Tr%E1%BA%A7n+%C4%90%C3%ACnh+Xu/@10.7621663,106.6866191,17z/data=!3m1!4b1!4m6!3m5!1s0x31752f10b726059d:0x28f131b567e63f1c!8m2!3d10.762161!4d106.689194!16s%2Fg%2F11c2lk7cq_?entry=ttu&g_ep=EgoyMDI1MTEwNC4xIKXMDSoASAFQAw%3D%3D",search+selected_place,"114 Trần Đình Xu, Phường Nguyễn Cư Trinh, Quận 1"
151,Ministop -   KTX Đại Học Quốc Gia (Khu A),"Đường Tạ Quang Bửu, Khu phố 33, Dĩ An, Thành phố Hồ Chí Minh, Vietnam",10.9184606,106.7122687,"https://www.google.com/maps/place/HCMC+National+University+Dormitory+Zone+A/@10.9184606,106.7122687,13z/data=!4m10!1m2!2m1!1zTWluaXN0b3AgLSAgIEtUWCDEkOG6oWkgSOG7jWMgUXXhu5FjIEdpYSAoS2h1IEEp!3m6!1s0x3174d8a5f4e477e9:0x29d5aeb365cee20b!8m2!3d10.8782463!4d106.8062905!15sCjBNaW5pc3RvcCAtICAgS1RYIMSQ4bqhaSBI4buNYyBRdeG7kWMgR2lhIChLaHUgQSkiA4gBAVosIiptaW5pc3RvcCBrdHggxJHhuqFpIGjhu41jIHF14buRYyBnaWEga2h1IGGSARFzdHVkZW50X2Rvcm1pdG9yeZoBI0NoWkRTVWhOTUc5blMwVkpRMEZuU1VOMWEwbHhhRkpuRUFFqgGHAQoNL2cvMTFiYnJoajBfZAoNL2cvMTFjMW5kZG5sagoJL20vMDYxdHE1EAEqCSIFa2h1IGEoQjIfEAEiGzg2sdKQgpPAzfbqe2ugcubjuARg7U_1kgApuzIuEAIiKm1pbmlzdG9wIGt0eCDEkeG6oWkgaOG7jWMgcXXhu5FjIGdpYSBraHUgYeABAPoBBAgAECM!16s%2Fg%2F1tncqcyc?entry=ttu&g_ep=EgoyMDI1MTEwNC4xIKXMDSoASAFQAw%3D%3D",search,"Nhà A19 - Ký túc xá Khu A Đại học Quốc Gia, Khu phố Tân Lập, Phường Đông Hòa, Thành phố Dĩ An, Tỉnh Bình Dương"
152,Ministop -  Hoa Sứ,"61 Hoa Sứ, Phường 7, Phú Nhuận, Thành phố Hồ Chí Minh, Vietnam",10.7999348,106.6863131,"https://www.google.com/maps/place/MINISTOP/@10.7999348,106.6863131,17z/data=!3m1!4b1!4m6!3m5!1s0x317528cfefc2fd41:0x85ab313e0fe688a8!8m2!3d10.7999295!4d106.688888!16s%2Fg%2F11c1tz0dlx?entry=ttu&g_ep=EgoyMDI1MTEwNC4xIKXMDSoASAFQAw%3D%3D",search+selected_place,"61 Hoa Sứ, Phường 7, Quận Phú Nhuận"
153,Ministop -  Nam Kỳ Khởi Nghĩa,"75Bis Nam Kỳ Khởi Nghĩa, Phường Bến Thành, Quận 1, Thành phố Hồ Chí Minh, Vietnam",10.7723788,106.6978513,"https://www.google.com/maps/place/Ministop+Nam+K%E1%BB%B3+Kh%E1%BB%9Fi+Ngh%C4%A9a/@10.7723788,106.6978513,17z/data=!3m1!4b1!4m6!3m5!1s0x31752f40ae8ab241:0xc19751f218efa750!8m2!3d10.7723735!4d106.7004262!16s%2Fg%2F11c1ncvy9q?entry=ttu&g_ep=EgoyMDI1MTEwNC4xIKXMDSoASAFQAw%3D%3D",search+selected_place,"75 (Tầng 1) Nam Kỳ Khởi Nghĩa, Phường Bến Thành, Quận 1"
154,Ministop -  Vũ Huy Tấn,"15K Vũ Huy Tấn, Phường 1, Bình Thạnh, Thành phố Hồ Chí Minh, Vietnam",10.7957943,106.6916922,"https://www.google.com/maps/place/Ministop/@10.7957943,106.6916922,17z/data=!3m1!4b1!4m6!3m5!1s0x317528c94e59e51b:0x8c16578afdbd48be!8m2!3d10.795789!4d106.6942671!16s%2Fg%2F11cm0x2bds?entry=ttu&g_ep=EgoyMDI1MTEwNC4xIKXMDSoASAFQAw%3D%3D",search+selected_place,"15K Vũ Huy Tấn, Phường 1, Quận Bình Thạnh, Thành phố Hồ Chí Minh."
155,Ministop -  Đào Duy Từ,"17 Đ. Đào Duy Từ, Phường 8, Quận 10, Thành phố Hồ Chí Minh, Vietnam",10.7606132,106.6655058,"https://www.google.com/maps/place/MINISTOP+-+%C4%90%C3%A0o+Duy+T%E1%BB%AB/@10.7606132,106.6655058,17z/data=!3m1!4b1!4m6!3m5!1s0x31752ee4fa3d3fa7:0x3cf2e9daee10a139!8m2!3d10.7606079!4d106.6680807!16s%2Fg%2F11c55j96w0?entry=ttu&g_ep=EgoyMDI1MTEwNC4xIKXMDSoASAFQAw%3D%3D",search+selected_place,"17 Đào Duy Từ, Phường 8, Quận 10, Thành phố Hồ Chí Minh."
156,Ministop -  Nguyễn Trọng Tuyển,"41 Nguyễn Trọng Tuyển, Phường 15, Phú Nhuận, Thành phố Hồ Chí Minh, Vietnam",10.7977299,106.6686008,"https://www.google.com/maps/place/MINISTOP/@10.7977299,106.6686008,16z/data=!4m10!1m2!2m1!1zTWluaXN0b3AgLSAgTmd1eeG7hW4gVHLhu41uZyBUdXnhu4Nu!3m6!1s0x317528d6ed138855:0x7830bf62c32124c2!8m2!3d10.7971661!4d106.6799951!15sCiRNaW5pc3RvcCAtICBOZ3V54buFbiBUcuG7jW5nIFR1eeG7g24iA4gBAVojIiFtaW5pc3RvcCBuZ3V54buFbiB0cuG7jW5nIHR1eeG7g26SARFjb252ZW5pZW5jZV9zdG9yZaoBZAoNL2cvMTFiYnJoajBfZAoJL20vMDYxdHE1EAEyHxABIhukxILp22IZJbzYiesujIMin-yILNa7Ceh8xnUyJRACIiFtaW5pc3RvcCBuZ3V54buFbiB0cuG7jW5nIHR1eeG7g27gAQA!16s%2Fg%2F11f03ssw88?entry=ttu&g_ep=EgoyMDI1MTEwNC4xIKXMDSoASAFQAw%3D%3D",search,"351A Nguyễn Trọng Tuyển, Phường 1, Quận Tân Bình"
157,Ministop -  Vườn Lài,"56 Đ. Vườn Lài, Phú Thọ Hoà, Tân Phú, Thành phố Hồ Chí Minh, Vietnam",10.7878457,106.6309805,"https://www.google.com/maps/place/MINISTOP+-+V%C6%B0%E1%BB%9Dn+L%C3%A0i/@10.7878457,106.6309805,17z/data=!3m1!4b1!4m6!3m5!1s0x31752eabe7858d9b:0xff6810d747e66634!8m2!3d10.7878404!4d106.6335554!16s%2Fg%2F11crzwdzw6?entry=ttu&g_ep=EgoyMDI1MTEwNC4xIKXMDSoASAFQAw%3D%3D",search+selected_place,"56 Vườn Lài, Phường Tân Thành, Quận Tân Phú"
158,Ministop -  Thăng Long,"33 Thăng Long, Phường 4, Tân Bình, Thành phố Hồ Chí Minh, Vietnam",10.8023021,106.6578496,"https://www.google.com/maps/place/MINISTOP+-+Th%C4%83ng+Long/@10.8023021,106.6578496,17z/data=!3m1!4b1!4m6!3m5!1s0x3175293a75c2e4af:0xc3d10960b1db2d8f!8m2!3d10.8022968!4d106.6604245!16s%2Fg%2F11c1r7gcxt?entry=ttu&g_ep=EgoyMDI1MTEwNC4xIKXMDSoASAFQAw%3D%3D",search+selected_place,"33 Thăng Long, Phường 4, Quận Tân Bình"
159,Ministop -  Nguyễn Gia Trí,"106 Nguyễn Gia Trí, Phường 25, Bình Thạnh, Thành phố Hồ Chí Minh, Vietnam",10.8043926,106.7134517,"https://www.google.com/maps/place/Ministop+Vo+Oanh/@10.8043926,106.7134517,17z/data=!3m1!4b1!4m6!3m5!1s0x317529acfbdb1863:0xa9a8653f253d6af6!8m2!3d10.8043873!4d106.7160266!16s%2Fg%2F11t7dw7kc9?entry=ttu&g_ep=EgoyMDI1MTEwNC4xIKXMDSoASAFQAw%3D%3D",search+selected_place,"106 Nguyễn Gia Trí, Phường 25, Quận Bình Thạnh"
160,Ministop -  Trần Khắc Chân,"79 Trần Khắc Chân, Phường Tân Định, Quận 1, Thành phố Hồ Chí Minh, Vietnam",10.7944532,106.6883116,"https://www.google.com/maps/place/MINISTOP+-+Tr%E1%BA%A7n+Kh%E1%BA%AFc+Ch%C3%A2n/@10.7944532,106.6883116,17z/data=!3m1!4b1!4m6!3m5!1s0x317528cdcd673b07:0xa74bdd01cc537b69!8m2!3d10.7944479!4d106.6908865!16s%2Fg%2F11c187w8sh?entry=ttu&g_ep=EgoyMDI1MTEwNC4xIKXMDSoASAFQAw%3D%3D",search+selected_place,"79 Trần Khắc Chân, Phường Tân Định, Quận 1"
161,Ministop -  Phạm Văn Hai,"204 Phạm Văn Hai, Phường 5, Tân Bình, Thành phố Hồ Chí Minh, Vietnam",10.7912591,106.6592374,"https://www.google.com/maps/place/MINISTOP/@10.7912591,106.6592374,17z/data=!3m1!4b1!4m6!3m5!1s0x31752932d4caaa59:0x25aea94eb7fc902f!8m2!3d10.7912538!4d106.6618123!16s%2Fg%2F11c135dmy_?entry=ttu&g_ep=EgoyMDI1MTEwNC4xIKXMDSoASAFQAw%3D%3D",search+selected_place,"204 Phạm Văn Hai, Phường 5, Quận Tân Bình"
162,Ministop -  Nguyễn Biểu,"207 Đ. Nguyễn Biểu, Phường 2, Quận 5, Thành phố Hồ Chí Minh, Vietnam",10.7572484,106.6805535,"https://www.google.com/maps/place/MINISTOP+-+Nguy%E1%BB%85n+Bi%E1%BB%83u/@10.7572484,106.6805535,17z/data=!3m1!4b1!4m6!3m5!1s0x31752f8ecdbd49f9:0x63fb6ab00ed6c2a1!8m2!3d10.7572431!4d106.6831284!16s%2Fg%2F11sjp81cf0?entry=ttu&g_ep=EgoyMDI1MTEwNC4xIKXMDSoASAFQAw%3D%3D",search+selected_place,"207 Nguyễn Biểu, Phường 2, Quận 5"
163,Ministop -  Trương Công Định,"88 Trương Công Định, Phường 14, Tân Bình, Thành phố Hồ Chí Minh, Vietnam",10.7964797,106.6383426,"https://www.google.com/maps/place/MINISTOP+-+Truong+Cong+Dinh/@10.7964797,106.6383426,17z/data=!3m1!4b1!4m6!3m5!1s0x3175294d8aaa746f:0xf19309f6fbe8ecf1!8m2!3d10.7964744!4d106.6409175!16s%2Fg%2F11c1r6w2x8?entry=ttu&g_ep=EgoyMDI1MTEwNC4xIKXMDSoASAFQAw%3D%3D",search+selected_place,"88-88A-90-92 Trương Công Định, Phường 14, Quận Tân Bình Số điện thoại:"
164,Ministop -  Bạch Đằng 2,"165 Đ. Bạch Đằng, Phường 2, Tân Bình, Thành phố Hồ Chí Minh, Vietnam",10.8153671,106.6663656,"https://www.google.com/maps/place/Ministop+B%E1%BA%A1ch+%C4%90%E1%BA%B1ng/@10.8153671,106.6663656,16z/data=!4m10!1m2!2m1!1zTWluaXN0b3AgLSAgQuG6oWNoIMSQ4bqxbmcgMg!3m6!1s0x3175291e371024f3:0x69a71bf965aa85ca!8m2!3d10.8156808!4d106.6750274!15sChxNaW5pc3RvcCAtICBC4bqhY2ggxJDhurFuZyAyIgOIAQGSARFjb252ZW5pZW5jZV9zdG9yZaoBegoNL2cvMTFiYnJoajBfZAoNL2cvMTFjbHNfd2Z2YwoJL20vMDYxdHE1EAEqDCIIbWluaXN0b3AoQjIgEAEiHGmUcCkbNtojk8JEdu8YQ2Pw9iqZfoNNBXYsKosyHRACIhltaW5pc3RvcCBi4bqhY2ggxJHhurFuZyAy4AEA!16s%2Fg%2F11crztn8nw?entry=ttu&g_ep=EgoyMDI1MTEwNC4xIKXMDSoASAFQAw%3D%3D",search,"B22 Bạch Đằng, Phường 2, Quận Tân Bình Số điện thoại:"
165,Ministop -  Ngô Tất Tố,"69 Ngô Tất Tố, Phường 19, Bình Thạnh, Thành phố Hồ Chí Minh, Vietnam",10.7929844,106.7085423,"https://www.google.com/maps/place/Ministop+Ngo+Tat+To/@10.7929844,106.7085423,17z/data=!3m1!4b1!4m6!3m5!1s0x317528adf5a45f43:0xb56a1b4ac744cdb6!8m2!3d10.7929791!4d106.7111172!16s%2Fg%2F11c55tnm_f?entry=ttu&g_ep=EgoyMDI1MTEwNC4xIKXMDSoASAFQAw%3D%3D",search+selected_place,"69 Ngô Tất Tố, Phường 19, Quận Bình Thạnh, Thành phố Hồ Chí Minh. Số điện thoại:"
166,Ministop -  Hậu Giang,"Số 45 Hậu Giang, Phường 4, Tân Bình, Thành phố Hồ Chí Minh, Vietnam",10.8079012,106.6598583,"https://www.google.com/maps/place/Ministop+-+H%E1%BA%ADu+Giang/@10.8079012,106.6598583,17z/data=!3m1!4b1!4m6!3m5!1s0x3175293c9c881bfd:0x93b83ccb85e4f199!8m2!3d10.8078959!4d106.6624332!16s%2Fg%2F11c4wxbf93?entry=ttu&g_ep=EgoyMDI1MTEwNC4xIKXMDSoASAFQAw%3D%3D",search+selected_place,"45 Hậu Giang, Phường 4, Quận Tân Bình Số điện thoại:"
167,Ministop -  Phạm Viết Chánh 2,"37-39 Phạm Viết Chánh, Phường 19, Bình Thạnh, Thành phố Hồ Chí Minh, Vietnam",10.7903744,106.7069333,"https://www.google.com/maps/place/MINISTOP/@10.7903744,106.7069333,17z/data=!3m1!4b1!4m6!3m5!1s0x317528b2e8bc9441:0x2c40b6357726853b!8m2!3d10.7903691!4d106.7095082!16s%2Fg%2F11g6lzff40?entry=ttu&g_ep=EgoyMDI1MTEwNC4xIKXMDSoASAFQAw%3D%3D",search+selected_place,"37-39 Phạm Viết Chánh, Phường 19, Quận Bình Thạnh Số điện thoại:"
168,Ministop -  Hutech (Điện Biên Phủ),"475A Điện Biên Phủ, Phường 25, Bình Thạnh, Thành phố Hồ Chí Minh, Vietnam",10.8025425,106.7120654,"https://www.google.com/maps/place/MINISTOP+HUTECH/@10.8025425,106.7120654,17z/data=!3m1!4b1!4m6!3m5!1s0x317528a450d7cb9f:0xf65d8cc95cd2683f!8m2!3d10.8025372!4d106.7146403!16s%2Fg%2F11c4nwfd12?entry=ttu&g_ep=EgoyMDI1MTEwNC4xIKXMDSoASAFQAw%3D%3D",search+selected_place,"475A Điện Biên Phủ, Phường 25, Quận Bình Thạnh Số điện thoại:"
169,Ministop -  Hoàng Hoa Thám,"10A Hoàng Hoa Thám, Phường 7, Bình Thạnh, Thành phố Hồ Chí Minh, Vietnam",10.8010608,106.6489079,"https://www.google.com/maps/place/MINISTOP/@10.8010608,106.6489079,14z/data=!4m10!1m2!2m1!1sMinistop+-++Ho%C3%A0ng+Hoa+Th%C3%A1m!3m6!1s0x317528c467f81b55:0xa0c0e32a7fb95e48!8m2!3d10.8047072!4d106.6918625!15sChxNaW5pc3RvcCAtICBIb8OgbmcgSG9hIFRow6FtIgOIAQGSARFjb252ZW5pZW5jZV9zdG9yZaoBagoNL2cvMTFiYnJoajBfZAoJL20vMDYxdHE1EAEqDCIIbWluaXN0b3AoQjIfEAEiG6sPcDnKgVEpdLAjewxMVQLxcyAeB8ExBPm3XjIdEAIiGW1pbmlzdG9wIGhvw6BuZyBob2EgdGjDoW3gAQA!16s%2Fg%2F11btrs3q_0?entry=ttu&g_ep=EgoyMDI1MTEwNC4xIKXMDSoASAFQAw%3D%3D",search,"10A Hoàng Hoa Thám, Phường 7, Quận Bình Thạnh Số điện thoại:"
170,Ministop -  Hòa Hưng,"101 Hoà Hưng, Phường 12, Quận 10, Thành phố Hồ Chí Minh, Vietnam",10.7789447,106.6714275,"https://www.google.com/maps/place/MINISTOP/@10.7789447,106.6714275,17z/data=!3m1!4b1!4m6!3m5!1s0x31752ed831ca4493:0xce862cc97fa883ee!8m2!3d10.7789394!4d106.6740024!16s%2Fg%2F1pwfbcylk?entry=ttu&g_ep=EgoyMDI1MTEwNC4xIKXMDSoASAFQAw%3D%3D",search+selected_place,"101 Hòa Hưng, Phường 12, Quận 10 Số điện thoại:"
171,Ministop -  Cư Xá Đô Thành,"131 Số 3, Cư xá Đô Thành, Quận 3, Thành phố Hồ Chí Minh, Vietnam",10.7721552,106.6784504,"https://www.google.com/maps/place/MINISTOP+-+C%C6%B0+x%C3%A1+%C4%90%C3%B4+Th%C3%A0nh/@10.7721552,106.6784504,17z/data=!3m1!4b1!4m6!3m5!1s0x31752f216c08e221:0xf8f5818f6e0c5d2d!8m2!3d10.7721499!4d106.6810253!16s%2Fg%2F11b6x9_srz?entry=ttu&g_ep=EgoyMDI1MTEwNC4xIKXMDSoASAFQAw%3D%3D",search+selected_place,"129 - 131 Đường số 3, Cư Xá Đô Thành, Phường 4, Quận 3 Số điện thoại:"
172,Ministop -  Nguyễn Thượng Hiền,"245 Đ. Nguyễn Thượng Hiền, Phường 5, Bình Thạnh, Thành phố Hồ Chí Minh, Vietnam",10.8058554,106.6833246,"https://www.google.com/maps/place/MINISTOP/@10.8058554,106.6833246,17z/data=!3m1!4b1!4m6!3m5!1s0x317528db7ad95891:0xc488a7759540df44!8m2!3d10.8058501!4d106.6858995!16s%2Fg%2F11btrs8q7d?entry=ttu&g_ep=EgoyMDI1MTEwNC4xIKXMDSoASAFQAw%3D%3D",search+selected_place,"245 Nguyễn Thượng Hiền, Phường 5, Quận Bình Thạnh, Thành phố Hồ Chí Minh. Số điện thoại:"
173,Ministop -  Trần Doãn Khanh,"2 Đ. Trần Doãn Khanh, Đa Kao, Quận 1, Thành phố Hồ Chí Minh, Vietnam",10.7886722,106.6951751,"https://www.google.com/maps/place/MINISTOP/@10.7886722,106.6951751,17z/data=!3m1!4b1!4m6!3m5!1s0x31752f3530228871:0x9ed43bba8815786!8m2!3d10.7886669!4d106.69775!16s%2Fg%2F11c5ssqzxz?entry=ttu&g_ep=EgoyMDI1MTEwNC4xIKXMDSoASAFQAw%3D%3D",search+selected_place,"02 Trần Doãn Khanh, Phường Đa Kao, Quận 1 Số điện thoại:"
174,MINISTOP -  Bạch Đằng,"165 Đ. Bạch Đằng, Phường 2, Tân Bình, Thành phố Hồ Chí Minh, Vietnam",10.8153671,106.6663656,"https://www.google.com/maps/place/Ministop+B%E1%BA%A1ch+%C4%90%E1%BA%B1ng/@10.8153671,106.6663656,16z/data=!4m10!1m2!2m1!1zTUlOSVNUT1AgLSAgQuG6oWNoIMSQ4bqxbmc!3m6!1s0x3175291e371024f3:0x69a71bf965aa85ca!8m2!3d10.8156808!4d106.6750274!15sChpNSU5JU1RPUCAtICBC4bqhY2ggxJDhurFuZyIDiAEBkgERY29udmVuaWVuY2Vfc3RvcmWqAXcKDS9nLzExYmJyaGowX2QKDS9nLzExY2xzX3dmdmMKCS9tLzA2MXRxNRABKgwiCG1pbmlzdG9wKEIyHxABIhtv6qmvjKvLvvgZL6yqQR-OSCkmlRVPislVnacyGxACIhdtaW5pc3RvcCBi4bqhY2ggxJHhurFuZ-ABAA!16s%2Fg%2F11crztn8nw?entry=ttu&g_ep=EgoyMDI1MTEwNC4xIKXMDSoASAFQAw%3D%3D",search,"165 Bạch Đằng, Phường 2, Quận Tân Bình"
175,MINISTOP -  Nguyễn Hồng Đào,"191 Đ. Nguyễn Hồng Đào, Phường 14, Tân Bình, Thành phố Hồ Chí Minh, Vietnam",10.7930084,106.6395866,"https://www.google.com/maps/place/Ministop/@10.7930084,106.6395866,17z/data=!3m1!4b1!4m6!3m5!1s0x3175294d4edea821:0xca237e6c06bb6378!8m2!3d10.7930031!4d106.6421615!16s%2Fg%2F11b67njyft?entry=ttu&g_ep=EgoyMDI1MTEwNC4xIKXMDSoASAFQAw%3D%3D",search+selected_place,"191 - 193 Nguyễn Hồng Đào, Phường 14, Quận Tân Bình"
176,MINISTOP -  Trần Thiện Chánh,"77 Trần Thiện Chánh, Phường 12, Quận 10, Thành phố Hồ Chí Minh, Vietnam",10.7715321,106.6680244,"https://www.google.com/maps/place/Ministop/@10.7715321,106.6680244,17z/data=!3m1!4b1!4m6!3m5!1s0x31752ede7e57aebd:0x7db7b8720bd9fc5f!8m2!3d10.7715268!4d106.6705993!16s%2Fg%2F11c56btzlz?entry=ttu&g_ep=EgoyMDI1MTEwNC4xIKXMDSoASAFQAw%3D%3D",search+selected_place,"77 Trần Thiện Chánh, Phường 12, Quận 10"
177,MINISTOP -  Lam Sơn,"25A Đ. Lam Sơn, Phường 2, Tân Bình, Thành phố Hồ Chí Minh, Vietnam",10.8099839,106.6641478,"https://www.google.com/maps/place/Ministop+-+Lam+S%C6%A1n/@10.8099839,106.6641478,17z/data=!3m1!4b1!4m6!3m5!1s0x31752922fa50e7c1:0x8eaf0ee7bf9ff645!8m2!3d10.8099786!4d106.6667227!16s%2Fg%2F11xh733fq?entry=ttu&g_ep=EgoyMDI1MTEwNC4xIKXMDSoASAFQAw%3D%3D",search+selected_place,"25A Lam Sơn, Phường 2, Quận Tân Bình"
