name,extracted_address,latitude,longitude,url,cleaned_url,url_type,address,addr_cos_sim
"Ministop -  Scenic Valley 2 A0.03, trệt + lầu 1 (Tầng 1+2), Dự án khu dân cư Scenic Valley 2 (Lô MD4-4) – Phú Mỹ Hưng, Phường Tân Mỹ, Thành phố Hồ Chí Minh.","69 Trần Trọng Cung, Tân Thuận Đông, Quận 7, Thành phố Hồ Chí Minh, Vietnam",10.7437729,106.7319172,"https://www.google.com/maps/place/MINISTOP/@10.7437729,106.7319172,17z/data=!3m1!4b1!4m6!3m5!1s0x3175257883c17f19:0x8424a570432a7313!8m2!3d10.7437729!4d106.7319172!16s/g/11f3n9_wvg","https://www.google.com/maps/place/MINISTOP/@10.7437729,106.7319172,17z/data=!3m1!4b1!4m6!3m5!1s0x3175257883c17f19:0x8424a570432a7313!8m2!3d10.7437729!4d106.7319172!16s/g/11f3n9_wvg",place,"A0.03, trệt + lầu 1 (Tầng 1+2), Dự án khu dân cư Scenic Valley 2 (Lô MD4-4) – Phú Mỹ Hưng, Phường Tân Mỹ, Thành phố Hồ Chí Minh.",0.6574789
"Ministop -  Nơ Trang Long 24 Nơ Trang Long, Phường Bình Thạnh, Thành phố Hồ Chí Minh.","247 C Bùi Đình Tuý, Phường 14, Bình Thạnh, Thành phố Hồ Chí Minh, Vietnam",10.8075409,106.701661,"https://www.google.com/maps/place/Ministop/@10.8075409,106.701661,17z/data=!3m1!4b1!4m6!3m5!1s0x317528bf0dc25777:0x265855396e6251a5!8m2!3d10.8075409!4d106.701661!16s/g/11fyls00d5","https://www.google.com/maps/place/Ministop/@10.8075409,106.701661,17z/data=!3m1!4b1!4m6!3m5!1s0x317528bf0dc25777:0x265855396e6251a5!8m2!3d10.8075409!4d106.701661!16s/g/11fyls00d5",place,"24 Nơ Trang Long, Phường Bình Thạnh, Thành phố Hồ Chí Minh.",0.79206115
"Ministop -  Đường số 1 124 Đường số 01, Phường 10, Quận Tân Bình, Thành phố Hồ Chí Minh.","120 Võ Thành Trang, Phường 11, Tân Bình, Thành phố Hồ Chí Minh, Vietnam",10.7913259,106.6499456,"https://www.google.com/maps/place/Ministop%2BVo%2BThanh%2BTrang/@10.7913259,106.6499456,17z/data=!3m1!4b1!4m6!3m5!1s0x31752fea95c9df95:0x67ec8c44e6bb4ce8!8m2!3d10.7913259!4d106.6499456!16s/g/11t6lbcklc","https://www.google.com/maps/place/Ministop%2BVo%2BThanh%2BTrang/@10.7913259,106.6499456,17z/data=!3m1!4b1!4m6!3m5!1s0x31752fea95c9df95:0x67ec8c44e6bb4ce8!8m2!3d10.7913259!4d106.6499456!16s/g/11t6lbcklc",place,"124 Đường số 01, Phường 10, Quận Tân Bình, Thành phố Hồ Chí Minh.",0.8167405
"Ministop -  Alnata Plus – Celadon City S2.0.02, Tầng Trệt và Tầng 1, Khối đế P2, Khu A6 (Alnata Plus – Celadon City), Số 2, Đường N1, Phường Sơn Kỳ, Quận Tân Phú, Thành phố Hồ Chí Minh.","S2.0.02 Đ. Tân Thạnh, Sơn Kỳ, Tân Phú, Thành phố Hồ Chí Minh 70000, Vietnam",10.8039193,106.6167408,"https://www.google.com/maps/place/CHTL%2B-%2BMINISTOP%2B-%2BS254%2B-%2BCeladon%2BCity/@10.8039193,106.6167408,17z/data=!3m1!4b1!4m6!3m5!1s0x31752b005445caf1:0xb75d59c613fde84!8m2!3d10.8039193!4d106.6167408!16s/g/11w3lspy4c","https://www.google.com/maps/place/CHTL%2B-%2BMINISTOP%2B-%2BS254%2B-%2BCeladon%2BCity/@10.8039193,106.6167408,17z/data=!3m1!4b1!4m6!3m5!1s0x31752b005445caf1:0xb75d59c613fde84!8m2!3d10.8039193!4d106.6167408!16s/g/11w3lspy4c",place,"S2.0.02, Tầng Trệt và Tầng 1, Khối đế P2, Khu A6 (Alnata Plus – Celadon City), Số 2, Đường N1, Phường Sơn Kỳ, Quận Tân Phú, Thành phố Hồ Chí Minh.",0.7402806
"Ministop -  Westgate 0.04 Lầu Trệt (Thông tầng) Tháp A1, Dự án Westgate, Lô F Trung tâm hành chính huyện Bình Chánh, Đường Tân Túc, Khu phố 4, Thị trấn Tân Túc, Huyện Bình Chánh, Thành phố Hồ Chí Minh.","MHRP+3G Chung cư Westgate, TT. Tân Túc, Bình Chánh, Thành phố Hồ Chí Minh, Vietnam",10.6902398,106.5862555,"https://www.google.com/maps/place/Ministop%2B-%2BWestgate/@10.6902398,106.5862555,17z/data=!3m1!4b1!4m6!3m5!1s0x317533000fa7efe7:0x6c66ad9c7427587c!8m2!3d10.6902398!4d106.5862555!16s/g/11y43xgh7w","https://www.google.com/maps/place/Ministop%2B-%2BWestgate/@10.6902398,106.5862555,17z/data=!3m1!4b1!4m6!3m5!1s0x317533000fa7efe7:0x6c66ad9c7427587c!8m2!3d10.6902398!4d106.5862555!16s/g/11y43xgh7w",place,"0.04 Lầu Trệt (Thông tầng) Tháp A1, Dự án Westgate, Lô F Trung tâm hành chính huyện Bình Chánh, Đường Tân Túc, Khu phố 4, Thị trấn Tân Túc, Huyện Bình Chánh, Thành phố Hồ Chí Minh.",0.6454748
"Ministop -  UOA Tower UOA Tower, 6 Tân Trào, Phường Tân Phú, Quận 7, Thành phố Hồ Chí Minh.","6 Tân Trào, Tân Phú, Quận 7, Thành phố Hồ Chí Minh, Vietnam",10.7301206,106.7246932,"https://www.google.com/maps/place/Ministop%2B-%2BUOA%2BTower/@10.7301206,106.7246932,17z/data=!3m1!4b1!4m6!3m5!1s0x31752500042a5461:0xebe8bf52a1f4bea1!8m2!3d10.7301206!4d106.7246932!16s/g/11y3vq_2r4","https://www.google.com/maps/place/Ministop%2B-%2BUOA%2BTower/@10.7301206,106.7246932,17z/data=!3m1!4b1!4m6!3m5!1s0x31752500042a5461:0xebe8bf52a1f4bea1!8m2!3d10.7301206!4d106.7246932!16s/g/11y3vq_2r4",place,"UOA Tower, 6 Tân Trào, Phường Tân Phú, Quận 7, Thành phố Hồ Chí Minh.",0.7663414
"Ministop -  Lê Quang Định 2 97 Lê Quang Định, Phường 14, Quận Bình Thạnh, Thành phố Hồ Chí Minh.","484 Lê Quang Định, Phường 11, Bình Thạnh, Thành phố Hồ Chí Minh, Vietnam",10.8142932,106.6897471,"https://www.google.com/maps/place/MINISTOP/@10.8142932,106.6897471,17z/data=!3m1!4b1!4m6!3m5!1s0x317528e85f757187:0xb16fd146e3121940!8m2!3d10.8142932!4d106.6897471!16s/g/11cs16zn7w","https://www.google.com/maps/place/MINISTOP/@10.8142932,106.6897471,17z/data=!3m1!4b1!4m6!3m5!1s0x317528e85f757187:0xb16fd146e3121940!8m2!3d10.8142932!4d106.6897471!16s/g/11cs16zn7w",place,"97 Lê Quang Định, Phường 14, Quận Bình Thạnh, Thành phố Hồ Chí Minh.",0.75505877
"Ministop -  Đại học Văn Lang 233A Phan Văn Trị, Phường 11, Quận Bình Thạnh, Thành phố Hồ Chí Minh.","366A7-A8, Đ. Phan Văn Trị, Phường 5, Gò Vấp, Thành phố Hồ Chí Minh, Vietnam",10.8240118,106.691978,"https://www.google.com/maps/place/Anh%2BNg%E1%BB%AF%2BYOLA%2BPhan%2BV%C4%83n%2BTr%E1%BB%8B%2B-%2BQu%E1%BA%ADn%2BG%C3%B2%2BV%E1%BA%A5p/@10.8240118,106.691978,17z/data=!3m1!4b1!4m6!3m5!1s0x317528f1bbe13d03:0x268982af58d547d9!8m2!3d10.8240118!4d106.691978!16s/g/11f39pjnv5","https://www.google.com/maps/place/Anh%2BNg%E1%BB%AF%2BYOLA%2BPhan%2BV%C4%83n%2BTr%E1%BB%8B%2B-%2BQu%E1%BA%ADn%2BG%C3%B2%2BV%E1%BA%A5p/@10.8240118,106.691978,17z/data=!3m1!4b1!4m6!3m5!1s0x317528f1bbe13d03:0x268982af58d547d9!8m2!3d10.8240118!4d106.691978!16s/g/11f39pjnv5",place,"233A Phan Văn Trị, Phường 11, Quận Bình Thạnh, Thành phố Hồ Chí Minh.",0.83023155
"Ministop -  Nguyễn Văn Lượng 368/16 Nguyễn Văn Lượng, Phường 16, Quận Gò Vấp, Thành phố Hồ Chí Minh.","87, street 11, district Go Vap, Phường 16, Gò Vấp, Thành phố Hồ Chí Minh, Vietnam",10.8398546,106.6670188,"https://www.google.com/maps/place/MINISTOP-S233/@10.8398546,106.6670188,17z/data=!3m1!4b1!4m6!3m5!1s0x317529fe448fa325:0xf201aa42b5fd24fd!8m2!3d10.8398546!4d106.6670188!16s/g/11w3p1wg60","https://www.google.com/maps/place/MINISTOP-S233/@10.8398546,106.6670188,17z/data=!3m1!4b1!4m6!3m5!1s0x317529fe448fa325:0xf201aa42b5fd24fd!8m2!3d10.8398546!4d106.6670188!16s/g/11w3p1wg60",place,"368/16 Nguyễn Văn Lượng, Phường 16, Quận Gò Vấp, Thành phố Hồ Chí Minh.",0.6804873
"Ministop -  Cityland Park Hills 2 Lô thương mại TMDV03 tại tầng 1, địa chỉ số 0.08 Chung cư CH3, Đường số 8, Khu dân cư Cityland, Phường 10, Quận Gò Vấp, Thành phố Hồ Chí Minh.","P5-00.13 Cityland Park Hills, 18 Đ. Phan Văn Trị, Phường 10, Gò Vấp, Thành phố Hồ Chí Minh, Vietnam",10.836833,106.6675504,"https://www.google.com/maps/place/Ministop/@10.836833,106.6675504,17z/data=!3m1!4b1!4m6!3m5!1s0x3175292161caf477:0x479077db8b93dede!8m2!3d10.836833!4d106.6675504!16s/g/11ftwg106f","https://www.google.com/maps/place/Ministop/@10.836833,106.6675504,17z/data=!3m1!4b1!4m6!3m5!1s0x3175292161caf477:0x479077db8b93dede!8m2!3d10.836833!4d106.6675504!16s/g/11ftwg106f",place,"Lô thương mại TMDV03 tại tầng 1, địa chỉ số 0.08 Chung cư CH3, Đường số 8, Khu dân cư Cityland, Phường 10, Quận Gò Vấp, Thành phố Hồ Chí Minh.",0.5941821
"Ministop -  Khu dân cư Vĩnh Lộc 01 Đường số 8, Khu dân cư Vĩnh Lộc, Khu phố 4, Phường Bình Hưng Hòa B, Quận Bình Tân, Thành phố Hồ Chí Minh.","1 Đ. A8, Khu Phố 5, Bình Tân, Thành phố Hồ Chí Minh 700000, Vietnam",10.8043218,106.593699,"https://www.google.com/maps/place/Ministop%2B-%2BS228%2BKhu%2BD%C3%A2n%2BC%C6%B0%2BV%C4%A9nh%2BL%E1%BB%99c%2B-%2B%C4%90%C6%B0%E1%BB%9Dng%2BS%E1%BB%91%2B8/@10.8043218,106.593699,17z/data=!3m1!4b1!4m6!3m5!1s0x31752bd600f0d39d:0x18722e932b402d1d!8m2!3d10.8043218!4d106.593699!16s/g/11vl501_f7","https://www.google.com/maps/place/Ministop%2B-%2BS228%2BKhu%2BD%C3%A2n%2BC%C6%B0%2BV%C4%A9nh%2BL%E1%BB%99c%2B-%2B%C4%90%C6%B0%E1%BB%9Dng%2BS%E1%BB%91%2B8/@10.8043218,106.593699,17z/data=!3m1!4b1!4m6!3m5!1s0x31752bd600f0d39d:0x18722e932b402d1d!8m2!3d10.8043218!4d106.593699!16s/g/11vl501_f7",place,"01 Đường số 8, Khu dân cư Vĩnh Lộc, Khu phố 4, Phường Bình Hưng Hòa B, Quận Bình Tân, Thành phố Hồ Chí Minh.",0.7840859
"Ministop -  Cao ốc Re Tầng 1&2 – TMDV 03 – Cao ốc RES11, 205 Lạc Long Quân, Phường 03, Quận 11, Thành phố Hồ Chí Minh.","205 Lạc Long Quân, Phường 03, Quận 11, Thành phố Hồ Chí Minh, Vietnam",10.763596,106.6418318,"https://www.google.com/maps/place/MINISTOP%2B-%2BS225%2B-%2BCao%2B%E1%BB%91c%2BRes11/@10.763596,106.6418318,17z/data=!3m1!4b1!4m6!3m5!1s0x31752f001e56f52f:0xc470499605e6a34d!8m2!3d10.763596!4d106.6418318!16s/g/11vs7pg277","https://www.google.com/maps/place/MINISTOP%2B-%2BS225%2B-%2BCao%2B%E1%BB%91c%2BRes11/@10.763596,106.6418318,17z/data=!3m1!4b1!4m6!3m5!1s0x31752f001e56f52f:0xc470499605e6a34d!8m2!3d10.763596!4d106.6418318!16s/g/11vs7pg277",place,"Tầng 1&2 – TMDV 03 – Cao ốc RES11, 205 Lạc Long Quân, Phường 03, Quận 11, Thành phố Hồ Chí Minh.",0.7105602
"Ministop -  Tân Quý 2 192 - 194 Tân Quý, Phường Tân Quý, Quận Tân Phú, Thành phố Hồ Chí Minh.","293 Đ. Tân Kỳ Tân Quý, Tân Sơn Nhì, Tân Phú, Thành phố Hồ Chí Minh, Vietnam",10.8021666,106.6265805,"https://www.google.com/maps/place/MINISTOP%2B-%2BT%C3%82N%2BK%E1%BB%B2%2BT%C3%82N%2BQU%C3%9D/@10.8021666,106.6265805,17z/data=!3m1!4b1!4m6!3m5!1s0x31752b4ff1f46ee3:0x5e8717e2631358fa!8m2!3d10.8021666!4d106.6265805!16s/g/11pf681q26","https://www.google.com/maps/place/MINISTOP%2B-%2BT%C3%82N%2BK%E1%BB%B2%2BT%C3%82N%2BQU%C3%9D/@10.8021666,106.6265805,17z/data=!3m1!4b1!4m6!3m5!1s0x31752b4ff1f46ee3:0x5e8717e2631358fa!8m2!3d10.8021666!4d106.6265805!16s/g/11pf681q26",place,"192 - 194 Tân Quý, Phường Tân Quý, Quận Tân Phú, Thành phố Hồ Chí Minh.",0.8176304
"Ministop -  Trần Bình Trọng 52G Trần Bình Trọng, Phường 05, Quận Bình Thạnh, Thành phố Hồ Chí Minh.","52A Trần Bình Trọng, Phường 5, Bình Thạnh, Thành phố Hồ Chí Minh, Vietnam",10.8127055,106.6879861,"https://www.google.com/maps/place/MINISTOP/@10.8127055,106.6879861,17z/data=!3m1!4b1!4m6!3m5!1s0x3175295cffff2989:0x3d988226a14d5c63!8m2!3d10.8127055!4d106.6879861!16s/g/11krtx7b82","https://www.google.com/maps/place/MINISTOP/@10.8127055,106.6879861,17z/data=!3m1!4b1!4m6!3m5!1s0x3175295cffff2989:0x3d988226a14d5c63!8m2!3d10.8127055!4d106.6879861!16s/g/11krtx7b82",place,"52G Trần Bình Trọng, Phường 05, Quận Bình Thạnh, Thành phố Hồ Chí Minh.",0.84664166
"Ministop -  Mã Lò 168 Mã Lò, Khu phố 2, Phường Bình Trị Đông A, Quận Bình Tân, Thành phố Hồ Chí Minh.","102 Đường Số 29, Bình Trị Đông B, Bình Tân, Thành phố Hồ Chí Minh, Vietnam",10.7568145,106.611728,"https://www.google.com/maps/place/CHTL%2B-%2BMINISTOP%2B-%2BS257%2B-%2B%C4%90%C6%B0%E1%BB%9Dng%2Bs%E1%BB%91%2B29/@10.7568145,106.611728,17z/data=!3m1!4b1!4m6!3m5!1s0x31752d0009d9f3f5:0x7d10875e351a63b3!8m2!3d10.7568145!4d106.611728!16s/g/11y6b46zks","https://www.google.com/maps/place/CHTL%2B-%2BMINISTOP%2B-%2BS257%2B-%2B%C4%90%C6%B0%E1%BB%9Dng%2Bs%E1%BB%91%2B29/@10.7568145,106.611728,17z/data=!3m1!4b1!4m6!3m5!1s0x31752d0009d9f3f5:0x7d10875e351a63b3!8m2!3d10.7568145!4d106.611728!16s/g/11y6b46zks",place,"168 Mã Lò, Khu phố 2, Phường Bình Trị Đông A, Quận Bình Tân, Thành phố Hồ Chí Minh.",0.75673234
"Ministop -  Lê Đức Thọ 2 1177 Lê Đức Thọ, Phường 15, Quận Gò Vấp, Thành phố Hồ Chí Minh.","527 Đ. Lê Đức Thọ, Phường 16, Gò Vấp, Thành phố Hồ Chí Minh 70000, Vietnam",10.8463217,106.6704441,"https://www.google.com/maps/place/MINISTOP%2B-%2BL%C3%AA%2B%C4%90%E1%BB%A9c%2BTh%E1%BB%8D/@10.8463217,106.6704441,17z/data=!3m1!4b1!4m6!3m5!1s0x31752976c24363db:0xbec98fd9626dabe5!8m2!3d10.8463217!4d106.6704441!16s/g/11syj81266","https://www.google.com/maps/place/MINISTOP%2B-%2BL%C3%AA%2B%C4%90%E1%BB%A9c%2BTh%E1%BB%8D/@10.8463217,106.6704441,17z/data=!3m1!4b1!4m6!3m5!1s0x31752976c24363db:0xbec98fd9626dabe5!8m2!3d10.8463217!4d106.6704441!16s/g/11syj81266",place,"1177 Lê Đức Thọ, Phường 15, Quận Gò Vấp, Thành phố Hồ Chí Minh.",0.7942897
"Ministop -  Cư Xá Lữ Gia 77B Đường số 2 Cư Xá Lữ Gia, Phường 15, Quận 11, Thành phố Hồ Chí Minh.","43B Đường Số 2, Khu Phố 2, Quận 11, Thành phố Hồ Chí Minh, Vietnam",10.7717332,106.6546196,"https://www.google.com/maps/place/Mini%2BStop/@10.7717332,106.6546196,17z/data=!3m1!4b1!4m6!3m5!1s0x31752f27fd7bd077:0x1c7d2e440ee8a00!8m2!3d10.7717332!4d106.6546196!16s/g/11l5x2kb43","https://www.google.com/maps/place/Mini%2BStop/@10.7717332,106.6546196,17z/data=!3m1!4b1!4m6!3m5!1s0x31752f27fd7bd077:0x1c7d2e440ee8a00!8m2!3d10.7717332!4d106.6546196!16s/g/11l5x2kb43",place,"77B Đường số 2 Cư Xá Lữ Gia, Phường 15, Quận 11, Thành phố Hồ Chí Minh.",0.82827854
"Ministop -  One Verandah Cửa hàng thương mại số SH11 và SH12, Dự án One Verandah, số 02 đường Bát Nàn, Khu phố 01, Phường Thạnh Mỹ Lợi, Thành phố Thủ Đức, Thành phố Hồ Chí Minh.","1 Tạ Hiện, Phường Thạnh Mỹ Lợi, Thủ Đức, Thành phố Hồ Chí Minh, Vietnam",10.7768961,106.7515739,"https://www.google.com/maps/place/Ministop%2BOne%2BVerandah/@10.7768961,106.7515739,17z/data=!3m1!4b1!4m6!3m5!1s0x317525000c1ced8d:0xdd9e4e798fcefed7!8m2!3d10.7768961!4d106.7515739!16s/g/11vpdlvtwk","https://www.google.com/maps/place/Ministop%2BOne%2BVerandah/@10.7768961,106.7515739,17z/data=!3m1!4b1!4m6!3m5!1s0x317525000c1ced8d:0xdd9e4e798fcefed7!8m2!3d10.7768961!4d106.7515739!16s/g/11vpdlvtwk",place,"Cửa hàng thương mại số SH11 và SH12, Dự án One Verandah, số 02 đường Bát Nàn, Khu phố 01, Phường Thạnh Mỹ Lợi, Thành phố Thủ Đức, Thành phố Hồ Chí Minh.",0.7657127
"Ministop -  Lý Thánh Tông 46 Lý Thánh Tông, Phường Hiệp Tân, Quận Tân Phú, Thành phố Hồ Chí Minh.","46 Lý Thánh Tông, Tân Thới Hoà, Tân Phú, Thành phố Hồ Chí Minh 70000, Vietnam",10.7670654,106.6300416,"https://www.google.com/maps/place/Ministop%2BL%C3%BD%2BTh%C3%A1nh%2BT%C3%B4ng%2B-%2BS200/@10.7670654,106.6300416,17z/data=!3m1!4b1!4m6!3m5!1s0x31752f08c027c90b:0x54828d333b192a3!8m2!3d10.7670654!4d106.6300416!16s/g/11st68zc7k","https://www.google.com/maps/place/Ministop%2BL%C3%BD%2BTh%C3%A1nh%2BT%C3%B4ng%2B-%2BS200/@10.7670654,106.6300416,17z/data=!3m1!4b1!4m6!3m5!1s0x31752f08c027c90b:0x54828d333b192a3!8m2!3d10.7670654!4d106.6300416!16s/g/11st68zc7k",place,"46 Lý Thánh Tông, Phường Hiệp Tân, Quận Tân Phú, Thành phố Hồ Chí Minh.",0.84460944
"Ministop -  Đường số 59 83 Đường số 59, Phường 14, Quận Gò Vấp, Thành phố Hồ Chí Minh","12-13 Đường số 1, Đông Hoà, Thủ Đức, Thành phố Hồ Chí Minh, Vietnam",10.8690903,106.7876512,"https://www.google.com/maps/place/Ministop%2BN%C3%B4ng%2BL%C3%A2m/@10.8690903,106.7876512,17z/data=!3m1!4b1!4m6!3m5!1s0x31752700673364f5:0xb8f07d9852013a5e!8m2!3d10.8690903!4d106.7876512!16s/g/11zj0f1h7f","https://www.google.com/maps/place/Ministop%2BN%C3%B4ng%2BL%C3%A2m/@10.8690903,106.7876512,17z/data=!3m1!4b1!4m6!3m5!1s0x31752700673364f5:0xb8f07d9852013a5e!8m2!3d10.8690903!4d106.7876512!16s/g/11zj0f1h7f",place,"83 Đường số 59, Phường 14, Quận Gò Vấp, Thành phố Hồ Chí Minh",0.73201835
"Ministop -  Thạch Lam 2 280 Thạch Lam, Phường Phú Thạnh, Quận Tân Phú, Thành phố Hồ Chí Minh.","113 Đ. Thạch Lam, Phú Thạnh, Tân Phú, Thành phố Hồ Chí Minh, Vietnam",10.7769422,106.6300744,"https://www.google.com/maps/place/MINISTOP/@10.7769422,106.6300744,17z/data=!3m1!4b1!4m6!3m5!1s0x31752fae15a8f369:0x47cdd9483520eeaf!8m2!3d10.7769422!4d106.6300744!16s/g/11tk27690x","https://www.google.com/maps/place/MINISTOP/@10.7769422,106.6300744,17z/data=!3m1!4b1!4m6!3m5!1s0x31752fae15a8f369:0x47cdd9483520eeaf!8m2!3d10.7769422!4d106.6300744!16s/g/11tk27690x",place,"280 Thạch Lam, Phường Phú Thạnh, Quận Tân Phú, Thành phố Hồ Chí Minh.",0.8357531
"Ministop -  Bùi Quang Là 92 – 94 Bùi Quang Là, Phường 12, Quận Gò Vấp, Thành phố Hồ Chí Minh.","92-94 Bùi Quang Là, Phường 12, Gò Vấp, Thành phố Hồ Chí Minh 700000, Vietnam",10.8350598,106.6395588,"https://www.google.com/maps/place/MINISTOP/@10.8350598,106.6395588,17z/data=!3m1!4b1!4m6!3m5!1s0x317529fd3f45ac89:0x446f7a34c821a828!8m2!3d10.8350598!4d106.6395588!16s/g/11jt4g1qq0","https://www.google.com/maps/place/MINISTOP/@10.8350598,106.6395588,17z/data=!3m1!4b1!4m6!3m5!1s0x317529fd3f45ac89:0x446f7a34c821a828!8m2!3d10.8350598!4d106.6395588!16s/g/11jt4g1qq0",place,"92 – 94 Bùi Quang Là, Phường 12, Quận Gò Vấp, Thành phố Hồ Chí Minh.",0.8379239
"Ministop -  Topaz City Lô thương mại dịch vụ B1 tầng 1, Chung cư Topaz City - 39 Cao Lỗ, Phường 04, Quận 08, Thành phố Hồ Chí Minh.","39 Cao Lỗ, Phường 4, Quận 8, Thành phố Hồ Chí Minh, Vietnam",10.7378986,106.6794875,"https://www.google.com/maps/place/Topaz%2BCity%2BApartment/@10.7378986,106.6794875,17z/data=!3m1!4b1!4m6!3m5!1s0x31752fada9641f3b:0x95392c8c88ba9bc7!8m2!3d10.7378986!4d106.6794875!16s/g/11f3jwrw57","https://www.google.com/maps/place/Topaz%2BCity%2BApartment/@10.7378986,106.6794875,17z/data=!3m1!4b1!4m6!3m5!1s0x31752fada9641f3b:0x95392c8c88ba9bc7!8m2!3d10.7378986!4d106.6794875!16s/g/11f3jwrw57",place,"Lô thương mại dịch vụ B1 tầng 1, Chung cư Topaz City - 39 Cao Lỗ, Phường 04, Quận 08, Thành phố Hồ Chí Minh.",0.74001896
"Ministop -  Đường số 10 86 – 88 Đường số 10, Phường 13, Quận 06, Thành phố Hồ Chí Minh.","86 Đường số 10, P.13, Quận 6, Thành phố Hồ Chí Minh, Vietnam",10.7532715,106.6274072,"https://www.google.com/maps/place/Ministop/@10.7532715,106.6274072,17z/data=!3m1!4b1!4m6!3m5!1s0x31752d37bd48e7f5:0x8a79f93f7ef4be34!8m2!3d10.7532715!4d106.6274072!16s/g/11s86f18rh","https://www.google.com/maps/place/Ministop/@10.7532715,106.6274072,17z/data=!3m1!4b1!4m6!3m5!1s0x31752d37bd48e7f5:0x8a79f93f7ef4be34!8m2!3d10.7532715!4d106.6274072!16s/g/11s86f18rh",place,"86 – 88 Đường số 10, Phường 13, Quận 06, Thành phố Hồ Chí Minh.",0.8375623
"Ministop -  Water Point Tầng trệt gian hàng số 02, Trạm xe buýt và khu thương mại dịch vụ thuộc Lô MC5 thuộc khu đô thị mới Vàm Cỏ Đông, Xã An Thạnh, Huyện Bến Lức, Tỉnh Long An.","MF55+4WJ, An Thạnh, Bến Lức, Long An, Vietnam",10.657796,106.4596771,"https://www.google.com/maps/place/Ministop/@10.657796,106.4596771,17z/data=!3m1!4b1!4m6!3m5!1s0x310acd0357c09003:0x350b48a2bcbd7abb!8m2!3d10.657796!4d106.4596771!16s/g/11tbz0ptw6","https://www.google.com/maps/place/Ministop/@10.657796,106.4596771,17z/data=!3m1!4b1!4m6!3m5!1s0x310acd0357c09003:0x350b48a2bcbd7abb!8m2!3d10.657796!4d106.4596771!16s/g/11tbz0ptw6",place,"Tầng trệt gian hàng số 02, Trạm xe buýt và khu thương mại dịch vụ thuộc Lô MC5 thuộc khu đô thị mới Vàm Cỏ Đông, Xã An Thạnh, Huyện Bến Lức, Tỉnh Long An.",0.5962367
"Ministop -  Akari City AK5-00.01 Akari City, 77 Võ Văn Kiệt P.An Lạc, Q.Bình Tân, TP.HCM","PJ84+WXV, 77 Võ Văn Kiệt, An Lạc, Bình Tân, Thành phố Hồ Chí Minh, Vietnam",10.7173998,106.6073924,"https://www.google.com/maps/place/Aeon%2BMinistop%2BAkari%2BCity%2BAK5/@10.7173998,106.6073924,17z/data=!3m1!4b1!4m6!3m5!1s0x31752d11b5c44b9f:0x7c85383277859d81!8m2!3d10.7173998!4d106.6073924!16s/g/11t4cc6r10","https://www.google.com/maps/place/Aeon%2BMinistop%2BAkari%2BCity%2BAK5/@10.7173998,106.6073924,17z/data=!3m1!4b1!4m6!3m5!1s0x31752d11b5c44b9f:0x7c85383277859d81!8m2!3d10.7173998!4d106.6073924!16s/g/11t4cc6r10",place,"AK5-00.01 Akari City, 77 Võ Văn Kiệt P.An Lạc, Q.Bình Tân, TP.HCM",0.6508765
"Ministop -  Đường số 6 165 Đường số 6, Phường Bình Trị Đông B, Quận Bình Tân, TP. HCM","165 Đ. Số 6, An Lạc A, Bình Tân, Thành phố Hồ Chí Minh, Vietnam",10.7535445,106.618983,"https://www.google.com/maps/place/Ministop/@10.7535445,106.618983,17z/data=!3m1!4b1!4m6!3m5!1s0x31752d005d5d485b:0x1f2aafef8ccb1c65!8m2!3d10.7535445!4d106.618983!16s/g/11wwhsq81q","https://www.google.com/maps/place/Ministop/@10.7535445,106.618983,17z/data=!3m1!4b1!4m6!3m5!1s0x31752d005d5d485b:0x1f2aafef8ccb1c65!8m2!3d10.7535445!4d106.618983!16s/g/11wwhsq81q",place,"165 Đường số 6, Phường Bình Trị Đông B, Quận Bình Tân, TP. HCM",0.8293268
Ministop -  Lê Đức Thọ 527 Lê Đức Thọ P.16 Q.Gò Vấp,"527 Đ. Lê Đức Thọ, Phường 16, Gò Vấp, Thành phố Hồ Chí Minh 70000, Vietnam",10.8463217,106.6704441,"https://www.google.com/maps/place/MINISTOP%2B-%2BL%C3%AA%2B%C4%90%E1%BB%A9c%2BTh%E1%BB%8D/@10.8463217,106.6704441,17z/data=!3m1!4b1!4m6!3m5!1s0x31752976c24363db:0xbec98fd9626dabe5!8m2!3d10.8463217!4d106.6704441!16s/g/11syj81266","https://www.google.com/maps/place/MINISTOP%2B-%2BL%C3%AA%2B%C4%90%E1%BB%A9c%2BTh%E1%BB%8D/@10.8463217,106.6704441,17z/data=!3m1!4b1!4m6!3m5!1s0x31752976c24363db:0xbec98fd9626dabe5!8m2!3d10.8463217!4d106.6704441!16s/g/11syj81266",place,527 Lê Đức Thọ P.16 Q.Gò Vấp,0.78717697
"Ministop -  Tô Hiệu 57K Tô Hiệu, P.Hiệp Tân, Q.Tân Phú","58k Đ. Tô Hiệu, Tân Thới Hoà, Tân Phú, Thành phố Hồ Chí Minh, Vietnam",10.7699177,106.6268392,"https://www.google.com/maps/place/Ministop%2BT%C3%B4%2BHi%E1%BB%87u/@10.7699177,106.6268392,17z/data=!3m1!4b1!4m6!3m5!1s0x31752d0960436181:0x3d00848b49f7f57a!8m2!3d10.7699177!4d106.6268392!16s/g/11rzs45rsb","https://www.google.com/maps/place/Ministop%2BT%C3%B4%2BHi%E1%BB%87u/@10.7699177,106.6268392,17z/data=!3m1!4b1!4m6!3m5!1s0x31752d0960436181:0x3d00848b49f7f57a!8m2!3d10.7699177!4d106.6268392!16s/g/11rzs45rsb",place,"57K Tô Hiệu, P.Hiệp Tân, Q.Tân Phú",0.7694231
"Ministop -  Sunwah Pearl Căn hộ thương mại số S-16 gồm 01 Tầng Thuộc Dự Án Sunwah Pearl, số 90 Nguyễn Hữu Cảnh, phường 22, quận Bình Thạnh, TP. HCM","92 Nguyễn Hữu Cảnh, Saigon Pearl, Bình Thạnh, Thành phố Hồ Chí Minh 700000, Vietnam",10.7892912,106.7184082,"https://www.google.com/maps/place/MINISTOP/@10.7892912,106.7184082,17z/data=!3m1!4b1!4m6!3m5!1s0x317529fcd9566e39:0x198b97fab03c667b!8m2!3d10.7892912!4d106.7184082!16s/g/11s4yvgghv","https://www.google.com/maps/place/MINISTOP/@10.7892912,106.7184082,17z/data=!3m1!4b1!4m6!3m5!1s0x317529fcd9566e39:0x198b97fab03c667b!8m2!3d10.7892912!4d106.7184082!16s/g/11s4yvgghv",place,"Căn hộ thương mại số S-16 gồm 01 Tầng Thuộc Dự Án Sunwah Pearl, số 90 Nguyễn Hữu Cảnh, phường 22, quận Bình Thạnh, TP. HCM",0.67184097
"Ministop -  Safira D Căn D2.01.04-TM tại tầng 01 và tầng 02 của tháp D2 thuộc Khu nhà ở cao tầng Công ty Saphire tại số 454 đường Võ Chí Công, Khu phố 2, phường Phú Hữu, Tp. Thủ Đức, TP.HCM.","179 Đ. Võ Chí Công, Bình Trưng Đông, Thủ Đức, Thành phố Hồ Chí Minh, Vietnam",10.801393,106.7938978,"https://www.google.com/maps/place/Ministop%2BSafira/@10.801393,106.7938978,17z/data=!3m1!4b1!4m6!3m5!1s0x3175270047803f49:0x420d5f80cd7f5213!8m2!3d10.801393!4d106.7938978!16s/g/11w1jy8c8l","https://www.google.com/maps/place/Ministop%2BSafira/@10.801393,106.7938978,17z/data=!3m1!4b1!4m6!3m5!1s0x3175270047803f49:0x420d5f80cd7f5213!8m2!3d10.801393!4d106.7938978!16s/g/11w1jy8c8l",place,"Căn D2.01.04-TM tại tầng 01 và tầng 02 của tháp D2 thuộc Khu nhà ở cao tầng Công ty Saphire tại số 454 đường Võ Chí Công, Khu phố 2, phường Phú Hữu, Tp. Thủ Đức, TP.HCM.",0.5909495
"Ministop -  HaDo Centrosa Garden I-1.TM.05, Khu vực thương mại khối Iris(I), Khu Phức Hợp HaDo Centrosa, số 200, đường 3/2, Phường 12, Quận 10, TP. HCM.","200 Đ. 3 Tháng 2, Phường 12, Quận 10, Thành phố Hồ Chí Minh, Vietnam",10.7753088,106.6779535,"https://www.google.com/maps/place/Mini%2Bstop/@10.7753088,106.6779535,17z/data=!3m1!4b1!4m6!3m5!1s0x31752fcdeccf645b:0xf1937807031f5fdf!8m2!3d10.7753088!4d106.6779535!16s/g/11nnsbhg2s","https://www.google.com/maps/place/Mini%2Bstop/@10.7753088,106.6779535,17z/data=!3m1!4b1!4m6!3m5!1s0x31752fcdeccf645b:0xf1937807031f5fdf!8m2!3d10.7753088!4d106.6779535!16s/g/11nnsbhg2s",place,"I-1.TM.05, Khu vực thương mại khối Iris(I), Khu Phức Hợp HaDo Centrosa, số 200, đường 3/2, Phường 12, Quận 10, TP. HCM.",0.62777114
"Ministop -  Sài Gòn South Căn D0.02 Khu nhà ở xã Phước Kiển, huyện Nhà Bè – Khu nhà ở Nam Sài Gòn Residences, ấp 5, xã Phước Kiển, huyện Nhà Bè, TP.Hồ Chí Minh","Phước Kiển, Nhà Bè, Ho Chi Minh City, Vietnam",10.7204206,106.7042296,"https://www.google.com/maps/place/MINISTOP%2BSAIGON%2BSOUTH/@10.7204206,106.7042296,17z/data=!3m1!4b1!4m6!3m5!1s0x31752f812b64f4cf:0x62e617975563ed87!8m2!3d10.7204206!4d106.7042296!16s/g/11n103g8qb","https://www.google.com/maps/place/MINISTOP%2BSAIGON%2BSOUTH/@10.7204206,106.7042296,17z/data=!3m1!4b1!4m6!3m5!1s0x31752f812b64f4cf:0x62e617975563ed87!8m2!3d10.7204206!4d106.7042296!16s/g/11n103g8qb",place,"Căn D0.02 Khu nhà ở xã Phước Kiển, huyện Nhà Bè – Khu nhà ở Nam Sài Gòn Residences, ấp 5, xã Phước Kiển, huyện Nhà Bè, TP.Hồ Chí Minh",0.7603097
"Ministop -  Saigon Royal A.1.02 tại Tầng 01, tháp A thuộc Trung tâm Thương mại – Dịch vụ, Officetel và Căn hộ ở tại số 34 – 35 Bến Vân Đồn, Phường 13, Quận 4, TPHCM","Tháp A, Bến Vân Đồn, Phường 12, Quận 4, Thành phố Hồ Chí Minh, Vietnam",10.7669506,106.7039699,"https://www.google.com/maps/place/Ministop%2BSaigon%2BRoyal/@10.7669506,106.7039699,17z/data=!3m1!4b1!4m6!3m5!1s0x31752f6a75f3d199:0x82676162b98eaf9b!8m2!3d10.7669506!4d106.7039699!16s/g/11rb61366v","https://www.google.com/maps/place/Ministop%2BSaigon%2BRoyal/@10.7669506,106.7039699,17z/data=!3m1!4b1!4m6!3m5!1s0x31752f6a75f3d199:0x82676162b98eaf9b!8m2!3d10.7669506!4d106.7039699!16s/g/11rb61366v",place,"A.1.02 tại Tầng 01, tháp A thuộc Trung tâm Thương mại – Dịch vụ, Officetel và Căn hộ ở tại số 34 – 35 Bến Vân Đồn, Phường 13, Quận 4, TPHCM",0.7488159
"Ministop -  The CBD A1-1-5, Tầng số 1 Tháp A Tòa Nhà The CBD tại số 125 Đường Đồng Văn Cống, Phường Thạnh Mỹ Lợi, Tp. Thủ Đức, TP.HCM.","123/7 Đ. Đồng Văn Cống, Phường Thạnh Mỹ Lợi, Quận 2, Thành phố Hồ Chí Minh, Vietnam",10.7745241,106.7621116,"https://www.google.com/maps/place/Ministop%2BCBD%2B%C4%90%E1%BB%93ng%2BV%C4%83n%2BC%E1%BB%91ng/@10.7745241,106.7621116,17z/data=!3m1!4b1!4m6!3m5!1s0x317525a968055a4f:0x8475e87e6bdabc67!8m2!3d10.7745241!4d106.7621116!16s/g/11j99c6pk9","https://www.google.com/maps/place/Ministop%2BCBD%2B%C4%90%E1%BB%93ng%2BV%C4%83n%2BC%E1%BB%91ng/@10.7745241,106.7621116,17z/data=!3m1!4b1!4m6!3m5!1s0x317525a968055a4f:0x8475e87e6bdabc67!8m2!3d10.7745241!4d106.7621116!16s/g/11j99c6pk9",place,"A1-1-5, Tầng số 1 Tháp A Tòa Nhà The CBD tại số 125 Đường Đồng Văn Cống, Phường Thạnh Mỹ Lợi, Tp. Thủ Đức, TP.HCM.",0.64714503
"Ministop -  Bùi Đình Túy 2 114 Bùi Đình Túy, Phường 12, Quận Bình Thạnh, Tp.HCM","114 Bùi Đình Tuý, Phường 14, Bình Thạnh, Thành phố Hồ Chí Minh, Vietnam",10.8080689,106.7053902,"https://www.google.com/maps/place/MINISTOP/@10.8080689,106.7053902,17z/data=!3m1!4b1!4m6!3m5!1s0x317529996d3191e9:0x696ea167b67544d2!8m2!3d10.8080689!4d106.7053902!16s/g/11jp105w7v","https://www.google.com/maps/place/MINISTOP/@10.8080689,106.7053902,17z/data=!3m1!4b1!4m6!3m5!1s0x317529996d3191e9:0x696ea167b67544d2!8m2!3d10.8080689!4d106.7053902!16s/g/11jp105w7v",place,"114 Bùi Đình Túy, Phường 12, Quận Bình Thạnh, Tp.HCM",0.84375316
"Ministop -  Đại học Ngân Hàng 56 Hoàng Diệu 2, Phường Linh Chiểu, Tp. Thủ Đức, Tp.HCM","58 Đ. Hoàng Diệu 2, Linh Chiểu, Thủ Đức, Thành phố Hồ Chí Minh, Vietnam",10.8578065,106.7633672,"https://www.google.com/maps/place/MINI%2BSTOP/@10.8578065,106.7633672,17z/data=!3m1!4b1!4m6!3m5!1s0x317527a3aab4bbb7:0x6c6be78465fa5bad!8m2!3d10.8578065!4d106.7633672!16s/g/11j48glwqk","https://www.google.com/maps/place/MINI%2BSTOP/@10.8578065,106.7633672,17z/data=!3m1!4b1!4m6!3m5!1s0x317527a3aab4bbb7:0x6c6be78465fa5bad!8m2!3d10.8578065!4d106.7633672!16s/g/11j48glwqk",place,"56 Hoàng Diệu 2, Phường Linh Chiểu, Tp. Thủ Đức, Tp.HCM",0.82897794
"Ministop -  Homyland Riverside Lô thương mại SH1 thuộc chung cư cao cấp Homyland Riverside, 14 Đường số 1-THM, Phường Bình Trưng Đông, Thành phố Thủ Đức, Thành phố Hồ Chí Minh.","360 Nguyễn Duy Trinh, Phường Bình Trưng Tây, Quận 2, Thành phố Hồ Chí Minh, Vietnam",10.7894095,106.7686563,"https://www.google.com/maps/place/Ministop%2BHomyland%2BRiverside/@10.7894095,106.7686563,17z/data=!3m1!4b1!4m6!3m5!1s0x317527abe6891fff:0x43b240654865d4ed!8m2!3d10.7894095!4d106.7686563!16s/g/11fr0cjpj4","https://www.google.com/maps/place/Ministop%2BHomyland%2BRiverside/@10.7894095,106.7686563,17z/data=!3m1!4b1!4m6!3m5!1s0x317527abe6891fff:0x43b240654865d4ed!8m2!3d10.7894095!4d106.7686563!16s/g/11fr0cjpj4",place,"Lô thương mại SH1 thuộc chung cư cao cấp Homyland Riverside, 14 Đường số 1-THM, Phường Bình Trưng Đông, Thành phố Thủ Đức, Thành phố Hồ Chí Minh.",0.69138414
"Ministop -  Cityland Park Hills P5-00.10, Tầng 1, Tòa nhà chung cư CH1, số 18 Phan Văn Trị, Phường 10, Quận Gò Vấp, Thành phố Hồ Chí Minh.","P5-00.13 Cityland Park Hills, 18 Đ. Phan Văn Trị, Phường 10, Gò Vấp, Thành phố Hồ Chí Minh, Vietnam",10.836833,106.6675504,"https://www.google.com/maps/place/Ministop/@10.836833,106.6675504,17z/data=!3m1!4b1!4m6!3m5!1s0x3175292161caf477:0x479077db8b93dede!8m2!3d10.836833!4d106.6675504!16s/g/11ftwg106f","https://www.google.com/maps/place/Ministop/@10.836833,106.6675504,17z/data=!3m1!4b1!4m6!3m5!1s0x3175292161caf477:0x479077db8b93dede!8m2!3d10.836833!4d106.6675504!16s/g/11ftwg106f",place,"Park Hills P5-00.10, Tầng 1, Tòa nhà chung cư CH1, số 18 Phan Văn Trị, Phường 10, Quận Gò Vấp, Thành phố Hồ Chí Minh.",0.7676968
"Ministop -  Ni Sư Huỳnh Liên 73 Ni Sư Huỳnh Liên, Phường 10, Quận Tân Bình, TP.HCM","71 Ni Sư Huỳnh Liên, Phường 10, Tân Bình, Thành phố Hồ Chí Minh, Vietnam",10.7834972,106.6487679,"https://www.google.com/maps/place/MINISTOP/@10.7834972,106.6487679,17z/data=!3m1!4b1!4m6!3m5!1s0x31752fcb666b12af:0xba70b8e0c20999fa!8m2!3d10.7834972!4d106.6487679!16s/g/11fr3fyzd4","https://www.google.com/maps/place/MINISTOP/@10.7834972,106.6487679,17z/data=!3m1!4b1!4m6!3m5!1s0x31752fcb666b12af:0xba70b8e0c20999fa!8m2!3d10.7834972!4d106.6487679!16s/g/11fr3fyzd4",place,"73 Ni Sư Huỳnh Liên, Phường 10, Quận Tân Bình, TP.HCM",0.846231
"Ministop -  Hồ Văn Huê 43F Hồ Văn Huê, Phường 9, Quận Phú Nhuận","244 244/29 Đ. Huỳnh Văn Bánh, Phường 11, Phú Nhuận, Thành phố Hồ Chí Minh 700000, Vietnam",10.7926633,106.6752078,"https://www.google.com/maps/place/Replus%2BOffice/@10.7926633,106.6752078,17z/data=!3m1!4b1!4m6!3m5!1s0x317529bace3db375:0x13e5fbac11cc2195!8m2!3d10.7926633!4d106.6752078!16s/g/11p4bpl7nk","https://www.google.com/maps/place/Replus%2BOffice/@10.7926633,106.6752078,17z/data=!3m1!4b1!4m6!3m5!1s0x317529bace3db375:0x13e5fbac11cc2195!8m2!3d10.7926633!4d106.6752078!16s/g/11p4bpl7nk",place,"43F Hồ Văn Huê, Phường 9, Quận Phú Nhuận",0.6693835
"Ministop -  Đảo Kim Cương Căn B2.2G, Tầng B2, Tháp Hawaii, Đảo Kim Cương, Số 1 Đường 104 - BTT, KP. 3, P. Bình Trưng Tây, TP. Thủ Đức, TP. HCM","Đảo Kim Cương, Quận 2, Thủ Đức, Thành phố Hồ Chí Minh, Vietnam",10.7796021,106.746944,"https://www.google.com/maps/place/MINISTOP/@10.7796021,106.746944,17z/data=!3m1!4b1!4m6!3m5!1s0x31752511b4cfc54d:0x2593883397efdd9a!8m2!3d10.7796021!4d106.746944!16s/g/11h0yg8xq0","https://www.google.com/maps/place/MINISTOP/@10.7796021,106.746944,17z/data=!3m1!4b1!4m6!3m5!1s0x31752511b4cfc54d:0x2593883397efdd9a!8m2!3d10.7796021!4d106.746944!16s/g/11h0yg8xq0",place,"Căn B2.2G, Tầng B2, Tháp Hawaii, Đảo Kim Cương, Số 1 Đường 104 - BTT, KP. 3, P. Bình Trưng Tây, TP. Thủ Đức, TP. HCM",0.6976985
"Ministop -  Vinhomes Golden River (Bason) Căn A2SH09 tầng trệt và tầng 01 tòa A2 Vinhomes Golden River, 02 Tôn Đức Thắng, Phường Bến Nghé, Quận 1","2 Tôn Đức Thắng, Bến Nghé, Quận 1, Thành phố Hồ Chí Minh, Vietnam",10.7867421,106.710601,"https://www.google.com/maps/place/MINISTOP%2B-%2BVinhomes%2BGolden%2BRiver/@10.7867421,106.710601,17z/data=!3m1!4b1!4m6!3m5!1s0x31752f8b320ad723:0xffcfda53d640e5af!8m2!3d10.7867421!4d106.710601!16s/g/11h0mj3mzd","https://www.google.com/maps/place/MINISTOP%2B-%2BVinhomes%2BGolden%2BRiver/@10.7867421,106.710601,17z/data=!3m1!4b1!4m6!3m5!1s0x31752f8b320ad723:0xffcfda53d640e5af!8m2!3d10.7867421!4d106.710601!16s/g/11h0mj3mzd",place,"Căn A2SH09 tầng trệt và tầng 01 tòa A2 Vinhomes Golden River, 02 Tôn Đức Thắng, Phường Bến Nghé, Quận 1",0.7544945
"Ministop -  Đường 3/2 666/64 Đường 3/2, Phường 14, Quận 10","666/64 3 Tháng 2, Phường 14, Quận 10, Thành phố Hồ Chí Minh, Vietnam",10.7677709,106.6606281,"https://www.google.com/maps/place/Ministop/@10.7677709,106.6606281,17z/data=!3m1!4b1!4m6!3m5!1s0x31752f788c47d899:0x7294615f4d12e3a0!8m2!3d10.7677709!4d106.6606281!16s/g/11gmcxkpfn","https://www.google.com/maps/place/Ministop/@10.7677709,106.6606281,17z/data=!3m1!4b1!4m6!3m5!1s0x31752f788c47d899:0x7294615f4d12e3a0!8m2!3d10.7677709!4d106.6606281!16s/g/11gmcxkpfn",place,"666/64 Đường 3/2, Phường 14, Quận 10",0.84356344
"Ministop -  Phùng Văn Cung 94D2 Phùng Văn Cung, Phường 7, Quận Phú Nhuận","94d Đ. Phùng Văn Cung, Phường 7, Phú Nhuận, Thành phố Hồ Chí Minh, Vietnam",10.8020394,106.6846612,"https://www.google.com/maps/place/MINISTOP-S123/@10.8020394,106.6846612,17z/data=!3m1!4b1!4m6!3m5!1s0x3175299e7efd92ad:0x88d612b73553d988!8m2!3d10.8020394!4d106.6846612!16s/g/11kd9mtbvl","https://www.google.com/maps/place/MINISTOP-S123/@10.8020394,106.6846612,17z/data=!3m1!4b1!4m6!3m5!1s0x3175299e7efd92ad:0x88d612b73553d988!8m2!3d10.8020394!4d106.6846612!16s/g/11kd9mtbvl",place,"94D2 Phùng Văn Cung, Phường 7, Quận Phú Nhuận",0.8478812
"Ministop -  Phổ Quang 2 DH.7 thuộc Khu cao ốc văn phòng và Căn hộ chung cư số 5B đường Phổ Quang, Phường 2, Quận Tân Bình, Thành phố Hồ Chí Minh.","Block A Sky Center, 5b Đ. Phổ Quang, Phường 2, Tân Bình, Thành phố Hồ Chí Minh 70000, Vietnam",10.8063547,106.6663717,"https://www.google.com/maps/place/Ministop/@10.8063547,106.6663717,17z/data=!3m1!4b1!4m6!3m5!1s0x3175290041797fc3:0xd230798bd98e70de!8m2!3d10.8063547!4d106.6663717!16s/g/11x6r5yt3f","https://www.google.com/maps/place/Ministop/@10.8063547,106.6663717,17z/data=!3m1!4b1!4m6!3m5!1s0x3175290041797fc3:0xd230798bd98e70de!8m2!3d10.8063547!4d106.6663717!16s/g/11x6r5yt3f",place,"DH.7 thuộc Khu cao ốc văn phòng và Căn hộ chung cư số 5B đường Phổ Quang, Phường 2, Quận Tân Bình, Thành phố Hồ Chí Minh.",0.58628225
"Ministop -  New City Thủ Thiêm Gian hàng số BB-S01, Tầng trệt, KDC New City, Số 17 Mai Chí Thọ, KP.3, Phường An Khánh, TP. Thủ Đức, TP. HCM","17 Mai Chí Thọ, Phường An Khánh, Thủ Đức, Thành phố Hồ Chí Minh, Vietnam",10.7822175,106.7360938,"https://www.google.com/maps/place/Ministop%2BNew%2BCity/@10.7822175,106.7360938,17z/data=!3m1!4b1!4m6!3m5!1s0x317525e34fedf0ef:0xecee2d2cbabb516c!8m2!3d10.7822175!4d106.7360938!16s/g/11gf5s4130","https://www.google.com/maps/place/Ministop%2BNew%2BCity/@10.7822175,106.7360938,17z/data=!3m1!4b1!4m6!3m5!1s0x317525e34fedf0ef:0xecee2d2cbabb516c!8m2!3d10.7822175!4d106.7360938!16s/g/11gf5s4130",place,"Gian hàng số BB-S01, Tầng trệt, KDC New City, Số 17 Mai Chí Thọ, KP.3, Phường An Khánh, TP. Thủ Đức, TP. HCM",0.7301603
"Ministop -  Suối Tiên 120 Xa Lộ Hà Nội, Phường Tân Phú, TP. Thủ Đức, TP. HCM","120 Song Hành Xa Lộ Hà Nội, P, Thủ Đức, Thành phố Hồ Chí Minh, Vietnam",10.8660597,106.8024359,"https://www.google.com/maps/place/MINISTOP/@10.8660597,106.8024359,17z/data=!3m1!4b1!4m6!3m5!1s0x3175275971ad014d:0x39d693bae6626097!8m2!3d10.8660597!4d106.8024359!16s/g/11h9rwsfv9","https://www.google.com/maps/place/MINISTOP/@10.8660597,106.8024359,17z/data=!3m1!4b1!4m6!3m5!1s0x3175275971ad014d:0x39d693bae6626097!8m2!3d10.8660597!4d106.8024359!16s/g/11h9rwsfv9",place,"120 Xa Lộ Hà Nội, Phường Tân Phú, TP. Thủ Đức, TP. HCM",0.73619175
"Ministop -  Hutech 2 15A Phân khu E1, Khu Công Nghệ Cao, Xa Lộ Hà Nội, Phường Hiệp Phú, TP. Thủ Đức, TP. HCM","Vietnam, Thành phố Hồ Chí Minh, Thủ Đức, Hiệp Phú, Song Hành Xa Lộ Hà Nội",10.8554246,106.785659,"https://www.google.com/maps/place/MINISTOP-HUTECH%2BKHU%2BE/@10.8554246,106.785659,17z/data=!3m1!4b1!4m6!3m5!1s0x31752709bc5097b7:0x43d68e139b456316!8m2!3d10.8554246!4d106.785659!16s/g/11f5ms4_1z","https://www.google.com/maps/place/MINISTOP-HUTECH%2BKHU%2BE/@10.8554246,106.785659,17z/data=!3m1!4b1!4m6!3m5!1s0x31752709bc5097b7:0x43d68e139b456316!8m2!3d10.8554246!4d106.785659!16s/g/11f5ms4_1z",place,"15A Phân khu E1, Khu Công Nghệ Cao, Xa Lộ Hà Nội, Phường Hiệp Phú, TP. Thủ Đức, TP. HCM",0.68131626
"Ministop -  Masteri Thảo Điền T5-B01.03+04, tại tầng 1 thuộc dự án Khu nhà ở chung cư cao cấp Masteri Thảo Điền, số 159 Võ Nguyên Giáp, Phường Thảo Điền, Thành phố Thủ Đức, Thành phố Hồ Chí Minh.","RP3R+4Q7, Thảo Điền, Thủ Đức, Thành phố Hồ Chí Minh, Vietnam",10.8028279,106.7419312,"https://www.google.com/maps/place/Ministop/@10.8028279,106.7419312,17z/data=!3m1!4b1!4m6!3m5!1s0x3175270034743f85:0x5e713213f91f5ce4!8m2!3d10.8028279!4d106.7419312!16s/g/11x7pptdj9","https://www.google.com/maps/place/Ministop/@10.8028279,106.7419312,17z/data=!3m1!4b1!4m6!3m5!1s0x3175270034743f85:0x5e713213f91f5ce4!8m2!3d10.8028279!4d106.7419312!16s/g/11x7pptdj9",place,"T5-B01.03+04, tại tầng 1 thuộc dự án Khu nhà ở chung cư cao cấp Masteri Thảo Điền, số 159 Võ Nguyên Giáp, Phường Thảo Điền, Thành phố Thủ Đức, Thành phố Hồ Chí Minh.",0.6476898
"Ministop -  Vũ Tông Phan 8 Vũ Tông Phan, Phường An Phú, TP. Thủ Đức, TP. HCM","8 Vũ Tông Phan, An Phú, Thủ Đức, Thành phố Hồ Chí Minh, Vietnam",10.7978134,106.7428493,"https://www.google.com/maps/place/Ministop%2BVu%2BTong%2BPhan/@10.7978134,106.7428493,17z/data=!3m1!4b1!4m6!3m5!1s0x3175261275f934bd:0xf84c37ce15bb39d!8m2!3d10.7978134!4d106.7428493!16s/g/11csr6xmsg","https://www.google.com/maps/place/Ministop%2BVu%2BTong%2BPhan/@10.7978134,106.7428493,17z/data=!3m1!4b1!4m6!3m5!1s0x3175261275f934bd:0xf84c37ce15bb39d!8m2!3d10.7978134!4d106.7428493!16s/g/11csr6xmsg",place,"8 Vũ Tông Phan, Phường An Phú, TP. Thủ Đức, TP. HCM",0.8382989
"Ministop -   KTX Đại Học Quốc Gia (Khu A) Nhà A19 - Ký túc xá Khu A Đại học Quốc Gia, Khu phố Tân Lập, Phường Đông Hòa, Thành phố Dĩ An, Tỉnh Bình Dương","120 Song Hành Xa Lộ Hà Nội, P, Thủ Đức, Thành phố Hồ Chí Minh, Vietnam",10.8660597,106.8024359,"https://www.google.com/maps/place/MINISTOP/@10.8660597,106.8024359,17z/data=!3m1!4b1!4m6!3m5!1s0x3175275971ad014d:0x39d693bae6626097!8m2!3d10.8660597!4d106.8024359!16s/g/11h9rwsfv9","https://www.google.com/maps/place/MINISTOP/@10.8660597,106.8024359,17z/data=!3m1!4b1!4m6!3m5!1s0x3175275971ad014d:0x39d693bae6626097!8m2!3d10.8660597!4d106.8024359!16s/g/11h9rwsfv9",place,"Nhà A19 - Ký túc xá Khu A Đại học Quốc Gia, Khu phố Tân Lập, Phường Đông Hòa, Thành phố Dĩ An, Tỉnh Bình Dương",0.7120226
"Ministop -  Trương Công Định 88-88A-90-92 Trương Công Định, Phường 14, Quận Tân Bình Số điện thoại:","88 Trương Công Định, Phường Tân Bình, Tân Bình, Thành phố Hồ Chí Minh, Vietnam",10.7964744,106.6409175,"https://www.google.com/maps/place/MINISTOP%2B-%2BTruong%2BCong%2BDinh/@10.7964744,106.6409175,17z/data=!3m1!4b1!4m6!3m5!1s0x3175294d8aaa746f:0xf19309f6fbe8ecf1!8m2!3d10.7964744!4d106.6409175!16s/g/11c1r6w2x8","https://www.google.com/maps/place/MINISTOP%2B-%2BTruong%2BCong%2BDinh/@10.7964744,106.6409175,17z/data=!3m1!4b1!4m6!3m5!1s0x3175294d8aaa746f:0xf19309f6fbe8ecf1!8m2!3d10.7964744!4d106.6409175!16s/g/11c1r6w2x8",place,"88-88A-90-92 Trương Công Định, Phường 14, Quận Tân Bình Số điện thoại:",0.80926186
"Ministop -  Bạch Đằng 2 B22 Bạch Đằng, Phường 2, Quận Tân Bình Số điện thoại:","B22 Đ. Bạch Đằng, Phường 2, Tân Bình, Thành phố Hồ Chí Minh, Vietnam",10.8150325,106.6680035,"https://www.google.com/maps/place/Ministop%2BB22%2BB%E1%BA%A1ch%2B%C4%90%E1%BA%B1ng/@10.8150325,106.6680035,17z/data=!3m1!4b1!4m6!3m5!1s0x31752918f9dc4129:0x541a8fb2d2ee720c!8m2!3d10.8150325!4d106.6680035!16s/g/11cls_wfvc","https://www.google.com/maps/place/Ministop%2BB22%2BB%E1%BA%A1ch%2B%C4%90%E1%BA%B1ng/@10.8150325,106.6680035,17z/data=!3m1!4b1!4m6!3m5!1s0x31752918f9dc4129:0x541a8fb2d2ee720c!8m2!3d10.8150325!4d106.6680035!16s/g/11cls_wfvc",place,"B22 Bạch Đằng, Phường 2, Quận Tân Bình Số điện thoại:",0.8264842
"Ministop -  Hậu Giang 45 Hậu Giang, Phường 4, Quận Tân Bình Số điện thoại:","Số 45 Hậu Giang, Phường 4, Tân Bình, Thành phố Hồ Chí Minh, Vietnam",10.8078959,106.6624332,"https://www.google.com/maps/place/Ministop%2B-%2BH%E1%BA%ADu%2BGiang/@10.8078959,106.6624332,17z/data=!3m1!4b1!4m6!3m5!1s0x3175293c9c881bfd:0x93b83ccb85e4f199!8m2!3d10.8078959!4d106.6624332!16s/g/11c4wxbf93","https://www.google.com/maps/place/Ministop%2B-%2BH%E1%BA%ADu%2BGiang/@10.8078959,106.6624332,17z/data=!3m1!4b1!4m6!3m5!1s0x3175293c9c881bfd:0x93b83ccb85e4f199!8m2!3d10.8078959!4d106.6624332!16s/g/11c4wxbf93",place,"45 Hậu Giang, Phường 4, Quận Tân Bình Số điện thoại:",0.8497348
"Ministop -  Trần Doãn Khanh 02 Trần Doãn Khanh, Phường Đa Kao, Quận 1 Số điện thoại:","2 Đ. Trần Doãn Khanh, Đa Kao, Quận 1, Thành phố Hồ Chí Minh, Vietnam",10.7886669,106.69775,"https://www.google.com/maps/place/MINISTOP/@10.7886669,106.69775,17z/data=!3m1!4b1!4m6!3m5!1s0x31752f3530228871:0x9ed43bba8815786!8m2!3d10.7886669!4d106.69775!16s/g/11c5ssqzxz","https://www.google.com/maps/place/MINISTOP/@10.7886669,106.69775,17z/data=!3m1!4b1!4m6!3m5!1s0x31752f3530228871:0x9ed43bba8815786!8m2!3d10.7886669!4d106.69775!16s/g/11c5ssqzxz",place,"02 Trần Doãn Khanh, Phường Đa Kao, Quận 1 Số điện thoại:",0.7919472
"MINISTOP -  Nguyễn Hồng Đào 191 - 193 Nguyễn Hồng Đào, Phường 14, Quận Tân Bình","191 Đ. Nguyễn Hồng Đào, Phường Tân Bình, Tân Bình, Thành phố Hồ Chí Minh, Vietnam",10.7930031,106.6421615,"https://www.google.com/maps/place/Ministop/@10.7930031,106.6421615,17z/data=!3m1!4b1!4m6!3m5!1s0x3175294d4edea821:0xca237e6c06bb6378!8m2!3d10.7930031!4d106.6421615!16s/g/11b67njyft","https://www.google.com/maps/place/Ministop/@10.7930031,106.6421615,17z/data=!3m1!4b1!4m6!3m5!1s0x3175294d4edea821:0xca237e6c06bb6378!8m2!3d10.7930031!4d106.6421615!16s/g/11b67njyft",place,"191 - 193 Nguyễn Hồng Đào, Phường 14, Quận Tân Bình",0.8492036
